{"type":"FeatureCollection","features":[{"type":"Feature","properties":{"name":"Oregon"},"geometry":{"type":"MultiPolygon","coordinates":[[[[-123.66475,46.24431],[-123.64897,46.24846],[-123.64134,46.24798],[-123.65064,46.24407],[-123.66475,46.24431]]],[[[-124.03523,46.28513],[-124.02545,46.28456],[-124.02403,46.29083],[-124.00894,46.26557],[-124.0186,46.27199],[-124.02834,46.27396],[-124.03618,46.28152],[-124.03523,46.28513]]],[[[-124.32329,42.06413],[-124.32177,42.06731],[-124.32109,42.06504],[-124.32329,42.06413]]],[[[-124.42693,42.31285],[-124.42535,42.3153],[-124.42504,42.31283],[-124.42693,42.31285]]],[[[-124.47585,42.6655],[-124.47554,42.66856],[-124.47479,42.66639],[-124.47585,42.6655]]],[[[-124.56458,42.84088],[-124.55663,42.83844],[-124.54948,42.84362],[-124.54505,42.85409],[-124.53647,42.86236],[-124.53458,42.87541],[-124.52564,42.87999],[-124.50013,42.91751],[-124.48093,42.9515],[-124.44686,43.03181],[-124.43222,43.09739],[-124.43514,43.10468],[-124.43363,43.1114],[-124.43784,43.11402],[-124.4241,43.12686],[-124.40171,43.1849],[-124.39529,43.2111],[-124.39737,43.21963],[-124.38245,43.27017],[-124.39552,43.30224],[-124.40039,43.30212],[-124.4028,43.30587],[-124.38528,43.32773],[-124.38459,43.33285],[-124.37698,43.33423],[-124.37302,43.33896],[-124.35332,43.34267],[-124.34323,43.35152],[-124.315,43.38839],[-124.28688,43.4363],[-124.2556,43.50217],[-124.23201,43.56239],[-124.21446,43.62762],[-124.20633,43.67402],[-124.19361,43.70614],[-124.17767,43.76723],[-124.15025,43.91085],[-124.12396,44.10583],[-124.12363,44.11721],[-124.12774,44.12202],[-124.12386,44.1341],[-124.12887,44.13755],[-124.12265,44.14252],[-124.11441,44.19816],[-124.11566,44.20655],[-124.11104,44.23507],[-124.11529,44.24597],[-124.10893,44.26547],[-124.10973,44.27059],[-124.11594,44.27464],[-124.11173,44.28323],[-124.11519,44.28648],[-124.10906,44.3037],[-124.10904,44.31838],[-124.10057,44.33192],[-124.08686,44.40518],[-124.08369,44.4304],[-124.08359,44.50111],[-124.07539,44.5316],[-124.06634,44.59615],[-124.06913,44.61297],[-124.06703,44.62784],[-124.05827,44.65886],[-124.06003,44.66935],[-124.06349,44.67243],[-124.07408,44.67317],[-124.07924,44.67719],[-124.072,44.67791],[-124.06843,44.68308],[-124.05789,44.73515],[-124.06016,44.74507],[-124.06481,44.74607],[-124.06632,44.76266],[-124.07546,44.77139],[-124.07406,44.7981],[-124.06373,44.8053],[-124.06349,44.81221],[-124.06787,44.81406],[-124.06661,44.83055],[-124.05414,44.83822],[-124.04881,44.85],[-124.02513,44.92816],[-124.02383,44.94981],[-124.00917,45.01671],[-124.01166,45.03347],[-124.0055,45.04292],[-124.01799,45.0498],[-124.01585,45.06475],[-124.01216,45.07691],[-124.00605,45.08473],[-123.98952,45.09403],[-123.97542,45.14547],[-123.96818,45.20121],[-123.97253,45.21614],[-123.9765,45.21932],[-123.97133,45.22684],[-123.96427,45.27143],[-123.95806,45.278],[-123.96261,45.28106],[-123.96417,45.31702],[-123.9729,45.33688],[-124.00776,45.3368],[-124.00749,45.33973],[-123.97971,45.34771],[-123.9734,45.35478],[-123.96573,45.38623],[-123.96056,45.43077],[-123.96204,45.4432],[-123.97467,45.46732],[-123.97016,45.47311],[-123.97012,45.48163],[-123.97865,45.48685],[-123.9621,45.49717],[-123.95757,45.51039],[-123.94944,45.54538],[-123.94947,45.56482],[-123.95671,45.57129],[-123.93728,45.65638],[-123.9404,45.66292],[-123.94313,45.72702],[-123.94603,45.73324],[-123.96291,45.74361],[-123.96743,45.75103],[-123.96785,45.75575],[-123.96434,45.75829],[-123.97028,45.76413],[-123.98174,45.7625],[-123.98303,45.76804],[-123.96931,45.77983],[-123.96899,45.80293],[-123.96599,45.80641],[-123.96155,45.83709],[-123.96461,45.8568],[-123.96274,45.86997],[-123.96724,45.88477],[-123.96764,45.9078],[-123.97152,45.9102],[-123.97184,45.91534],[-123.97845,45.91817],[-123.97794,45.92856],[-123.99305,45.93883],[-123.99128,45.94249],[-123.99371,45.94642],[-123.975,45.95612],[-123.97507,45.96168],[-123.97,45.96913],[-123.95744,45.97446],[-123.93748,45.9773],[-123.9279,46.00956],[-123.92934,46.04197],[-123.93337,46.07167],[-123.94754,46.11613],[-123.97413,46.16879],[-123.99678,46.20399],[-124.01035,46.22351],[-124.02144,46.23011],[-124.01264,46.23685],[-124.00022,46.23641],[-123.99624,46.22978],[-123.98888,46.22715],[-123.99173,46.22041],[-123.99601,46.21909],[-123.98983,46.20922],[-123.98032,46.20692],[-123.97295,46.21267],[-123.95398,46.20716],[-123.90528,46.18069],[-123.90046,46.17434],[-123.90251,46.1687],[-123.89177,46.16497],[-123.87883,46.16809],[-123.87479,46.16282],[-123.85481,46.15734],[-123.83961,46.16216],[-123.83842,46.17105],[-123.85992,46.18038],[-123.86665,46.18767],[-123.86422,46.18952],[-123.85495,46.18846],[-123.84622,46.19268],[-123.82184,46.19029],[-123.78321,46.19854],[-123.75759,46.213],[-123.71815,46.18899],[-123.69343,46.18981],[-123.67418,46.1982],[-123.67538,46.2124],[-123.66675,46.21822],[-123.64423,46.21317],[-123.61952,46.21531],[-123.60196,46.22475],[-123.58244,46.23052],[-123.54816,46.24901],[-123.54766,46.25911],[-123.50125,46.271],[-123.47485,46.26783],[-123.44759,46.24983],[-123.42763,46.22934],[-123.43099,46.18157],[-123.39041,46.15442],[-123.37144,46.14637],[-123.28017,46.14484],[-123.16642,46.18897],[-123.1159,46.18526],[-123.0413,46.14635],[-123.00423,46.13382],[-122.96268,46.10481],[-122.90412,46.08373],[-122.88448,46.06028],[-122.87809,46.03128],[-122.85616,46.01446],[-122.83764,45.98082],[-122.814,45.96098],[-122.80619,45.93241],[-122.81151,45.91272],[-122.79809,45.88433],[-122.78503,45.86769],[-122.7857,45.84421],[-122.79596,45.82502],[-122.79561,45.80999],[-122.76953,45.78058],[-122.76145,45.75916],[-122.76011,45.73441],[-122.77251,45.69963],[-122.77451,45.68043],[-122.76381,45.65713],[-122.73811,45.64413],[-122.71331,45.63743],[-122.67501,45.61803],[-122.64391,45.60973],[-122.60261,45.60763],[-122.54815,45.59676],[-122.47931,45.57976],[-122.45389,45.56731],[-122.43867,45.56358],[-122.3803,45.57594],[-122.3528,45.56944],[-122.3315,45.54824],[-122.2949,45.54354],[-122.2667,45.54384],[-122.24899,45.54774],[-122.2017,45.56414],[-122.18369,45.57769],[-122.14075,45.5845],[-122.11235,45.58141],[-122.10167,45.58351],[-122.04437,45.60951],[-122.02257,45.61515],[-122.00369,45.61593],[-121.98304,45.62281],[-121.96355,45.63278],[-121.95573,45.64356],[-121.93515,45.64417],[-121.90827,45.6544],[-121.90086,45.66201],[-121.90185,45.67071],[-121.86717,45.69327],[-121.8113,45.70676],[-121.7351,45.69404],[-121.70736,45.69481],[-121.66836,45.70508],[-121.63117,45.70465],[-121.53311,45.72654],[-121.49915,45.72084],[-121.46285,45.70136],[-121.42359,45.69399],[-121.40174,45.69288],[-121.37257,45.70311],[-121.33777,45.70495],[-121.3122,45.69992],[-121.28732,45.68702],[-121.21578,45.67123],[-121.20037,45.64983],[-121.19523,45.62951],[-121.19656,45.61669],[-121.18384,45.60644],[-121.16785,45.60609],[-121.14554,45.60788],[-121.13948,45.61196],[-121.13195,45.60976],[-121.11705,45.61811],[-121.12007,45.62313],[-121.08493,45.64789],[-121.06437,45.65255],[-121.00745,45.65321],[-120.98348,45.64834],[-120.95308,45.65674],[-120.94398,45.65644],[-120.91348,45.64004],[-120.89558,45.64294],[-120.85568,45.67154],[-120.78887,45.68624],[-120.68937,45.71584],[-120.66887,45.73014],[-120.63497,45.74584],[-120.59117,45.74654],[-120.55947,45.73834],[-120.50586,45.70005],[-120.48236,45.69445],[-120.40396,45.69925],[-120.28216,45.72125],[-120.21076,45.72595],[-120.17046,45.76195],[-120.14135,45.77315],[-120.07015,45.78515],[-119.96575,45.82436],[-119.90746,45.82813],[-119.80266,45.84753],[-119.77293,45.84558],[-119.66988,45.85686],[-119.62339,45.90564],[-119.60055,45.91958],[-119.57159,45.92545],[-119.52463,45.9086],[-119.48783,45.9063],[-119.45026,45.91735],[-119.3644,45.9216],[-119.32251,45.93318],[-119.25715,45.93992],[-119.19553,45.92787],[-119.1695,45.9276],[-119.12612,45.93286],[-119.09322,45.94274],[-119.06146,45.95853],[-119.02706,45.96913],[-119.00856,45.97927],[-118.98713,45.99985],[-118.94124,46.00057],[-117.99691,46.00079],[-116.91599,45.99541],[-116.91141,45.98891],[-116.89286,45.97637],[-116.89465,45.96969],[-116.89091,45.96001],[-116.88051,45.95851],[-116.87598,45.95441],[-116.86966,45.9238],[-116.8598,45.90726],[-116.84355,45.89227],[-116.81414,45.87755],[-116.79605,45.85847],[-116.78779,45.84427],[-116.78907,45.83347],[-116.78268,45.82538],[-116.75979,45.81617],[-116.73627,45.82618],[-116.71182,45.82627],[-116.69719,45.82013],[-116.68014,45.79359],[-116.66534,45.782],[-116.64634,45.77981],[-116.63203,45.78498],[-116.593,45.77854],[-116.55944,45.75519],[-116.54664,45.75097],[-116.5357,45.73423],[-116.53801,45.71493],[-116.5354,45.69173],[-116.52396,45.67764],[-116.48789,45.64977],[-116.48784,45.6443],[-116.4825,45.63992],[-116.48281,45.63359],[-116.47235,45.62941],[-116.47288,45.62488],[-116.4635,45.61578],[-116.46364,45.60278],[-116.48311,45.58516],[-116.48194,45.5779],[-116.50276,45.56661],[-116.50697,45.55843],[-116.52223,45.55563],[-116.52856,45.55108],[-116.52364,45.54661],[-116.53548,45.52508],[-116.55759,45.50322],[-116.55317,45.49593],[-116.5588,45.48119],[-116.55483,45.46293],[-116.56399,45.46017],[-116.5882,45.44292],[-116.59745,45.41277],[-116.61906,45.39821],[-116.67379,45.32151],[-116.67216,45.28894],[-116.67449,45.27635],[-116.68703,45.26786],[-116.70318,45.2408],[-116.70422,45.22797],[-116.70975,45.21724],[-116.70954,45.20301],[-116.72421,45.1715],[-116.72961,45.14209],[-116.74554,45.13304],[-116.74661,45.12488],[-116.75284,45.12177],[-116.75464,45.11397],[-116.77485,45.10554],[-116.78354,45.0936],[-116.78371,45.07697],[-116.79733,45.06027],[-116.82613,45.03728],[-116.84273,45.02945],[-116.84794,45.0226],[-116.84463,45.00143],[-116.85675,44.9843],[-116.85696,44.97517],[-116.84809,44.97191],[-116.83903,44.98399],[-116.83492,44.98576],[-116.82627,44.98249],[-116.82933,44.97517],[-116.84789,44.96477],[-116.85074,44.95811],[-116.8357,44.94063],[-116.83218,44.93137],[-116.83847,44.9236],[-116.85243,44.88758],[-116.86534,44.8706],[-116.876,44.86668],[-116.88775,44.8558],[-116.89815,44.85432],[-116.89625,44.84833],[-116.90015,44.83667],[-116.90577,44.83479],[-116.9311,44.80478],[-116.9338,44.79678],[-116.9307,44.78988],[-116.9347,44.78388],[-116.9709,44.77388],[-116.9989,44.75638],[-117.0138,44.75684],[-117.0214,44.75078],[-117.03827,44.74818],[-117.04782,44.74155],[-117.0505,44.73248],[-117.06227,44.72714],[-117.0618,44.70665],[-117.07912,44.69217],[-117.08102,44.67369],[-117.09587,44.66474],[-117.09497,44.65201],[-117.09822,44.64069],[-117.10823,44.62711],[-117.11475,44.62488],[-117.12052,44.61466],[-117.12475,44.58383],[-117.14825,44.56437],[-117.14293,44.55724],[-117.14416,44.54565],[-117.14924,44.53615],[-117.16103,44.52517],[-117.18158,44.52296],[-117.18976,44.51339],[-117.20024,44.49203],[-117.20894,44.48566],[-117.22508,44.48235],[-117.22576,44.47722],[-117.21557,44.45375],[-117.21507,44.42716],[-117.22698,44.40558],[-117.24267,44.39655],[-117.24303,44.39097],[-117.23512,44.37385],[-117.19734,44.34741],[-117.18977,44.33659],[-117.20332,44.31302],[-117.21679,44.30824],[-117.22265,44.29758],[-117.21697,44.28836],[-117.19815,44.27383],[-117.17034,44.25889],[-117.14339,44.25826],[-117.13398,44.26297],[-117.12104,44.27759],[-117.10421,44.27994],[-117.09457,44.27098],[-117.0895,44.25823],[-117.06728,44.24401],[-117.05303,44.22908],[-117.04706,44.22974],[-117.04228,44.24277],[-117.03186,44.24863],[-116.9759,44.24284],[-116.97196,44.23568],[-116.97394,44.22593],[-116.97036,44.22122],[-116.9737,44.20802],[-116.97167,44.19726],[-116.94759,44.19126],[-116.93544,44.19396],[-116.92539,44.19154],[-116.91574,44.18315],[-116.9001,44.17685],[-116.89576,44.17127],[-116.89408,44.16019],[-116.90192,44.14593],[-116.91122,44.13999],[-116.91424,44.1273],[-116.92907,44.11397],[-116.92831,44.10733],[-116.9337,44.10004],[-116.94313,44.09406],[-116.9672,44.09094],[-116.97735,44.08536],[-116.97318,44.04942],[-116.95625,44.04289],[-116.93734,44.02938],[-116.93449,44.02125],[-116.93591,44.01265],[-116.94374,44.00319],[-116.93558,43.98687],[-116.95987,43.98293],[-116.97618,43.97472],[-116.97088,43.9683],[-116.95921,43.96636],[-116.97233,43.95836],[-116.96042,43.95456],[-116.96893,43.93701],[-116.95999,43.93065],[-116.95875,43.92325],[-116.96262,43.91748],[-116.97958,43.91525],[-116.98192,43.91248],[-116.97733,43.90581],[-116.97611,43.89476],[-116.98384,43.88085],[-116.98294,43.86771],[-117.02004,43.85896],[-117.02172,43.85618],[-117.0107,43.84975],[-117.01038,43.8448],[-117.01283,43.84],[-117.02516,43.84133],[-117.03288,43.83003],[-117.02155,43.8194],[-117.02663,43.80811],[-117.02684,43.7329],[-117.0262,41.99989],[-118.19719,41.99699],[-118.69641,41.99179],[-119.87293,41.99764],[-120.32639,41.99259],[-120.98042,41.99302],[-122.37851,42.00949],[-122.71305,42.00421],[-123.04399,42.00309],[-123.14573,42.00876],[-123.34695,41.99928],[-123.5693,42.00063],[-123.62402,41.99977],[-123.65721,41.9951],[-124.2116,41.99846],[-124.21894,42.00792],[-124.23046,42.01321],[-124.23971,42.02382],[-124.25403,42.02922],[-124.27046,42.04556],[-124.29127,42.04398],[-124.28948,42.047],[-124.29965,42.05174],[-124.30399,42.06089],[-124.31627,42.06821],[-124.32478,42.08167],[-124.34267,42.0943],[-124.34467,42.10004],[-124.35108,42.10022],[-124.35403,42.10354],[-124.35119,42.11067],[-124.35712,42.11802],[-124.35348,42.1216],[-124.35178,42.13497],[-124.35624,42.14214],[-124.36156,42.14377],[-124.36683,42.15845],[-124.36032,42.16228],[-124.3646,42.16922],[-124.36101,42.18076],[-124.37621,42.19639],[-124.37776,42.21881],[-124.38363,42.22716],[-124.41415,42.25217],[-124.40851,42.26059],[-124.41181,42.3074],[-124.41978,42.31553],[-124.42055,42.32042],[-124.42526,42.32203],[-124.42778,42.31886],[-124.43306,42.32398],[-124.42722,42.33489],[-124.42476,42.377],[-124.42549,42.40938],[-124.43589,42.43719],[-124.43512,42.44193],[-124.42203,42.46123],[-124.42563,42.46347],[-124.42201,42.46545],[-124.42239,42.47561],[-124.42581,42.47635],[-124.41996,42.48999],[-124.42219,42.49643],[-124.39982,42.53829],[-124.38997,42.57476],[-124.39442,42.57706],[-124.39366,42.58207],[-124.40002,42.59193],[-124.40493,42.59115],[-124.40828,42.59482],[-124.40171,42.59768],[-124.40432,42.60118],[-124.40111,42.60188],[-124.40117,42.6272],[-124.40554,42.62897],[-124.40627,42.63652],[-124.41376,42.6458],[-124.40983,42.64949],[-124.41677,42.6616],[-124.45073,42.6758],[-124.44748,42.68475],[-124.44941,42.68983],[-124.45525,42.69438],[-124.46256,42.71411],[-124.47386,42.73268],[-124.49167,42.7418],[-124.50367,42.73976],[-124.51365,42.73296],[-124.51359,42.74583],[-124.52443,42.7898],[-124.53606,42.81418],[-124.55283,42.83015],[-124.56448,42.83417],[-124.56458,42.84088]]]]}}]}