{"type":"FeatureCollection","features":[{"type":"Feature","properties":{"slug":"applegate-valley","name":"Applegate Valley"},"geometry":{"type":"Polygon","coordinates":[[[-123.25458,42.37917],[-123.26409,42.36383],[-123.25378,42.35768],[-123.23813,42.35806],[-123.21595,42.35986],[-123.18825,42.34983],[-123.17631,42.28289],[-123.06903,42.32588],[-122.95622,42.26521],[-122.89694,42.20206],[-122.8183,42.15722],[-122.81804,42.14192],[-122.8756,42.14188],[-122.87554,42.12742],[-122.89487,42.12743],[-122.89497,42.1129],[-122.91429,42.11283],[-122.9143,42.09831],[-123.01322,42.09761],[-123.01374,42.12666],[-123.07266,42.12711],[-123.07263,42.14166],[-123.11191,42.1418],[-123.11191,42.14302],[-123.19082,42.14297],[-123.19068,42.128],[-123.26009,42.12803],[-123.25998,42.11834],[-123.26973,42.11832],[-123.26984,42.12786],[-123.28935,42.12781],[-123.2893,42.12187],[-123.30875,42.12184],[-123.30882,42.12777],[-123.31718,42.12773],[-123.31719,42.13082],[-123.322,42.1308],[-123.32202,42.13443],[-123.32686,42.1344],[-123.32686,42.13808],[-123.34703,42.13796],[-123.34703,42.14204],[-123.36632,42.14198],[-123.36632,42.14558],[-123.37106,42.1456],[-123.37109,42.14919],[-123.37586,42.14919],[-123.37597,42.1564],[-123.38074,42.15642],[-123.38082,42.16338],[-123.38561,42.16335],[-123.38566,42.1706],[-123.39528,42.17052],[-123.3953,42.18494],[-123.40484,42.18486],[-123.40466,42.18956],[-123.37551,42.25522],[-123.41811,42.30515],[-123.58304,42.33614],[-123.58272,42.38899],[-123.52418,42.38923],[-123.52422,42.41866],[-123.5234,42.41866],[-123.52346,42.42956],[-123.44897,42.42977],[-123.42718,42.40832],[-123.25458,42.37917]]]}}]}