{"type":"FeatureCollection","features":[{"type":"Feature","properties":{"slug":"chehalem-mountains","name":"Chehalem Mountains"},"geometry":{"type":"Polygon","coordinates":[[[-122.92208,45.30617],[-122.92225,45.30787],[-122.91918,45.30861],[-122.91921,45.31189],[-122.92093,45.31313],[-122.92176,45.31499],[-122.92345,45.31527],[-122.92342,45.31703],[-122.92475,45.31657],[-122.92471,45.31791],[-122.92746,45.3188],[-122.92897,45.32055],[-122.92826,45.32164],[-122.92967,45.32141],[-122.9306,45.3225],[-122.93063,45.32083],[-122.94052,45.3207],[-122.94489,45.31848],[-122.95282,45.31753],[-122.95292,45.32143],[-122.95556,45.32212],[-122.95789,45.32627],[-122.96298,45.32693],[-122.96313,45.33193],[-122.96973,45.3319],[-122.97212,45.33025],[-122.97935,45.33034],[-122.9818,45.32969],[-122.98116,45.33191],[-122.98178,45.33256],[-122.98063,45.335],[-122.98275,45.33455],[-122.98315,45.33545],[-122.98882,45.33553],[-122.98965,45.33653],[-122.99368,45.3336],[-122.99706,45.33434],[-123.00062,45.3327],[-123.00285,45.33477],[-123.00445,45.33479],[-123.00531,45.33384],[-123.0133,45.3343],[-123.01216,45.3363],[-123.01716,45.33496],[-123.0237,45.33505],[-123.02642,45.33592],[-123.02894,45.33434],[-123.02765,45.33696],[-123.02872,45.3382],[-123.03304,45.33608],[-123.03341,45.33718],[-123.03683,45.33557],[-123.03708,45.33683],[-123.03806,45.33664],[-123.04051,45.339],[-123.04109,45.3375],[-123.04259,45.33664],[-123.04039,45.33467],[-123.04085,45.33268],[-123.04394,45.3311],[-123.04533,45.33335],[-123.04532,45.33002],[-123.04668,45.33],[-123.04646,45.33067],[-123.05036,45.33068],[-123.05371,45.33266],[-123.05437,45.3343],[-123.05399,45.33626],[-123.05565,45.3402],[-123.05728,45.34121],[-123.05843,45.34025],[-123.05841,45.3306],[-123.07887,45.33266],[-123.08938,45.34006],[-123.09661,45.35211],[-123.09908,45.35426],[-123.1018,45.36642],[-123.09963,45.37595],[-123.0961,45.37921],[-123.09335,45.3839],[-123.0938,45.38491],[-123.09206,45.38592],[-123.09328,45.38604],[-123.09256,45.3871],[-123.09314,45.3876],[-123.09181,45.38778],[-123.09276,45.38942],[-123.09158,45.38986],[-123.09266,45.39017],[-123.09293,45.39184],[-123.09176,45.39228],[-123.09295,45.39253],[-123.09204,45.39284],[-123.0932,45.39361],[-123.09228,45.39518],[-123.09337,45.39506],[-123.09382,45.39598],[-123.09328,45.39758],[-123.09145,45.39812],[-123.09192,45.39848],[-123.09125,45.40054],[-123.09233,45.40121],[-123.09268,45.39929],[-123.09611,45.398],[-123.09656,45.4011],[-123.094,45.40192],[-123.09748,45.40515],[-123.09739,45.40725],[-123.09595,45.40837],[-123.09726,45.40954],[-123.09709,45.41188],[-123.09455,45.41239],[-123.09637,45.41278],[-123.09736,45.41402],[-123.09612,45.41292],[-123.09421,45.41263],[-123.09497,45.41385],[-123.09699,45.41429],[-123.09616,45.41453],[-123.09537,45.4165],[-123.09585,45.418],[-123.09376,45.42083],[-123.0916,45.42047],[-123.09235,45.4215],[-123.09144,45.42296],[-123.08954,45.42288],[-123.0843,45.42024],[-123.08225,45.4206],[-123.08289,45.42319],[-123.08406,45.4244],[-123.08846,45.42487],[-123.08919,45.4269],[-123.09122,45.4272],[-123.09155,45.42798],[-123.09387,45.42706],[-123.09825,45.42817],[-123.09821,45.42972],[-123.10112,45.42745],[-123.10392,45.42829],[-123.10311,45.42552],[-123.10165,45.42425],[-123.1024,45.42161],[-123.10496,45.42228],[-123.10844,45.42581],[-123.10907,45.42458],[-123.11229,45.4231],[-123.11525,45.42359],[-123.1173,45.42302],[-123.11726,45.42402],[-123.11858,45.42412],[-123.11918,45.42661],[-123.1178,45.42745],[-123.11896,45.42829],[-123.11868,45.42883],[-123.11593,45.42962],[-123.11604,45.43055],[-123.11015,45.42816],[-123.10961,45.42918],[-123.10769,45.4297],[-123.10866,45.43141],[-123.1063,45.43314],[-123.10994,45.43278],[-123.11362,45.43419],[-123.11392,45.43692],[-123.11569,45.43772],[-123.115,45.43906],[-123.11724,45.43957],[-123.11592,45.44023],[-123.11546,45.44156],[-123.11617,45.4422],[-123.1157,45.44366],[-123.11646,45.44552],[-123.11326,45.4461],[-123.10928,45.44461],[-123.11043,45.44571],[-123.10972,45.44612],[-123.10758,45.4453],[-123.10827,45.44652],[-123.11171,45.44822],[-123.10928,45.44869],[-123.10778,45.45014],[-123.10256,45.44951],[-123.10523,45.45071],[-123.10597,45.45195],[-123.10357,45.45269],[-123.10404,45.45337],[-123.103,45.45373],[-123.10604,45.45468],[-123.10718,45.45585],[-123.10425,45.45826],[-123.10061,45.45837],[-123.10234,45.45923],[-123.10153,45.46122],[-123.10372,45.46054],[-123.1061,45.46182],[-123.10476,45.46333],[-123.10928,45.46253],[-123.10808,45.46424],[-123.11106,45.46656],[-123.11311,45.46584],[-123.11293,45.46687],[-123.11831,45.4682],[-123.12311,45.47503],[-123.11476,45.47737],[-123.11052,45.47779],[-123.10904,45.4772],[-123.10891,45.47798],[-123.09981,45.48218],[-123.09871,45.48187],[-123.09866,45.48062],[-123.09761,45.48296],[-123.09182,45.48878],[-123.09152,45.4943],[-123.08941,45.49615],[-123.08646,45.49668],[-123.08134,45.49434],[-123.08217,45.49346],[-123.0822,45.49162],[-123.08035,45.49303],[-123.07839,45.49227],[-123.07743,45.49301],[-123.07491,45.49119],[-123.0737,45.49165],[-123.07353,45.48854],[-123.07171,45.48899],[-123.0669,45.48768],[-123.0688,45.48548],[-123.0678,45.48446],[-123.0717,45.48284],[-123.07421,45.48411],[-123.07518,45.48384],[-123.07331,45.4819],[-123.07758,45.48116],[-123.07043,45.47936],[-123.0751,45.47471],[-123.0742,45.4734],[-123.06868,45.47398],[-123.06719,45.47338],[-123.06762,45.47226],[-123.06704,45.4719],[-123.06372,45.47178],[-123.066,45.46756],[-123.0652,45.46705],[-123.06262,45.46831],[-123.0608,45.46737],[-123.05976,45.4686],[-123.05682,45.46544],[-123.05619,45.46941],[-123.05407,45.46939],[-123.05247,45.46822],[-123.05117,45.47165],[-123.04924,45.47192],[-123.0479,45.47358],[-123.04516,45.47014],[-123.04315,45.47239],[-123.03918,45.4707],[-123.03647,45.47154],[-123.03346,45.47053],[-123.0333,45.46924],[-123.03124,45.46917],[-123.03078,45.47097],[-123.02935,45.47056],[-123.02814,45.47196],[-123.02652,45.47033],[-123.02172,45.47122],[-123.01944,45.4707],[-123.01919,45.46542],[-123.02342,45.46319],[-123.0214,45.46401],[-123.01926,45.46341],[-123.01681,45.46445],[-123.01379,45.46445],[-123.01301,45.46523],[-123.01062,45.46456],[-123.00998,45.46279],[-123.00839,45.46304],[-123.00706,45.46245],[-123.00678,45.46141],[-123.00367,45.46119],[-123.00275,45.4601],[-122.99855,45.45891],[-122.99707,45.45687],[-122.997,45.45395],[-122.99855,45.45272],[-123.00151,45.45238],[-123.00288,45.45379],[-123.00813,45.45414],[-123.00821,45.45562],[-123.00913,45.45543],[-123.01012,45.45635],[-123.01138,45.45389],[-123.01256,45.45345],[-123.01548,45.45589],[-123.01641,45.45552],[-123.01586,45.45437],[-123.01675,45.45404],[-123.01734,45.45242],[-123.02035,45.45308],[-123.02112,45.45402],[-123.02507,45.45373],[-123.02437,45.45195],[-123.02478,45.4509],[-123.0272,45.45044],[-123.0284,45.44749],[-123.03101,45.44719],[-123.03173,45.4448],[-123.0289,45.44616],[-123.02705,45.44572],[-123.02486,45.44674],[-123.02343,45.44606],[-123.02208,45.44642],[-123.02168,45.44518],[-123.02398,45.44276],[-123.01537,45.44541],[-123.01086,45.44394],[-123.01106,45.44228],[-123.01722,45.44117],[-123.02065,45.43808],[-123.01725,45.43975],[-123.01568,45.43913],[-123.01717,45.43614],[-123.01845,45.43522],[-123.01775,45.43351],[-123.01724,45.43475],[-123.0156,45.43544],[-123.01002,45.4354],[-123.01014,45.43233],[-123.00835,45.43175],[-123.00854,45.43004],[-123.0065,45.42951],[-123.00559,45.42682],[-123.0061,45.42583],[-123.0082,45.42519],[-123.00742,45.42456],[-123.00769,45.42376],[-123.00384,45.42265],[-123.00689,45.42107],[-123.00523,45.42057],[-123.00483,45.419],[-123.003,45.41868],[-123.0069,45.41673],[-123.00289,45.41678],[-123.00238,45.41605],[-122.99866,45.41752],[-122.99877,45.41528],[-122.99995,45.41372],[-122.99714,45.41548],[-122.99564,45.41759],[-122.9924,45.41943],[-122.99149,45.41919],[-122.99258,45.41693],[-122.99194,45.41647],[-122.99278,45.41522],[-122.99244,45.41302],[-122.99357,45.40943],[-122.99062,45.41337],[-122.98677,45.41583],[-122.98528,45.41178],[-122.98541,45.40853],[-122.98203,45.41662],[-122.97818,45.41861],[-122.97764,45.42007],[-122.97458,45.41902],[-122.97598,45.41774],[-122.97776,45.41818],[-122.97854,45.41642],[-122.97992,45.41593],[-122.97688,45.41522],[-122.97668,45.41248],[-122.97519,45.41212],[-122.9761,45.4106],[-122.97379,45.41036],[-122.97457,45.40914],[-122.97235,45.40886],[-122.97272,45.40685],[-122.9716,45.406],[-122.97046,45.40653],[-122.9696,45.40472],[-122.97596,45.40112],[-122.97399,45.40063],[-122.97424,45.39951],[-122.97898,45.39579],[-122.98201,45.39538],[-122.98338,45.3966],[-122.98416,45.39515],[-122.98568,45.39513],[-122.98558,45.39444],[-122.98762,45.39348],[-122.99225,45.39386],[-122.99144,45.39243],[-122.98611,45.39158],[-122.98351,45.38829],[-122.98403,45.39238],[-122.98269,45.39297],[-122.97721,45.39265],[-122.96956,45.39791],[-122.96782,45.3983],[-122.96537,45.39443],[-122.96544,45.39314],[-122.96698,45.39143],[-122.96339,45.39203],[-122.96107,45.38992],[-122.96037,45.3875],[-122.95887,45.38609],[-122.95958,45.39237],[-122.95829,45.39369],[-122.96132,45.39413],[-122.96059,45.39489],[-122.96127,45.39525],[-122.96102,45.39641],[-122.95882,45.39753],[-122.95835,45.40018],[-122.95133,45.40038],[-122.95232,45.39765],[-122.95082,45.39686],[-122.9506,45.39794],[-122.94831,45.39985],[-122.94471,45.39942],[-122.94452,45.39827],[-122.942,45.39792],[-122.94346,45.39584],[-122.94063,45.39488],[-122.9388,45.39777],[-122.93496,45.39702],[-122.93347,45.396],[-122.93692,45.3945],[-122.93571,45.39358],[-122.93611,45.3929],[-122.93495,45.39064],[-122.93687,45.39035],[-122.93789,45.38911],[-122.94028,45.39111],[-122.94105,45.39018],[-122.94067,45.38854],[-122.94243,45.38863],[-122.94253,45.38753],[-122.94373,45.38719],[-122.94293,45.38653],[-122.9448,45.38627],[-122.94369,45.38534],[-122.94523,45.38164],[-122.94447,45.38116],[-122.94426,45.3787],[-122.94113,45.37461],[-122.94064,45.37498],[-122.94187,45.37879],[-122.94097,45.383],[-122.93646,45.38503],[-122.93434,45.38457],[-122.9281,45.3892],[-122.92564,45.38642],[-122.9258,45.38514],[-122.92438,45.38528],[-122.92314,45.38257],[-122.92395,45.38189],[-122.92234,45.3818],[-122.92048,45.3774],[-122.92006,45.38219],[-122.92073,45.38856],[-122.91814,45.38698],[-122.91878,45.38841],[-122.91811,45.38947],[-122.91687,45.38888],[-122.91489,45.39164],[-122.91633,45.39251],[-122.92004,45.39212],[-122.91964,45.39381],[-122.91791,45.39374],[-122.91732,45.393],[-122.91321,45.39346],[-122.9124,45.39247],[-122.90969,45.39212],[-122.90836,45.39291],[-122.90662,45.3917],[-122.90535,45.39257],[-122.90341,45.39179],[-122.90191,45.38963],[-122.90174,45.39182],[-122.9005,45.39301],[-122.89878,45.39318],[-122.89698,45.39228],[-122.89654,45.39365],[-122.89446,45.39225],[-122.89459,45.39338],[-122.89201,45.39338],[-122.8912,45.39415],[-122.88894,45.39143],[-122.88817,45.39165],[-122.88912,45.39479],[-122.88709,45.39457],[-122.87792,45.38983],[-122.87531,45.38499],[-122.87349,45.38576],[-122.8723,45.38531],[-122.86396,45.38022],[-122.86024,45.37658],[-122.8682,45.37365],[-122.8698,45.3743],[-122.87154,45.37305],[-122.87328,45.37345],[-122.87262,45.37493],[-122.87514,45.37417],[-122.878,45.37601],[-122.8776,45.37775],[-122.87954,45.37644],[-122.88787,45.37758],[-122.88717,45.37667],[-122.88071,45.37534],[-122.87799,45.37368],[-122.87799,45.3722],[-122.87661,45.3724],[-122.87767,45.37164],[-122.88004,45.37163],[-122.88081,45.36992],[-122.87654,45.37124],[-122.87441,45.37078],[-122.87397,45.37046],[-122.87468,45.36979],[-122.87245,45.36915],[-122.87589,45.36676],[-122.87787,45.36643],[-122.88259,45.36268],[-122.8899,45.36182],[-122.88736,45.36073],[-122.88731,45.35695],[-122.88547,45.3606],[-122.8812,45.36059],[-122.87624,45.36334],[-122.87388,45.36343],[-122.87296,45.36199],[-122.87241,45.3635],[-122.87315,45.36385],[-122.87343,45.36491],[-122.87222,45.36527],[-122.87236,45.36371],[-122.86782,45.36579],[-122.86801,45.35338],[-122.87083,45.34789],[-122.87043,45.3462],[-122.87124,45.34579],[-122.87113,45.34456],[-122.86982,45.34491],[-122.86977,45.34357],[-122.87261,45.34092],[-122.86882,45.34062],[-122.87544,45.33738],[-122.87604,45.33491],[-122.87503,45.33455],[-122.8714,45.3359],[-122.86994,45.33832],[-122.86665,45.33823],[-122.86291,45.33975],[-122.86352,45.34004],[-122.86327,45.34076],[-122.86246,45.34054],[-122.86278,45.34138],[-122.86706,45.34262],[-122.86679,45.34327],[-122.86183,45.34182],[-122.86074,45.34235],[-122.86102,45.34059],[-122.85769,45.34149],[-122.85696,45.3424],[-122.84681,45.34248],[-122.84626,45.34619],[-122.82598,45.34625],[-122.82588,45.3412],[-122.82443,45.33916],[-122.82293,45.33894],[-122.82158,45.3357],[-122.819,45.3342],[-122.81017,45.33465],[-122.80747,45.33177],[-122.80691,45.33004],[-122.80134,45.32458],[-122.80096,45.32233],[-122.80159,45.32202],[-122.79983,45.32132],[-122.80113,45.3185],[-122.80505,45.31913],[-122.80439,45.31813],[-122.80473,45.31685],[-122.8065,45.31785],[-122.80706,45.31627],[-122.81006,45.31528],[-122.80926,45.31287],[-122.81159,45.3111],[-122.81579,45.30996],[-122.81662,45.308],[-122.81806,45.30798],[-122.81826,45.30964],[-122.81947,45.30891],[-122.82264,45.31003],[-122.82285,45.3113],[-122.82185,45.31282],[-122.82369,45.31156],[-122.82697,45.31402],[-122.82332,45.30937],[-122.8204,45.3074],[-122.82035,45.30645],[-122.81635,45.30471],[-122.81489,45.30277],[-122.8133,45.30247],[-122.8126,45.30108],[-122.81314,45.29966],[-122.81576,45.30081],[-122.81719,45.29966],[-122.82136,45.30127],[-122.82332,45.30064],[-122.82541,45.30106],[-122.82655,45.30391],[-122.82773,45.30274],[-122.8294,45.30269],[-122.82778,45.30649],[-122.82924,45.30536],[-122.83067,45.30646],[-122.82987,45.30466],[-122.83179,45.30366],[-122.83158,45.30257],[-122.83256,45.30218],[-122.83609,45.30169],[-122.83756,45.30257],[-122.83757,45.30342],[-122.83802,45.30285],[-122.84125,45.30317],[-122.84181,45.30455],[-122.84215,45.3031],[-122.84479,45.30241],[-122.84525,45.30177],[-122.8405,45.30209],[-122.83697,45.30003],[-122.82964,45.29908],[-122.8234,45.29606],[-122.82195,45.29438],[-122.82666,45.29339],[-122.82668,45.2917],[-122.82501,45.29103],[-122.82717,45.29017],[-122.82853,45.29071],[-122.82873,45.29186],[-122.8304,45.29282],[-122.82924,45.29169],[-122.8298,45.29066],[-122.83294,45.29025],[-122.82918,45.28887],[-122.83049,45.28602],[-122.83692,45.2874],[-122.83681,45.2855],[-122.83531,45.28304],[-122.84387,45.28127],[-122.84227,45.28069],[-122.84152,45.27924],[-122.84441,45.27857],[-122.84665,45.27605],[-122.84951,45.27536],[-122.84929,45.27406],[-122.8511,45.27197],[-122.85598,45.26963],[-122.85806,45.27142],[-122.85815,45.26862],[-122.85902,45.26935],[-122.86058,45.26784],[-122.86191,45.26845],[-122.86244,45.26706],[-122.86172,45.26545],[-122.86326,45.2639],[-122.86959,45.261],[-122.87108,45.26154],[-122.87114,45.26026],[-122.87442,45.25884],[-122.88717,45.2629],[-122.88718,45.26362],[-122.88864,45.26334],[-122.88875,45.26444],[-122.8906,45.26348],[-122.8989,45.26559],[-122.90721,45.27177],[-122.91086,45.27637],[-122.91212,45.28216],[-122.91194,45.28714],[-122.91299,45.28833],[-122.91488,45.2884],[-122.91661,45.2853],[-122.91859,45.284],[-122.92036,45.28396],[-122.92385,45.28588],[-122.92488,45.288],[-122.92402,45.28881],[-122.91595,45.28844],[-122.91536,45.28927],[-122.91741,45.29237],[-122.91984,45.2933],[-122.91832,45.2943],[-122.92157,45.29733],[-122.92419,45.29502],[-122.92436,45.29718],[-122.92632,45.29756],[-122.92602,45.2992],[-122.92751,45.3003],[-122.92642,45.30133],[-122.92425,45.30151],[-122.92388,45.3034],[-122.92483,45.30599],[-122.92208,45.30617]]]}}]}