{"type":"FeatureCollection","features":[{"type":"Feature","properties":{"slug":"columbia-valley","name":"Columbia Valley"},"geometry":{"type":"Polygon","coordinates":[[[-118.21547,46.00058],[-118.21835,45.99987],[-118.21799,45.99371],[-118.20032,45.98399],[-118.21941,45.98823],[-118.22304,45.98498],[-118.22012,45.98278],[-118.22771,45.9807],[-118.22837,45.97743],[-118.22012,45.97699],[-118.22733,45.97243],[-118.2243,45.96951],[-118.2168,45.97065],[-118.22264,45.96659],[-118.2173,45.9639],[-118.21997,45.96217],[-118.21463,45.95723],[-118.20515,45.9581],[-118.21126,45.95563],[-118.20826,45.9529],[-118.2055,45.94834],[-118.2219,45.95942],[-118.22518,45.95763],[-118.22556,45.96113],[-118.23628,45.96991],[-118.23466,45.96186],[-118.24752,45.96193],[-118.24047,45.95934],[-118.24301,45.95648],[-118.23888,45.95483],[-118.24101,45.95169],[-118.23197,45.94982],[-118.23879,45.94683],[-118.23817,45.93826],[-118.2458,45.94684],[-118.24809,45.94454],[-118.24484,45.93822],[-118.24597,45.93272],[-118.2497,45.93895],[-118.26272,45.94204],[-118.25734,45.93897],[-118.26126,45.93524],[-118.25558,45.92752],[-118.26669,45.92843],[-118.26741,45.92129],[-118.27601,45.92797],[-118.27767,45.92119],[-118.2616,45.91084],[-118.2752,45.91364],[-118.27565,45.90906],[-118.27164,45.90872],[-118.27061,45.90497],[-118.26687,45.90512],[-118.2671,45.90759],[-118.26037,45.90667],[-118.26219,45.90341],[-118.25493,45.90776],[-118.25593,45.90038],[-118.23249,45.90301],[-118.24791,45.89753],[-118.23562,45.89226],[-118.22864,45.89275],[-118.23067,45.89101],[-118.22704,45.88953],[-118.20614,45.88536],[-118.19521,45.88754],[-118.19136,45.88668],[-118.21545,45.88392],[-118.26711,45.89764],[-118.26692,45.89389],[-118.26989,45.89319],[-118.27503,45.89711],[-118.28502,45.89664],[-118.27244,45.88747],[-118.26581,45.88918],[-118.266,45.88474],[-118.26187,45.88312],[-118.25863,45.88768],[-118.25531,45.88723],[-118.25644,45.88453],[-118.25258,45.88356],[-118.25634,45.88119],[-118.25161,45.87789],[-118.24711,45.87935],[-118.24838,45.87632],[-118.24492,45.87439],[-118.24116,45.8758],[-118.24204,45.87262],[-118.23468,45.87069],[-118.23681,45.86925],[-118.23104,45.86555],[-118.21863,45.87058],[-118.2276,45.86429],[-118.17762,45.83471],[-118.20987,45.84967],[-118.21255,45.84845],[-118.21175,45.85078],[-118.22118,45.85456],[-118.22461,45.85928],[-118.23812,45.8653],[-118.24307,45.86677],[-118.2484,45.86199],[-118.24574,45.86862],[-118.25755,45.87422],[-118.26179,45.8698],[-118.26529,45.87631],[-118.2688,45.87029],[-118.26969,45.8777],[-118.27666,45.8798],[-118.27828,45.8768],[-118.28365,45.88166],[-118.28904,45.87966],[-118.287,45.88374],[-118.29652,45.8894],[-118.30471,45.88683],[-118.30449,45.88267],[-118.31842,45.88344],[-118.30634,45.87383],[-118.31625,45.87558],[-118.31411,45.87081],[-118.31909,45.87187],[-118.3207,45.8677],[-118.325,45.87251],[-118.33139,45.87341],[-118.33497,45.87088],[-118.32972,45.86515],[-118.34192,45.86622],[-118.34407,45.86459],[-118.3412,45.86196],[-118.34431,45.85946],[-118.34033,45.85418],[-118.33077,45.85019],[-118.30483,45.85487],[-118.29361,45.85358],[-118.30626,45.8527],[-118.30982,45.84836],[-118.31094,45.85093],[-118.31509,45.84971],[-118.31963,45.84768],[-118.31974,45.8445],[-118.32214,45.84721],[-118.33489,45.84643],[-118.33547,45.84292],[-118.34585,45.85044],[-118.35223,45.84402],[-118.35429,45.84742],[-118.36116,45.84566],[-118.36775,45.85085],[-118.37229,45.85031],[-118.37327,45.84477],[-118.36413,45.83872],[-118.35305,45.83637],[-118.35041,45.83838],[-118.32568,45.82744],[-118.35464,45.83326],[-118.35576,45.82552],[-118.3593,45.83363],[-118.3613,45.83117],[-118.36517,45.83477],[-118.36939,45.83272],[-118.3703,45.83609],[-118.3785,45.83984],[-118.38497,45.83847],[-118.39117,45.84119],[-118.39334,45.83412],[-118.38528,45.83266],[-118.3897,45.82648],[-118.38142,45.81924],[-118.38885,45.81895],[-118.39973,45.83008],[-118.40277,45.82485],[-118.41049,45.82106],[-118.40999,45.81486],[-118.41453,45.81691],[-118.41306,45.81384],[-118.41852,45.80987],[-118.41531,45.80742],[-118.41654,45.80514],[-118.42091,45.80629],[-118.42227,45.80356],[-118.42111,45.79966],[-118.41351,45.79168],[-118.41283,45.78896],[-118.42954,45.80275],[-118.43368,45.80895],[-118.43065,45.81206],[-118.43359,45.81658],[-118.44231,45.81317],[-118.44441,45.80666],[-118.44844,45.80546],[-118.45568,45.80936],[-118.45468,45.80627],[-118.46153,45.80198],[-118.44715,45.7937],[-118.44672,45.78532],[-118.45464,45.78803],[-118.4476,45.77053],[-118.43331,45.76299],[-118.44456,45.76413],[-118.445,45.76101],[-118.45315,45.76813],[-118.47308,45.77262],[-118.48101,45.77145],[-118.47627,45.75828],[-118.47843,45.75539],[-118.46416,45.72938],[-118.47802,45.73493],[-118.47869,45.73105],[-118.47479,45.72864],[-118.47808,45.71207],[-118.49231,45.71914],[-118.49273,45.71111],[-118.49832,45.70816],[-118.49902,45.70321],[-118.50983,45.70378],[-118.51138,45.69941],[-118.51761,45.69682],[-118.51504,45.69356],[-118.50054,45.6973],[-118.49408,45.69501],[-118.49281,45.69075],[-118.48634,45.69362],[-118.48244,45.69059],[-118.47689,45.69399],[-118.46399,45.69074],[-118.4486,45.70339],[-118.45195,45.69139],[-118.43652,45.68906],[-118.42941,45.69093],[-118.42831,45.69708],[-118.4239,45.69205],[-118.40108,45.70282],[-118.39544,45.7147],[-118.39588,45.70261],[-118.38386,45.70606],[-118.38245,45.7026],[-118.37352,45.70318],[-118.36685,45.70681],[-118.36335,45.70504],[-118.36188,45.70836],[-118.35994,45.70535],[-118.35518,45.70688],[-118.35607,45.7097],[-118.35222,45.70872],[-118.34719,45.7161],[-118.33437,45.7151],[-118.33409,45.7179],[-118.32671,45.71899],[-118.32105,45.7244],[-118.29901,45.72242],[-118.28763,45.72574],[-118.28467,45.72581],[-118.28437,45.72486],[-118.3021,45.72067],[-118.31381,45.72197],[-118.31275,45.71497],[-118.31773,45.72266],[-118.34902,45.70394],[-118.34254,45.70314],[-118.347,45.70189],[-118.34625,45.6953],[-118.34912,45.69219],[-118.34667,45.68908],[-118.35055,45.69044],[-118.35877,45.68548],[-118.35159,45.67848],[-118.35988,45.6831],[-118.36456,45.66961],[-118.35509,45.6345],[-118.35835,45.63516],[-118.36978,45.66879],[-118.36535,45.68651],[-118.35549,45.69358],[-118.35584,45.70066],[-118.37656,45.69296],[-118.38498,45.69421],[-118.38586,45.68809],[-118.39204,45.68374],[-118.38975,45.68028],[-118.3939,45.6811],[-118.39896,45.67219],[-118.39943,45.65415],[-118.40231,45.64946],[-118.40372,45.6728],[-118.39285,45.69357],[-118.41256,45.68554],[-118.41612,45.68113],[-118.41968,45.6824],[-118.42257,45.67355],[-118.42718,45.68065],[-118.4348,45.67461],[-118.43992,45.67572],[-118.44311,45.66935],[-118.44554,45.67439],[-118.45209,45.67494],[-118.45045,45.67023],[-118.45353,45.67073],[-118.45604,45.65994],[-118.46009,45.67354],[-118.46719,45.6677],[-118.46459,45.65889],[-118.46914,45.66446],[-118.47383,45.65617],[-118.47437,45.66329],[-118.48265,45.66206],[-118.48896,45.65886],[-118.49359,45.65136],[-118.49094,45.66155],[-118.48752,45.66488],[-118.47603,45.66673],[-118.46806,45.67752],[-118.47521,45.67835],[-118.47879,45.67476],[-118.48715,45.67893],[-118.48757,45.67325],[-118.49357,45.67087],[-118.50001,45.67927],[-118.50508,45.67725],[-118.5043,45.67025],[-118.51267,45.6737],[-118.51357,45.6636],[-118.51819,45.66649],[-118.52365,45.66479],[-118.51772,45.66225],[-118.52317,45.65843],[-118.51981,45.65176],[-118.53503,45.65548],[-118.53699,45.65128],[-118.54375,45.65132],[-118.54589,45.64837],[-118.55103,45.65095],[-118.55094,45.64718],[-118.55789,45.64489],[-118.55568,45.63709],[-118.56052,45.64154],[-118.56233,45.63827],[-118.565,45.644],[-118.57908,45.64177],[-118.58175,45.63711],[-118.57972,45.63005],[-118.58793,45.63894],[-118.59025,45.63374],[-118.59643,45.63726],[-118.60212,45.63047],[-118.60738,45.6338],[-118.61206,45.63058],[-118.61693,45.63171],[-118.6163,45.6281],[-118.60581,45.62186],[-118.61269,45.62297],[-118.6137,45.61947],[-118.6158,45.62361],[-118.62361,45.62698],[-118.62674,45.62494],[-118.62562,45.61805],[-118.63226,45.62443],[-118.63374,45.62155],[-118.63724,45.62234],[-118.63658,45.61882],[-118.6411,45.616],[-118.63536,45.61036],[-118.64319,45.61084],[-118.64737,45.60373],[-118.637,45.59964],[-118.64833,45.59823],[-118.65363,45.59319],[-118.64971,45.58828],[-118.65304,45.58508],[-118.65814,45.58557],[-118.64981,45.57832],[-118.66645,45.5808],[-118.67078,45.5729],[-118.66561,45.56915],[-118.67611,45.56605],[-118.67145,45.56282],[-118.68225,45.55936],[-118.68117,45.55514],[-118.69213,45.54971],[-118.69464,45.54243],[-118.69251,45.54017],[-118.70006,45.53771],[-118.70102,45.53212],[-118.69271,45.52899],[-118.70425,45.52781],[-118.70508,45.52406],[-118.71814,45.51441],[-118.71217,45.51277],[-118.71114,45.51724],[-118.70296,45.51228],[-118.69103,45.52263],[-118.69546,45.51155],[-118.69288,45.50982],[-118.68946,45.51523],[-118.68522,45.50718],[-118.67589,45.51103],[-118.67736,45.50645],[-118.67064,45.50528],[-118.66866,45.50907],[-118.66551,45.50469],[-118.6586,45.50961],[-118.66102,45.50418],[-118.64345,45.50386],[-118.63893,45.50697],[-118.6215,45.50659],[-118.62477,45.51041],[-118.61882,45.50791],[-118.60432,45.52177],[-118.59278,45.52398],[-118.60165,45.52099],[-118.61978,45.50312],[-118.6087,45.49681],[-118.61172,45.49542],[-118.60809,45.491],[-118.6081,45.47895],[-118.60428,45.47004],[-118.61002,45.4764],[-118.61428,45.49264],[-118.62441,45.50077],[-118.64353,45.49781],[-118.6442,45.491],[-118.6481,45.49822],[-118.65732,45.49515],[-118.66239,45.4971],[-118.66393,45.49367],[-118.66636,45.49742],[-118.67091,45.49703],[-118.6752,45.49373],[-118.6749,45.49793],[-118.68004,45.49845],[-118.68703,45.49453],[-118.68582,45.49833],[-118.68875,45.49704],[-118.69467,45.50129],[-118.70007,45.49591],[-118.70305,45.49914],[-118.7091,45.49625],[-118.70999,45.50217],[-118.71877,45.50337],[-118.71784,45.49945],[-118.71334,45.49806],[-118.72079,45.49737],[-118.71771,45.49237],[-118.72682,45.49784],[-118.72952,45.49658],[-118.72642,45.48896],[-118.73875,45.49388],[-118.74824,45.49169],[-118.74066,45.48668],[-118.75141,45.48581],[-118.74851,45.48247],[-118.75831,45.48338],[-118.7657,45.4789],[-118.7532,45.47464],[-118.76511,45.47154],[-118.77702,45.47493],[-118.77073,45.4646],[-118.78209,45.46977],[-118.79725,45.46647],[-118.8074,45.45977],[-118.80159,45.45561],[-118.81102,45.45565],[-118.80862,45.44625],[-118.8127,45.44928],[-118.8235,45.44891],[-118.82208,45.43621],[-118.81516,45.41925],[-118.83153,45.44006],[-118.83657,45.44027],[-118.84006,45.43363],[-118.84018,45.43931],[-118.84604,45.43485],[-118.8446,45.44023],[-118.83761,45.44527],[-118.8409,45.45871],[-118.84492,45.45741],[-118.84548,45.45354],[-118.85561,45.4562],[-118.86085,45.45436],[-118.85902,45.44599],[-118.86788,45.44558],[-118.87284,45.4411],[-118.87298,45.44416],[-118.88227,45.44121],[-118.88942,45.42936],[-118.89162,45.43222],[-118.89619,45.42675],[-118.89497,45.43606],[-118.87554,45.45666],[-118.87891,45.45778],[-118.88467,45.45342],[-118.88866,45.45914],[-118.89516,45.45267],[-118.89474,45.45817],[-118.90324,45.45515],[-118.90111,45.45968],[-118.90477,45.4615],[-118.91203,45.45729],[-118.90772,45.46371],[-118.9145,45.46699],[-118.93998,45.45783],[-118.95359,45.4562],[-118.97088,45.45739],[-119.00557,45.46732],[-119.0258,45.46599],[-119.05265,45.45267],[-119.09355,45.46804],[-119.09509,45.45844],[-119.11574,45.4442],[-119.14226,45.43348],[-119.15433,45.41026],[-119.16687,45.39926],[-119.17006,45.39097],[-119.19429,45.38892],[-119.21311,45.37577],[-119.24413,45.38485],[-119.25226,45.39013],[-119.25418,45.39695],[-119.26425,45.38746],[-119.2724,45.39633],[-119.28312,45.39885],[-119.29614,45.38642],[-119.32509,45.37725],[-119.32957,45.37893],[-119.33199,45.37539],[-119.35558,45.38043],[-119.35846,45.37637],[-119.35638,45.37426],[-119.37169,45.36321],[-119.4,45.35991],[-119.43871,45.36892],[-119.48228,45.37204],[-119.55012,45.35708],[-119.56043,45.34316],[-119.56183,45.329],[-119.57247,45.32281],[-119.58212,45.31208],[-119.58281,45.31575],[-119.59376,45.29763],[-119.60463,45.29438],[-119.61427,45.28534],[-119.61426,45.28193],[-119.63716,45.2797],[-119.65091,45.27195],[-119.69238,45.26356],[-119.69684,45.2574],[-119.71386,45.25096],[-119.73122,45.25087],[-119.7429,45.25552],[-119.79587,45.25558],[-119.8024,45.25272],[-119.80571,45.25566],[-119.84592,45.25588],[-119.86265,45.25344],[-119.88716,45.25898],[-119.89176,45.26212],[-119.88918,45.26557],[-119.89252,45.27052],[-119.90249,45.27777],[-119.91978,45.27825],[-119.93499,45.28544],[-119.95846,45.28356],[-119.97403,45.28791],[-119.98134,45.28431],[-119.98614,45.27323],[-120.0023,45.27453],[-120.01415,45.2823],[-120.02398,45.2829],[-120.01849,45.2817],[-120.02738,45.27674],[-120.02412,45.27548],[-120.0314,45.26734],[-120.01777,45.26103],[-120.02266,45.25783],[-120.03107,45.24249],[-120.05203,45.22812],[-120.07257,45.23024],[-120.09618,45.21845],[-120.11388,45.23017],[-120.18375,45.2323],[-120.18479,45.23713],[-120.25378,45.23598],[-120.27902,45.2509],[-120.27426,45.26482],[-120.29232,45.28034],[-120.29315,45.29568],[-120.30524,45.30387],[-120.31834,45.31949],[-120.32092,45.33227],[-120.32639,45.33599],[-120.33841,45.36042],[-120.34822,45.36613],[-120.38021,45.36831],[-120.39416,45.37844],[-120.40992,45.38016],[-120.4119,45.3852],[-120.4378,45.40013],[-120.45018,45.41132],[-120.45061,45.4181],[-120.45939,45.43121],[-120.84943,45.43163],[-120.86448,45.43936],[-120.86584,45.44611],[-120.85889,45.46046],[-120.84646,45.46227],[-120.83611,45.4691],[-120.83921,45.48325],[-120.8333,45.49446],[-120.83896,45.50296],[-120.82554,45.51324],[-120.84778,45.5193],[-121.25272,45.51908],[-121.25291,45.67081],[-121.275,45.67887],[-121.28659,45.67784],[-121.28933,45.68117],[-121.28631,45.68534],[-121.30072,45.68993],[-121.29754,45.69218],[-121.2873,45.68686],[-121.21577,45.67122],[-121.20035,45.64984],[-121.19519,45.62956],[-121.19646,45.61661],[-121.18369,45.60645],[-121.14558,45.60794],[-121.13939,45.61204],[-121.13183,45.60975],[-121.11718,45.6182],[-121.12011,45.62316],[-121.08486,45.64793],[-121.06446,45.65249],[-121.00737,45.65319],[-120.9835,45.64835],[-120.95312,45.65674],[-120.94402,45.65639],[-120.91361,45.63999],[-120.89582,45.64292],[-120.85542,45.67173],[-120.78858,45.68642],[-120.68954,45.71572],[-120.66928,45.72988],[-120.63505,45.74571],[-120.59115,45.74651],[-120.55929,45.73831],[-120.50574,45.69995],[-120.48262,45.6944],[-120.40365,45.69944],[-120.28343,45.72116],[-120.21078,45.72591],[-120.17061,45.76198],[-120.14148,45.77321],[-120.07024,45.78515],[-119.96577,45.82437],[-119.90725,45.82817],[-119.80271,45.84763],[-119.77286,45.84572],[-119.66998,45.85691],[-119.62363,45.9056],[-119.60067,45.91951],[-119.5716,45.92548],[-119.52452,45.90856],[-119.48808,45.90636],[-119.4504,45.91738],[-119.3645,45.92155],[-119.32258,45.93307],[-119.25707,45.93987],[-119.19552,45.9279],[-119.16919,45.9277],[-119.12632,45.93278],[-119.0933,45.94272],[-119.0615,45.95854],[-119.02722,45.96911],[-119.00865,45.97922],[-118.98726,45.99985],[-118.21547,46.00058]]]}}]}