{"type":"FeatureCollection","features":[{"type":"Feature","properties":{"slug":"columbia-gorge","name":"Columbia Gorge"},"geometry":{"type":"Polygon","coordinates":[[[-121.25298,45.67871],[-121.25281,45.51915],[-121.37902,45.51937],[-121.37916,45.6065],[-121.50362,45.60647],[-121.50672,45.59267],[-121.50654,45.57984],[-121.50814,45.57818],[-121.51195,45.58074],[-121.51299,45.58299],[-121.52365,45.58273],[-121.52385,45.58184],[-121.51974,45.57412],[-121.52341,45.57141],[-121.52214,45.56911],[-121.52279,45.56687],[-121.52345,45.56909],[-121.52562,45.57114],[-121.52509,45.57424],[-121.52659,45.57398],[-121.52736,45.57148],[-121.52914,45.57381],[-121.53113,45.57473],[-121.53163,45.56889],[-121.53416,45.56941],[-121.53637,45.56789],[-121.54047,45.56899],[-121.54114,45.56701],[-121.54023,45.56576],[-121.54187,45.56524],[-121.54505,45.56583],[-121.54507,45.56361],[-121.54405,45.56232],[-121.54792,45.56156],[-121.54642,45.56031],[-121.54681,45.55862],[-121.54453,45.55749],[-121.5473,45.55605],[-121.54732,45.5548],[-121.54565,45.55419],[-121.54808,45.55236],[-121.54588,45.54795],[-121.54723,45.54781],[-121.54571,45.54689],[-121.54975,45.54667],[-121.552,45.54349],[-121.55145,45.54221],[-121.55183,45.53871],[-121.55062,45.53752],[-121.55068,45.53314],[-121.55113,45.53285],[-121.55162,45.53411],[-121.55302,45.53389],[-121.55566,45.53137],[-121.55539,45.52784],[-121.55218,45.52648],[-121.55054,45.52069],[-121.55234,45.51863],[-121.55611,45.51759],[-121.55615,45.51672],[-121.55435,45.51487],[-121.55502,45.51408],[-121.55426,45.5129],[-121.55632,45.51115],[-121.55628,45.50998],[-121.55931,45.5046],[-121.60647,45.50456],[-121.60642,45.5197],[-121.63132,45.51988],[-121.63112,45.56393],[-121.67017,45.56345],[-121.67017,45.5772],[-121.65068,45.57754],[-121.65061,45.60688],[-121.62688,45.60654],[-121.62718,45.70561],[-121.53293,45.7265],[-121.4991,45.72074],[-121.4628,45.70128],[-121.42396,45.69407],[-121.40174,45.69289],[-121.37257,45.70303],[-121.33771,45.70484],[-121.3123,45.69984],[-121.2873,45.68686],[-121.25298,45.67871]]]}}]}