{"type":"FeatureCollection","features":[{"type":"Feature","properties":{"slug":"dundee-hills","name":"Dundee Hills"},"geometry":{"type":"Polygon","coordinates":[[[-123.09021,45.31698],[-123.08717,45.31758],[-123.08236,45.32124],[-123.0788,45.32222],[-123.07369,45.32019],[-123.0735,45.31765],[-123.07306,45.32115],[-123.06202,45.31792],[-123.06081,45.31681],[-123.0597,45.31731],[-123.04213,45.31637],[-123.04219,45.31403],[-123.04146,45.315],[-123.04087,45.31415],[-123.04092,45.316],[-123.03893,45.31612],[-123.0214,45.31347],[-123.023,45.31138],[-123.02031,45.31198],[-123.0183,45.31072],[-123.02328,45.30919],[-123.0245,45.30822],[-123.02467,45.30648],[-123.02635,45.30654],[-123.02662,45.30482],[-123.03297,45.3056],[-123.0303,45.30412],[-123.03255,45.30317],[-123.02658,45.30307],[-123.02608,45.30205],[-123.01819,45.3061],[-123.0158,45.306],[-123.01513,45.30403],[-123.01291,45.30255],[-123.01232,45.30062],[-123.01353,45.29975],[-123.01163,45.29943],[-123.0115,45.2975],[-123.01447,45.29474],[-123.02019,45.29181],[-123.02168,45.28931],[-123.01937,45.29128],[-123.00971,45.29436],[-123.00774,45.29452],[-123.00688,45.29381],[-123.0062,45.29458],[-123.00301,45.29338],[-123.00106,45.2912],[-123.00133,45.28533],[-123.00662,45.28202],[-123.00527,45.28129],[-123.00289,45.28139],[-123.00259,45.28059],[-123.02044,45.27449],[-123.02117,45.27308],[-123.02425,45.27304],[-123.02786,45.26923],[-123.03008,45.27217],[-123.0312,45.27173],[-123.03527,45.2737],[-123.03358,45.27156],[-123.03296,45.26918],[-123.04165,45.27],[-123.03673,45.26636],[-123.0405,45.26543],[-123.03676,45.26514],[-123.0296,45.26293],[-123.02842,45.2608],[-123.02945,45.25895],[-123.02693,45.26029],[-123.02922,45.25801],[-123.02923,45.25638],[-123.0323,45.25356],[-123.03351,45.25617],[-123.03484,45.25475],[-123.03601,45.2559],[-123.03808,45.25611],[-123.03682,45.25502],[-123.03776,45.25352],[-123.04184,45.25524],[-123.04274,45.25459],[-123.04727,45.25552],[-123.04582,45.25361],[-123.0445,45.2538],[-123.03795,45.25088],[-123.03749,45.25035],[-123.03867,45.24926],[-123.03701,45.24963],[-123.03971,45.24862],[-123.04246,45.2454],[-123.04412,45.24546],[-123.04609,45.24743],[-123.04664,45.2451],[-123.04854,45.24475],[-123.04934,45.24538],[-123.05013,45.24463],[-123.05127,45.24578],[-123.05231,45.2441],[-123.05365,45.24465],[-123.05619,45.24313],[-123.05747,45.24358],[-123.05819,45.24504],[-123.05973,45.24524],[-123.06076,45.24672],[-123.06101,45.24416],[-123.06299,45.24428],[-123.06232,45.24294],[-123.0667,45.23738],[-123.06802,45.2377],[-123.07127,45.23639],[-123.07191,45.2376],[-123.07499,45.23877],[-123.07744,45.2384],[-123.08306,45.23986],[-123.09334,45.24622],[-123.09451,45.24812],[-123.09407,45.2498],[-123.09309,45.25017],[-123.09365,45.25112],[-123.08867,45.25309],[-123.094,45.25254],[-123.09637,45.25416],[-123.09542,45.2524],[-123.09691,45.25189],[-123.09636,45.25034],[-123.09969,45.24857],[-123.1036,45.24832],[-123.10424,45.25266],[-123.10802,45.25105],[-123.11029,45.2523],[-123.1126,45.25532],[-123.11331,45.25479],[-123.11467,45.25573],[-123.11826,45.25617],[-123.11657,45.25809],[-123.1146,45.25828],[-123.11229,45.25775],[-123.11128,45.25626],[-123.10985,45.25626],[-123.10934,45.25827],[-123.11003,45.25897],[-123.10752,45.26055],[-123.1061,45.26057],[-123.10525,45.2623],[-123.10696,45.26264],[-123.10711,45.26386],[-123.10422,45.26453],[-123.1042,45.26519],[-123.10604,45.26571],[-123.10648,45.26713],[-123.10549,45.26796],[-123.10305,45.26801],[-123.10412,45.26878],[-123.10382,45.26989],[-123.09856,45.27286],[-123.09356,45.27264],[-123.09746,45.27406],[-123.09665,45.2761],[-123.0939,45.27698],[-123.09456,45.27876],[-123.09632,45.27783],[-123.09675,45.27933],[-123.09605,45.28079],[-123.09692,45.2803],[-123.09817,45.27698],[-123.09742,45.28358],[-123.09779,45.28974],[-123.10239,45.29602],[-123.09991,45.30067],[-123.09433,45.30542],[-123.08936,45.31136],[-123.09021,45.31698]]]}}]}