{"type":"FeatureCollection","features":[{"type":"Feature","properties":{"slug":"elkton-oregon","name":"Elkton Oregon"},"geometry":{"type":"Polygon","coordinates":[[[-123.52351,43.66225],[-123.52467,43.65919],[-123.52248,43.65576],[-123.52023,43.65487],[-123.5151,43.65566],[-123.51135,43.65459],[-123.50957,43.63446],[-123.51146,43.63571],[-123.51171,43.63512],[-123.50972,43.63327],[-123.50656,43.62704],[-123.50415,43.6265],[-123.5047,43.62576],[-123.50376,43.62435],[-123.50097,43.62288],[-123.50398,43.62215],[-123.50439,43.62083],[-123.50773,43.62208],[-123.51081,43.62118],[-123.51437,43.6238],[-123.51586,43.62377],[-123.51707,43.62575],[-123.52177,43.62638],[-123.52592,43.62851],[-123.52122,43.62564],[-123.52114,43.62414],[-123.5196,43.62175],[-123.51784,43.62056],[-123.51953,43.61939],[-123.51799,43.61646],[-123.52118,43.61848],[-123.52184,43.62087],[-123.52709,43.6229],[-123.5305,43.62262],[-123.53184,43.62047],[-123.5337,43.61948],[-123.53222,43.62242],[-123.53233,43.62432],[-123.53367,43.62653],[-123.53511,43.62732],[-123.53582,43.62611],[-123.53536,43.62453],[-123.53707,43.624],[-123.53677,43.62283],[-123.53818,43.62256],[-123.53831,43.62112],[-123.54035,43.62053],[-123.53968,43.61901],[-123.54361,43.61853],[-123.54313,43.61528],[-123.53951,43.61652],[-123.53894,43.61593],[-123.53671,43.61648],[-123.53572,43.61497],[-123.53304,43.61417],[-123.53236,43.61324],[-123.53124,43.61528],[-123.52753,43.61604],[-123.52301,43.61277],[-123.51793,43.61176],[-123.51561,43.60918],[-123.51367,43.60997],[-123.51265,43.60897],[-123.51117,43.60899],[-123.5085,43.60988],[-123.50903,43.60567],[-123.51014,43.60453],[-123.51164,43.60449],[-123.51154,43.603],[-123.51447,43.60167],[-123.51799,43.60141],[-123.51816,43.60065],[-123.51255,43.60124],[-123.50963,43.60347],[-123.50694,43.6038],[-123.50626,43.60553],[-123.50424,43.60652],[-123.50154,43.60978],[-123.49659,43.61098],[-123.49529,43.60967],[-123.49614,43.6083],[-123.49543,43.60735],[-123.49807,43.60616],[-123.49432,43.60508],[-123.49614,43.60306],[-123.49604,43.60213],[-123.50274,43.6001],[-123.50074,43.59837],[-123.50112,43.59729],[-123.50258,43.59712],[-123.50373,43.5958],[-123.5035,43.59444],[-123.5001,43.59544],[-123.49571,43.59465],[-123.49545,43.59584],[-123.49614,43.59666],[-123.49554,43.59851],[-123.49262,43.59943],[-123.49026,43.60249],[-123.48876,43.60225],[-123.48887,43.60152],[-123.48789,43.60118],[-123.48974,43.59879],[-123.48912,43.59368],[-123.48517,43.59654],[-123.48438,43.5984],[-123.48328,43.59831],[-123.48217,43.59949],[-123.47925,43.59918],[-123.47883,43.5986],[-123.48104,43.59482],[-123.48012,43.59084],[-123.48016,43.59293],[-123.47783,43.59568],[-123.47395,43.59688],[-123.47357,43.59297],[-123.47047,43.59559],[-123.45056,43.57911],[-123.44982,43.57427],[-123.45078,43.57395],[-123.45091,43.57255],[-123.45345,43.5736],[-123.45285,43.57451],[-123.45374,43.57517],[-123.45571,43.57491],[-123.45863,43.57783],[-123.46158,43.57904],[-123.46313,43.58119],[-123.4644,43.58102],[-123.46586,43.57948],[-123.46228,43.57649],[-123.46367,43.57493],[-123.46153,43.57324],[-123.46158,43.56904],[-123.46008,43.56824],[-123.4623,43.56728],[-123.4661,43.5702],[-123.46686,43.56981],[-123.4664,43.56826],[-123.46387,43.56635],[-123.46529,43.56624],[-123.45939,43.56377],[-123.46217,43.56317],[-123.46172,43.56202],[-123.46244,43.56139],[-123.4651,43.56281],[-123.47127,43.56049],[-123.47242,43.56163],[-123.47131,43.56215],[-123.47145,43.56454],[-123.47372,43.56318],[-123.47646,43.56287],[-123.47503,43.56499],[-123.47517,43.56665],[-123.4766,43.56707],[-123.47565,43.56892],[-123.47614,43.56959],[-123.47738,43.56886],[-123.48027,43.5699],[-123.48157,43.5692],[-123.48127,43.56828],[-123.48683,43.56543],[-123.48711,43.56635],[-123.48851,43.56666],[-123.48759,43.56814],[-123.48953,43.56847],[-123.48812,43.57054],[-123.49167,43.57015],[-123.49209,43.57117],[-123.49364,43.57162],[-123.49243,43.57325],[-123.49424,43.57262],[-123.49606,43.574],[-123.49641,43.57237],[-123.50091,43.57086],[-123.5032,43.57096],[-123.50458,43.56997],[-123.5006,43.56682],[-123.51003,43.56639],[-123.50941,43.56548],[-123.50252,43.56424],[-123.49991,43.56258],[-123.49421,43.56214],[-123.49079,43.55902],[-123.48476,43.55997],[-123.48339,43.55904],[-123.48401,43.55713],[-123.48243,43.55478],[-123.48079,43.5547],[-123.47971,43.55554],[-123.47795,43.55448],[-123.47522,43.5549],[-123.47103,43.5526],[-123.46643,43.55207],[-123.46682,43.55062],[-123.46951,43.54977],[-123.46926,43.54929],[-123.4712,43.54988],[-123.47435,43.54901],[-123.47265,43.54785],[-123.47365,43.54763],[-123.47189,43.5447],[-123.47137,43.54136],[-123.4668,43.54087],[-123.46922,43.53947],[-123.46759,43.537],[-123.46508,43.53544],[-123.4655,43.53237],[-123.46668,43.53461],[-123.46979,43.53687],[-123.47299,43.53704],[-123.47354,43.53795],[-123.47523,43.53821],[-123.47804,43.53619],[-123.4797,43.53628],[-123.48148,43.53478],[-123.48155,43.53365],[-123.48377,43.53388],[-123.48269,43.53526],[-123.48398,43.53588],[-123.48262,43.5364],[-123.48179,43.53948],[-123.48008,43.54022],[-123.48173,43.54105],[-123.4851,43.53944],[-123.48819,43.53942],[-123.48892,43.53528],[-123.48842,43.53368],[-123.48906,43.53284],[-123.49666,43.53359],[-123.4995,43.53122],[-123.50443,43.5298],[-123.50862,43.53188],[-123.51186,43.53241],[-123.51242,43.53191],[-123.51217,43.52789],[-123.5182,43.53087],[-123.52251,43.53068],[-123.51941,43.52689],[-123.51637,43.52594],[-123.51641,43.52472],[-123.5155,43.52382],[-123.51284,43.52312],[-123.51377,43.52175],[-123.51259,43.52092],[-123.50674,43.52129],[-123.50778,43.51913],[-123.5853,43.51901],[-123.70555,43.6068],[-123.70508,43.71433],[-123.70423,43.71108],[-123.70237,43.70815],[-123.70181,43.71034],[-123.7005,43.71171],[-123.70294,43.7125],[-123.70233,43.71374],[-123.70403,43.71594],[-123.7021,43.71636],[-123.69848,43.7151],[-123.69683,43.7165],[-123.7002,43.71986],[-123.69915,43.72044],[-123.7002,43.72187],[-123.69649,43.72063],[-123.69662,43.71985],[-123.69328,43.71798],[-123.69026,43.72032],[-123.68692,43.71917],[-123.69002,43.71776],[-123.68863,43.71653],[-123.68876,43.71576],[-123.69299,43.71458],[-123.69315,43.71357],[-123.69025,43.71344],[-123.69188,43.71033],[-123.6867,43.70973],[-123.68912,43.70781],[-123.69154,43.70782],[-123.6946,43.70368],[-123.6899,43.70461],[-123.69038,43.70259],[-123.68885,43.70215],[-123.689,43.70144],[-123.68588,43.69906],[-123.68279,43.698],[-123.67808,43.70082],[-123.6783,43.70278],[-123.67742,43.70344],[-123.67605,43.70314],[-123.67504,43.70457],[-123.67353,43.70127],[-123.66973,43.7029],[-123.67046,43.70486],[-123.66754,43.7044],[-123.66899,43.70656],[-123.66463,43.70571],[-123.66522,43.70759],[-123.66741,43.70821],[-123.66701,43.7086],[-123.66465,43.70908],[-123.66262,43.70799],[-123.66139,43.70828],[-123.66217,43.71043],[-123.6632,43.7108],[-123.66276,43.71162],[-123.66433,43.71287],[-123.66817,43.71168],[-123.66636,43.71364],[-123.66714,43.71492],[-123.66907,43.71501],[-123.67115,43.7139],[-123.6712,43.71473],[-123.67224,43.71507],[-123.66814,43.7165],[-123.66919,43.71789],[-123.67191,43.71864],[-123.66949,43.71875],[-123.6691,43.71984],[-123.66402,43.71537],[-123.66137,43.71795],[-123.66072,43.71646],[-123.66155,43.71457],[-123.66081,43.71397],[-123.65633,43.71551],[-123.65576,43.71688],[-123.65715,43.71782],[-123.65558,43.71796],[-123.65495,43.71898],[-123.65455,43.71726],[-123.65268,43.71683],[-123.65419,43.71626],[-123.65397,43.71539],[-123.65123,43.71423],[-123.65483,43.71412],[-123.65855,43.71202],[-123.6575,43.70973],[-123.65501,43.711],[-123.65502,43.7103],[-123.65377,43.70984],[-123.65114,43.71043],[-123.65103,43.70946],[-123.65225,43.70894],[-123.65175,43.7071],[-123.65485,43.70719],[-123.65455,43.70528],[-123.65551,43.70499],[-123.65717,43.70658],[-123.65814,43.70642],[-123.65821,43.70534],[-123.66008,43.70434],[-123.65923,43.70203],[-123.66239,43.70268],[-123.66009,43.70008],[-123.66142,43.69977],[-123.66135,43.69887],[-123.66456,43.70079],[-123.66546,43.69997],[-123.66459,43.69774],[-123.66607,43.69677],[-123.66803,43.69822],[-123.66969,43.6973],[-123.66963,43.69639],[-123.67192,43.69532],[-123.67317,43.69635],[-123.67428,43.69518],[-123.6777,43.6951],[-123.67817,43.6939],[-123.67729,43.69192],[-123.67817,43.6907],[-123.68183,43.69084],[-123.68194,43.69167],[-123.68303,43.6919],[-123.68503,43.69083],[-123.68344,43.69016],[-123.68265,43.68804],[-123.68119,43.68896],[-123.67772,43.68901],[-123.67223,43.68649],[-123.67059,43.68709],[-123.67113,43.68792],[-123.6701,43.68907],[-123.67043,43.69102],[-123.66434,43.68947],[-123.66325,43.69077],[-123.66538,43.69302],[-123.66258,43.69404],[-123.65808,43.69384],[-123.65699,43.69361],[-123.65454,43.69092],[-123.65338,43.69132],[-123.65316,43.69064],[-123.64793,43.6899],[-123.64578,43.68614],[-123.64336,43.68574],[-123.63962,43.68943],[-123.64018,43.69104],[-123.64369,43.68792],[-123.64419,43.68901],[-123.64554,43.68948],[-123.64377,43.69324],[-123.64477,43.69393],[-123.64725,43.693],[-123.64685,43.69563],[-123.64988,43.69572],[-123.64886,43.69631],[-123.64866,43.69772],[-123.65543,43.69822],[-123.6528,43.69971],[-123.65254,43.70067],[-123.65067,43.70052],[-123.64968,43.70177],[-123.64819,43.70144],[-123.6491,43.70324],[-123.65138,43.70352],[-123.65059,43.7049],[-123.64902,43.7056],[-123.64782,43.70736],[-123.64718,43.70708],[-123.64576,43.7047],[-123.64267,43.70393],[-123.64087,43.70261],[-123.64253,43.70142],[-123.64287,43.69946],[-123.64084,43.70048],[-123.64081,43.69894],[-123.63875,43.69924],[-123.63874,43.6978],[-123.63755,43.69758],[-123.63706,43.69616],[-123.63364,43.69408],[-123.63231,43.69503],[-123.63492,43.69751],[-123.63411,43.69815],[-123.63514,43.69874],[-123.63405,43.69958],[-123.6345,43.70007],[-123.63207,43.70018],[-123.63442,43.70182],[-123.63393,43.70278],[-123.63451,43.70359],[-123.63756,43.70365],[-123.63707,43.70563],[-123.63922,43.70468],[-123.63992,43.70497],[-123.63977,43.70684],[-123.64134,43.70642],[-123.64203,43.70743],[-123.64392,43.7076],[-123.64481,43.70948],[-123.64068,43.71022],[-123.64539,43.71268],[-123.64116,43.71315],[-123.63947,43.71525],[-123.63804,43.71573],[-123.63813,43.71252],[-123.63655,43.71109],[-123.63446,43.71061],[-123.63495,43.71292],[-123.63417,43.71371],[-123.63435,43.71495],[-123.63295,43.71457],[-123.62651,43.7099],[-123.62772,43.70912],[-123.62735,43.70829],[-123.62832,43.70736],[-123.62518,43.70634],[-123.62512,43.70524],[-123.62169,43.70424],[-123.61979,43.70239],[-123.61994,43.70121],[-123.61501,43.70181],[-123.61463,43.70236],[-123.6157,43.70419],[-123.61735,43.70485],[-123.61852,43.70696],[-123.62057,43.7065],[-123.62233,43.70764],[-123.62248,43.70917],[-123.62116,43.70991],[-123.62139,43.71043],[-123.62517,43.71075],[-123.62596,43.71199],[-123.62321,43.71318],[-123.62356,43.71449],[-123.6246,43.71549],[-123.62928,43.71663],[-123.62968,43.71758],[-123.62436,43.71826],[-123.6232,43.72014],[-123.62204,43.72034],[-123.62164,43.71755],[-123.61968,43.71668],[-123.6184,43.71732],[-123.61777,43.71533],[-123.61584,43.71386],[-123.61508,43.7196],[-123.61415,43.72041],[-123.61456,43.72138],[-123.61339,43.72118],[-123.61146,43.71916],[-123.60627,43.71856],[-123.60764,43.71717],[-123.60615,43.71574],[-123.6078,43.71476],[-123.60496,43.71331],[-123.60788,43.7114],[-123.60617,43.71098],[-123.60578,43.71003],[-123.6073,43.70798],[-123.60219,43.70781],[-123.60291,43.71054],[-123.59839,43.71013],[-123.60033,43.71252],[-123.60026,43.71343],[-123.6014,43.71332],[-123.6019,43.71446],[-123.60364,43.71432],[-123.6041,43.71564],[-123.603,43.71754],[-123.60026,43.71728],[-123.59897,43.71926],[-123.60126,43.71914],[-123.6009,43.72151],[-123.6035,43.72033],[-123.60367,43.72267],[-123.60548,43.7216],[-123.60842,43.7217],[-123.60556,43.72557],[-123.60655,43.7266],[-123.60909,43.72535],[-123.6078,43.72814],[-123.61256,43.72872],[-123.61088,43.72921],[-123.60965,43.73125],[-123.6066,43.73095],[-123.60756,43.73292],[-123.60558,43.73196],[-123.60209,43.73368],[-123.60258,43.73146],[-123.59576,43.73137],[-123.59488,43.73209],[-123.59252,43.73131],[-123.59047,43.73216],[-123.58582,43.73113],[-123.5894,43.72877],[-123.58731,43.72747],[-123.58504,43.72794],[-123.58485,43.72742],[-123.58729,43.725],[-123.58654,43.72353],[-123.58744,43.723],[-123.58664,43.72185],[-123.58705,43.72076],[-123.58605,43.71917],[-123.58952,43.71813],[-123.58982,43.71577],[-123.58916,43.71516],[-123.58748,43.71783],[-123.58367,43.71859],[-123.58116,43.7182],[-123.58196,43.72005],[-123.58356,43.72111],[-123.5817,43.72271],[-123.58389,43.7228],[-123.58367,43.72455],[-123.58053,43.72593],[-123.58043,43.72733],[-123.57665,43.72652],[-123.57757,43.72568],[-123.57714,43.72451],[-123.57431,43.72215],[-123.57306,43.72247],[-123.57262,43.72382],[-123.57108,43.72371],[-123.57208,43.72572],[-123.57037,43.72698],[-123.57531,43.73046],[-123.5704,43.73131],[-123.56828,43.7307],[-123.56778,43.7314],[-123.56549,43.73007],[-123.56292,43.73108],[-123.56073,43.72966],[-123.56277,43.72794],[-123.55825,43.72674],[-123.55596,43.72321],[-123.55492,43.72282],[-123.55586,43.72124],[-123.56057,43.72342],[-123.56022,43.72177],[-123.56233,43.72125],[-123.56392,43.72217],[-123.56518,43.72065],[-123.56038,43.71916],[-123.55882,43.7178],[-123.56073,43.71797],[-123.56327,43.71678],[-123.56135,43.71488],[-123.56282,43.71428],[-123.56242,43.71219],[-123.56338,43.71085],[-123.56593,43.7118],[-123.5669,43.71358],[-123.56906,43.71405],[-123.5692,43.71186],[-123.56773,43.70786],[-123.57188,43.70975],[-123.57335,43.70908],[-123.57431,43.71056],[-123.57404,43.71177],[-123.57562,43.71122],[-123.57759,43.71188],[-123.57662,43.70845],[-123.57914,43.7077],[-123.58031,43.70862],[-123.58088,43.70636],[-123.58413,43.70706],[-123.58404,43.70596],[-123.58565,43.70598],[-123.58708,43.70465],[-123.58555,43.70285],[-123.58595,43.69996],[-123.58375,43.70149],[-123.58103,43.7009],[-123.57992,43.70512],[-123.57367,43.70578],[-123.57115,43.70373],[-123.57121,43.70244],[-123.57019,43.70214],[-123.57262,43.7008],[-123.57072,43.69743],[-123.56907,43.69614],[-123.56804,43.6989],[-123.56699,43.69944],[-123.56756,43.70028],[-123.5658,43.7012],[-123.56665,43.7025],[-123.56466,43.70454],[-123.56011,43.7008],[-123.56098,43.69945],[-123.55816,43.69852],[-123.56005,43.69635],[-123.55594,43.69593],[-123.55283,43.69012],[-123.55212,43.6908],[-123.55291,43.6922],[-123.55051,43.69306],[-123.55114,43.69473],[-123.54665,43.6948],[-123.54576,43.69544],[-123.54714,43.69698],[-123.54493,43.69764],[-123.54695,43.69901],[-123.55003,43.69813],[-123.55004,43.7001],[-123.55143,43.69956],[-123.55332,43.70066],[-123.55223,43.7021],[-123.55555,43.70164],[-123.55634,43.70252],[-123.55588,43.70337],[-123.55925,43.70503],[-123.55997,43.70619],[-123.55655,43.70786],[-123.55712,43.70831],[-123.55661,43.70903],[-123.55892,43.70965],[-123.55616,43.71057],[-123.55722,43.71208],[-123.55451,43.71409],[-123.55528,43.71501],[-123.55368,43.71539],[-123.55376,43.71665],[-123.55274,43.71662],[-123.55126,43.71856],[-123.54943,43.71843],[-123.54882,43.71708],[-123.5503,43.7152],[-123.54829,43.71237],[-123.55054,43.71143],[-123.55177,43.70919],[-123.54928,43.70678],[-123.54694,43.7075],[-123.54594,43.70719],[-123.54537,43.70588],[-123.54354,43.7067],[-123.53983,43.70569],[-123.53768,43.7035],[-123.53792,43.70199],[-123.53625,43.70108],[-123.53627,43.70492],[-123.53733,43.70722],[-123.53591,43.70774],[-123.53562,43.70941],[-123.53348,43.70675],[-123.53093,43.7057],[-123.52922,43.70603],[-123.52692,43.70482],[-123.52669,43.70344],[-123.5223,43.70215],[-123.52326,43.70077],[-123.52475,43.70057],[-123.52382,43.69858],[-123.52548,43.69759],[-123.5286,43.69698],[-123.52929,43.6959],[-123.5333,43.69601],[-123.5354,43.69518],[-123.53423,43.69344],[-123.53192,43.69278],[-123.52922,43.69069],[-123.52683,43.69062],[-123.52693,43.68909],[-123.52555,43.68754],[-123.52827,43.68676],[-123.52798,43.68383],[-123.52716,43.68278],[-123.52954,43.68157],[-123.53072,43.67731],[-123.53173,43.67665],[-123.53133,43.67176],[-123.53424,43.66968],[-123.52351,43.66225]]]}}]}