{"type":"FeatureCollection","features":[{"type":"Feature","properties":{"slug":"eola-amity-hills","name":"Eola-Amity Hills"},"geometry":{"type":"MultiPolygon","coordinates":[[[[-123.18475,45.03414],[-123.18472,45.03414],[-123.18472,45.03413],[-123.18475,45.03414]]],[[[-123.1868,45.0434],[-123.18638,45.07709],[-123.18217,45.08057],[-123.18111,45.08999],[-123.17942,45.09412],[-123.17937,45.09677],[-123.17616,45.09991],[-123.17625,45.10217],[-123.17421,45.10413],[-123.17237,45.10488],[-123.1659,45.11038],[-123.16303,45.11109],[-123.1617,45.11018],[-123.16138,45.11176],[-123.15927,45.11264],[-123.16164,45.11313],[-123.16153,45.1147],[-123.16836,45.11343],[-123.17001,45.11431],[-123.17129,45.11324],[-123.17876,45.11307],[-123.18376,45.11591],[-123.18632,45.11834],[-123.18627,45.11994],[-123.18767,45.12081],[-123.19566,45.12305],[-123.20034,45.12224],[-123.20291,45.12913],[-123.20599,45.13199],[-123.20487,45.1357],[-123.20133,45.13797],[-123.19938,45.13783],[-123.19202,45.14276],[-123.19048,45.1432],[-123.18945,45.14238],[-123.18839,45.14376],[-123.18184,45.14475],[-123.17653,45.14669],[-123.17516,45.1461],[-123.17194,45.14729],[-123.16739,45.14324],[-123.1673,45.14199],[-123.16809,45.14128],[-123.16488,45.14252],[-123.16323,45.14069],[-123.16209,45.14333],[-123.15851,45.14189],[-123.15957,45.14446],[-123.15896,45.14496],[-123.15339,45.14591],[-123.14762,45.14353],[-123.14739,45.14682],[-123.14095,45.14978],[-123.13729,45.15042],[-123.13476,45.15433],[-123.13117,45.15594],[-123.13047,45.15702],[-123.12791,45.15736],[-123.11916,45.16299],[-123.11265,45.16442],[-123.1117,45.1625],[-123.11643,45.15868],[-123.11411,45.15671],[-123.11776,45.15462],[-123.11359,45.15394],[-123.11212,45.1529],[-123.11464,45.15085],[-123.11551,45.14844],[-123.1203,45.14721],[-123.12184,45.14778],[-123.12241,45.14908],[-123.13092,45.14709],[-123.12681,45.14658],[-123.12371,45.14455],[-123.12296,45.14043],[-123.12071,45.14087],[-123.11996,45.14034],[-123.1204,45.13877],[-123.11658,45.1384],[-123.11668,45.1375],[-123.11898,45.13578],[-123.1188,45.13511],[-123.1161,45.13473],[-123.11538,45.13386],[-123.11664,45.13138],[-123.11964,45.13091],[-123.12005,45.12852],[-123.11868,45.12774],[-123.11907,45.12648],[-123.12354,45.125],[-123.1225,45.12387],[-123.11863,45.12338],[-123.11779,45.12171],[-123.12129,45.11794],[-123.12502,45.11718],[-123.11966,45.11675],[-123.12155,45.1144],[-123.10968,45.11571],[-123.10756,45.11129],[-123.1074,45.10805],[-123.11868,45.10653],[-123.11443,45.1055],[-123.11395,45.10408],[-123.11175,45.1053],[-123.10143,45.1044],[-123.1013,45.10209],[-123.10299,45.10019],[-123.10951,45.09794],[-123.10944,45.0963],[-123.11162,45.09412],[-123.1115,45.09245],[-123.11579,45.09155],[-123.11335,45.09006],[-123.11815,45.08749],[-123.11139,45.08802],[-123.11026,45.08655],[-123.10279,45.08982],[-123.09662,45.09025],[-123.09516,45.08293],[-123.09373,45.08136],[-123.09644,45.07878],[-123.10019,45.07777],[-123.10163,45.07631],[-123.09947,45.07558],[-123.09933,45.07364],[-123.09475,45.07366],[-123.09407,45.07231],[-123.09004,45.07062],[-123.08747,45.0682],[-123.08677,45.0665],[-123.08954,45.06506],[-123.10278,45.0643],[-123.10097,45.0635],[-123.09183,45.06296],[-123.08985,45.06136],[-123.0907,45.05952],[-123.09193,45.0588],[-123.09106,45.05803],[-123.08304,45.06137],[-123.08141,45.06163],[-123.07998,45.06082],[-123.0842,45.05697],[-123.08827,45.0569],[-123.09094,45.0552],[-123.09657,45.05472],[-123.10353,45.04911],[-123.10675,45.04871],[-123.10631,45.04611],[-123.10462,45.04384],[-123.10678,45.04125],[-123.10695,45.03836],[-123.11001,45.03601],[-123.1118,45.03624],[-123.11216,45.03464],[-123.11347,45.03351],[-123.11804,45.03333],[-123.12056,45.03164],[-123.12208,45.03153],[-123.12135,45.02848],[-123.11867,45.02715],[-123.12131,45.02627],[-123.12231,45.02305],[-123.12893,45.02048],[-123.13517,45.02067],[-123.13786,45.02152],[-123.14508,45.0197],[-123.14049,45.01916],[-123.13726,45.01789],[-123.13122,45.01815],[-123.12584,45.01681],[-123.1229,45.01042],[-123.12268,45.00781],[-123.12133,45.00642],[-123.12138,45.00459],[-123.11626,45.00064],[-123.11531,44.99902],[-123.11666,44.99773],[-123.1154,44.99786],[-123.11398,44.99544],[-123.11268,44.99485],[-123.10109,44.99509],[-123.09931,44.99233],[-123.09528,44.99386],[-123.09265,44.99339],[-123.08863,44.99419],[-123.08573,44.99619],[-123.08316,45.00036],[-123.0828,45.00332],[-123.08134,45.00413],[-123.08087,45.00572],[-123.07863,45.00686],[-123.07706,44.98045],[-123.07557,44.97782],[-123.07665,44.97319],[-123.08506,44.97406],[-123.08792,44.97519],[-123.08954,44.97678],[-123.09225,44.97706],[-123.09372,44.97897],[-123.09568,44.9787],[-123.09334,44.97575],[-123.09494,44.97218],[-123.09339,44.972],[-123.09142,44.97356],[-123.0896,44.97371],[-123.07799,44.96929],[-123.08044,44.96315],[-123.07993,44.95527],[-123.0844,44.95208],[-123.08937,44.9519],[-123.09,44.95055],[-123.09453,44.94765],[-123.09721,44.94045],[-123.10361,44.93811],[-123.10674,44.93355],[-123.11163,44.93234],[-123.11236,44.9313],[-123.1142,44.93084],[-123.12722,44.93223],[-123.16294,44.93304],[-123.16339,44.9344],[-123.15988,44.93562],[-123.15968,44.93638],[-123.16151,44.93671],[-123.16312,44.9393],[-123.16352,44.94212],[-123.16547,44.94249],[-123.16736,44.94556],[-123.1701,44.94653],[-123.17384,44.94608],[-123.17636,44.94774],[-123.17793,44.947],[-123.17736,44.9442],[-123.17891,44.94432],[-123.18087,44.94698],[-123.17811,44.9493],[-123.17521,44.95047],[-123.17706,44.95094],[-123.17857,44.95412],[-123.18451,44.95356],[-123.18705,44.95436],[-123.18572,44.95945],[-123.18034,44.96346],[-123.18947,44.96385],[-123.18704,44.97141],[-123.18739,44.97579],[-123.18975,44.97497],[-123.19089,44.97199],[-123.19292,44.97144],[-123.19583,44.96716],[-123.19708,44.96744],[-123.19864,44.97126],[-123.19812,44.97378],[-123.19974,44.97788],[-123.20594,44.98609],[-123.20881,44.99466],[-123.20757,45.00188],[-123.20515,45.00517],[-123.2033,45.00556],[-123.20242,45.00815],[-123.2059,45.01354],[-123.20562,45.01487],[-123.20132,45.01622],[-123.19999,45.01213],[-123.19559,45.0127],[-123.19212,45.01144],[-123.18806,45.01201],[-123.18967,45.0137],[-123.1838,45.01368],[-123.18392,45.03122],[-123.18344,45.03205],[-123.18081,45.03102],[-123.17843,45.03114],[-123.17831,45.03203],[-123.1801,45.03376],[-123.17665,45.03352],[-123.17659,45.03471],[-123.17938,45.03614],[-123.18384,45.03667],[-123.18134,45.03774],[-123.18236,45.03852],[-123.18117,45.03941],[-123.18378,45.04143],[-123.18164,45.04506],[-123.1839,45.04417],[-123.18521,45.04553],[-123.1868,45.0434]]]]}}]}