{"type":"FeatureCollection","features":[{"type":"Feature","properties":{"slug":"laurelwood-district","name":"Laurelwood District"},"geometry":{"type":"Polygon","coordinates":[[[-123.09077,45.48958],[-123.09158,45.49416],[-123.0902,45.4957],[-123.08605,45.49663],[-123.08134,45.49434],[-123.08217,45.49346],[-123.0822,45.49162],[-123.08035,45.49303],[-123.07839,45.49227],[-123.07743,45.49301],[-123.07491,45.49119],[-123.0737,45.49165],[-123.07353,45.48854],[-123.07171,45.48899],[-123.0669,45.48768],[-123.0688,45.48548],[-123.0678,45.48446],[-123.0717,45.48284],[-123.07421,45.48411],[-123.07518,45.48384],[-123.07331,45.4819],[-123.07758,45.48116],[-123.07043,45.47936],[-123.0751,45.47471],[-123.0742,45.4734],[-123.06868,45.47398],[-123.06719,45.47338],[-123.06762,45.47226],[-123.06704,45.4719],[-123.06372,45.47178],[-123.066,45.46756],[-123.0652,45.46705],[-123.06262,45.46831],[-123.0608,45.46737],[-123.05976,45.4686],[-123.05682,45.46544],[-123.05619,45.46941],[-123.05407,45.46939],[-123.05247,45.46822],[-123.05117,45.47165],[-123.04924,45.47192],[-123.0479,45.47358],[-123.04516,45.47014],[-123.04315,45.47239],[-123.03918,45.4707],[-123.03647,45.47154],[-123.03346,45.47053],[-123.0333,45.46924],[-123.03124,45.46917],[-123.03078,45.47097],[-123.02935,45.47056],[-123.02814,45.47196],[-123.02652,45.47033],[-123.02114,45.4712],[-123.01917,45.47042],[-123.01971,45.46779],[-123.01897,45.46694],[-123.01919,45.46542],[-123.02342,45.46319],[-123.0214,45.46401],[-123.01926,45.46341],[-123.01681,45.46445],[-123.01379,45.46445],[-123.01286,45.46524],[-123.01062,45.46456],[-123.00998,45.46279],[-123.00839,45.46304],[-123.00706,45.46245],[-123.00678,45.46141],[-123.00367,45.46119],[-123.00275,45.4601],[-123.00069,45.45998],[-122.99818,45.45857],[-122.99707,45.45687],[-122.99686,45.45446],[-122.99875,45.45267],[-123.00132,45.45236],[-123.00288,45.45379],[-123.00715,45.45378],[-123.00823,45.45422],[-123.00821,45.45562],[-123.00913,45.45543],[-123.01012,45.45635],[-123.01138,45.45389],[-123.01256,45.45345],[-123.01548,45.45589],[-123.01641,45.45552],[-123.01586,45.45437],[-123.01675,45.45404],[-123.01734,45.45242],[-123.02035,45.45308],[-123.02112,45.45402],[-123.02507,45.45373],[-123.02437,45.45195],[-123.02478,45.4509],[-123.0272,45.45044],[-123.0284,45.44749],[-123.03101,45.44719],[-123.03173,45.4448],[-123.0289,45.44616],[-123.02705,45.44572],[-123.02486,45.44674],[-123.02343,45.44606],[-123.02208,45.44642],[-123.02168,45.44518],[-123.02398,45.44276],[-123.01537,45.44541],[-123.01086,45.44394],[-123.01106,45.44228],[-123.01722,45.44117],[-123.02065,45.43808],[-123.01725,45.43975],[-123.01568,45.43913],[-123.01717,45.43614],[-123.01845,45.43522],[-123.01775,45.43351],[-123.01724,45.43475],[-123.0156,45.43544],[-123.01002,45.4354],[-123.01014,45.43233],[-123.00835,45.43175],[-123.00854,45.43004],[-123.0065,45.42951],[-123.00559,45.42682],[-123.0061,45.42583],[-123.0082,45.42519],[-123.00742,45.42456],[-123.00769,45.42376],[-123.00384,45.42265],[-123.00689,45.42107],[-123.00523,45.42057],[-123.00483,45.419],[-123.003,45.41868],[-123.0069,45.41673],[-123.00289,45.41678],[-123.00238,45.41605],[-122.99866,45.41752],[-122.99877,45.41528],[-122.99995,45.41372],[-122.99714,45.41548],[-122.99564,45.41759],[-122.9924,45.41943],[-122.99149,45.41919],[-122.99258,45.41693],[-122.99194,45.41647],[-122.99278,45.41522],[-122.99244,45.41302],[-122.99357,45.40943],[-122.99062,45.41337],[-122.98677,45.41583],[-122.98528,45.41178],[-122.98541,45.40853],[-122.98203,45.41662],[-122.97818,45.41861],[-122.97764,45.42007],[-122.9746,45.41906],[-122.97598,45.41774],[-122.97776,45.41818],[-122.97854,45.41642],[-122.97992,45.41593],[-122.97688,45.41522],[-122.97668,45.41248],[-122.97519,45.41212],[-122.9761,45.4106],[-122.97379,45.41036],[-122.97457,45.40914],[-122.97235,45.40886],[-122.97272,45.40685],[-122.9716,45.406],[-122.97046,45.40653],[-122.9696,45.40472],[-122.97596,45.40112],[-122.97399,45.40063],[-122.97424,45.39951],[-122.97951,45.39549],[-122.98209,45.3954],[-122.98337,45.39661],[-122.98416,45.39515],[-122.98568,45.39513],[-122.98558,45.39444],[-122.98762,45.39348],[-122.99247,45.39346],[-122.99121,45.3923],[-122.98611,45.39158],[-122.98392,45.38833],[-122.98339,45.38838],[-122.98403,45.39238],[-122.98269,45.39297],[-122.97721,45.39265],[-122.96956,45.39791],[-122.96788,45.3983],[-122.96537,45.39443],[-122.96544,45.39314],[-122.96698,45.39143],[-122.96339,45.39203],[-122.96107,45.38992],[-122.96037,45.3875],[-122.95886,45.38609],[-122.95958,45.39237],[-122.95829,45.39369],[-122.96132,45.39413],[-122.96059,45.39489],[-122.96127,45.39525],[-122.96105,45.39635],[-122.95885,45.39747],[-122.95829,45.4002],[-122.95133,45.40038],[-122.95232,45.39765],[-122.95082,45.39686],[-122.9506,45.39794],[-122.94831,45.39985],[-122.94471,45.39942],[-122.94452,45.39827],[-122.942,45.39792],[-122.94346,45.39584],[-122.94063,45.39488],[-122.9388,45.39777],[-122.93499,45.39703],[-122.93347,45.396],[-122.93692,45.3945],[-122.93571,45.39358],[-122.93611,45.3929],[-122.93495,45.39064],[-122.93687,45.39035],[-122.93789,45.38911],[-122.94028,45.39111],[-122.94105,45.39018],[-122.94067,45.38854],[-122.94243,45.38863],[-122.94253,45.38753],[-122.94373,45.38719],[-122.94293,45.38653],[-122.9448,45.38627],[-122.94369,45.38534],[-122.94523,45.38164],[-122.94447,45.38116],[-122.94426,45.3787],[-122.94113,45.37461],[-122.94064,45.37498],[-122.94187,45.37879],[-122.94097,45.383],[-122.93646,45.38503],[-122.93434,45.38457],[-122.9281,45.3892],[-122.92564,45.38642],[-122.9258,45.38514],[-122.92438,45.38528],[-122.92314,45.38257],[-122.92395,45.38189],[-122.92234,45.3818],[-122.92048,45.3774],[-122.92006,45.38219],[-122.92073,45.38856],[-122.91814,45.38698],[-122.91878,45.38841],[-122.91811,45.38947],[-122.91687,45.38888],[-122.91489,45.39164],[-122.91633,45.39251],[-122.92004,45.39212],[-122.9196,45.39382],[-122.91732,45.393],[-122.91321,45.39346],[-122.9124,45.39247],[-122.90969,45.39212],[-122.90836,45.39291],[-122.90662,45.3917],[-122.90535,45.39257],[-122.90341,45.39179],[-122.90191,45.38963],[-122.90138,45.39263],[-122.89897,45.3932],[-122.89698,45.39228],[-122.89659,45.39365],[-122.89446,45.39225],[-122.89459,45.39338],[-122.89201,45.39338],[-122.89118,45.39415],[-122.88897,45.39144],[-122.88819,45.39161],[-122.88914,45.39472],[-122.88827,45.39496],[-122.87807,45.38994],[-122.87531,45.38499],[-122.87349,45.38576],[-122.8723,45.38531],[-122.86396,45.38022],[-122.86024,45.37655],[-122.8682,45.37365],[-122.8698,45.3743],[-122.87154,45.37305],[-122.87328,45.37345],[-122.87262,45.37493],[-122.87514,45.37417],[-122.878,45.37601],[-122.8776,45.37775],[-122.87954,45.37644],[-122.88787,45.37758],[-122.88717,45.37667],[-122.88071,45.37534],[-122.87799,45.37368],[-122.87799,45.3722],[-122.87661,45.3724],[-122.87767,45.37164],[-122.88004,45.37163],[-122.88081,45.36992],[-122.87654,45.37124],[-122.87441,45.37078],[-122.87397,45.37046],[-122.87468,45.36979],[-122.87245,45.36915],[-122.87589,45.36676],[-122.87787,45.36643],[-122.88259,45.36268],[-122.8899,45.36182],[-122.88736,45.36073],[-122.88731,45.35695],[-122.88547,45.3606],[-122.8812,45.36059],[-122.87624,45.36334],[-122.87388,45.36343],[-122.87296,45.36199],[-122.87241,45.3635],[-122.87315,45.36385],[-122.87343,45.36491],[-122.87222,45.36527],[-122.87236,45.36371],[-122.86782,45.36579],[-122.86801,45.35338],[-122.87083,45.34789],[-122.87043,45.3462],[-122.87124,45.34579],[-122.87113,45.34456],[-122.86982,45.34491],[-122.86977,45.34357],[-122.87261,45.34092],[-122.86882,45.34062],[-122.87544,45.33738],[-122.87616,45.33506],[-122.87503,45.33455],[-122.8714,45.3359],[-122.86994,45.33832],[-122.86665,45.33823],[-122.86291,45.33975],[-122.86352,45.34004],[-122.86327,45.34076],[-122.86246,45.34054],[-122.86278,45.34138],[-122.86706,45.34262],[-122.86679,45.34327],[-122.86183,45.34182],[-122.86074,45.34235],[-122.86102,45.34059],[-122.85769,45.34149],[-122.85696,45.3424],[-122.84703,45.34245],[-122.84654,45.34311],[-122.84652,45.32895],[-122.85034,45.32827],[-122.8513,45.3265],[-122.8545,45.32594],[-122.85575,45.32438],[-122.86157,45.32414],[-122.87595,45.31732],[-122.87868,45.31419],[-122.88291,45.3117],[-122.8831,45.30663],[-122.89026,45.30601],[-122.8922,45.30785],[-122.89603,45.30609],[-122.89956,45.30593],[-122.9015,45.30472],[-122.90259,45.30248],[-122.90413,45.30312],[-122.90852,45.30296],[-122.90876,45.30481],[-122.91006,45.30324],[-122.91662,45.30296],[-122.91794,45.30158],[-122.92118,45.30448],[-122.92235,45.3076],[-122.91918,45.30861],[-122.9193,45.31206],[-122.92072,45.31287],[-122.92176,45.31499],[-122.92345,45.31527],[-122.92342,45.31703],[-122.92475,45.31657],[-122.92471,45.31791],[-122.92746,45.3188],[-122.92897,45.32055],[-122.92826,45.32164],[-122.93004,45.32168],[-122.92985,45.32368],[-122.93088,45.32424],[-122.93162,45.32801],[-122.93252,45.3277],[-122.93265,45.32627],[-122.93519,45.32653],[-122.93926,45.32971],[-122.93934,45.33145],[-122.94014,45.33188],[-122.93644,45.33089],[-122.93256,45.33097],[-122.92879,45.32952],[-122.92851,45.33004],[-122.93376,45.3345],[-122.94636,45.33786],[-122.94676,45.33875],[-122.9576,45.34346],[-122.9637,45.34699],[-122.96627,45.34663],[-122.96998,45.34883],[-122.97443,45.35016],[-122.99827,45.35558],[-122.9997,45.35758],[-123.00158,45.35802],[-123.00164,45.36011],[-123.00648,45.36119],[-123.00694,45.36259],[-123.01287,45.36391],[-123.01402,45.36492],[-123.02388,45.36602],[-123.03957,45.37492],[-123.04236,45.38001],[-123.04584,45.38217],[-123.04984,45.38726],[-123.05617,45.39755],[-123.0536,45.40134],[-123.05075,45.40258],[-123.05309,45.4039],[-123.05246,45.40482],[-123.05246,45.4099],[-123.05377,45.41083],[-123.0524,45.41255],[-123.05182,45.41807],[-123.05651,45.416],[-123.05765,45.4168],[-123.06102,45.41708],[-123.06293,45.42032],[-123.0611,45.41899],[-123.05974,45.4209],[-123.06002,45.42207],[-123.05797,45.42391],[-123.05842,45.42443],[-123.05614,45.42719],[-123.0558,45.42663],[-123.05215,45.42987],[-123.05295,45.43023],[-123.05186,45.43135],[-123.05323,45.43127],[-123.05312,45.4346],[-123.05819,45.43368],[-123.05859,45.43516],[-123.06093,45.43512],[-123.06276,45.43288],[-123.06641,45.43232],[-123.06806,45.43324],[-123.07639,45.4336],[-123.07919,45.43528],[-123.08187,45.43528],[-123.08358,45.43653],[-123.08672,45.43653],[-123.08746,45.43753],[-123.08672,45.43901],[-123.08763,45.44061],[-123.08917,45.44069],[-123.08962,45.44285],[-123.08837,45.44337],[-123.08957,45.44361],[-123.08974,45.44493],[-123.0866,45.44653],[-123.08546,45.44933],[-123.09094,45.45618],[-123.08923,45.45842],[-123.09145,45.46022],[-123.09094,45.46102],[-123.09453,45.46246],[-123.0963,45.46506],[-123.09596,45.46826],[-123.09412,45.46798],[-123.0939,45.47002],[-123.08934,45.4701],[-123.0894,45.4749],[-123.09037,45.47658],[-123.09225,45.47702],[-123.09116,45.47986],[-123.08677,45.48494],[-123.08653,45.48913],[-123.09077,45.48958]]]}}]}