{"type":"FeatureCollection","features":[{"type":"Feature","properties":{"slug":"lower-long-tom","name":"Lower Long Tom"},"geometry":{"type":"Polygon","coordinates":[[[-123.29789,44.15362],[-123.3016,44.15357],[-123.30479,44.15591],[-123.3077,44.15632],[-123.31323,44.14809],[-123.3304,44.14813],[-123.3304,44.15464],[-123.33548,44.15754],[-123.37153,44.15762],[-123.37176,44.15926],[-123.37056,44.15955],[-123.3701,44.16151],[-123.36748,44.16303],[-123.37033,44.16507],[-123.37067,44.16679],[-123.36999,44.17137],[-123.36816,44.1733],[-123.37028,44.1742],[-123.37393,44.17416],[-123.37838,44.17232],[-123.37826,44.17342],[-123.37906,44.17362],[-123.3786,44.17514],[-123.37723,44.17506],[-123.37547,44.17682],[-123.37107,44.17812],[-123.37615,44.18046],[-123.37838,44.18033],[-123.38003,44.17845],[-123.38163,44.17829],[-123.38311,44.18082],[-123.38459,44.17931],[-123.38585,44.17919],[-123.38636,44.18201],[-123.39092,44.18087],[-123.39132,44.18262],[-123.39252,44.18344],[-123.38927,44.18513],[-123.38961,44.18676],[-123.39224,44.18779],[-123.39298,44.19],[-123.39543,44.18963],[-123.39708,44.19028],[-123.39954,44.19253],[-123.39874,44.19334],[-123.40225,44.19334],[-123.40177,44.19511],[-123.39768,44.19528],[-123.39673,44.19735],[-123.40168,44.19838],[-123.407,44.19699],[-123.40826,44.19811],[-123.40788,44.19958],[-123.41034,44.19953],[-123.41017,44.20066],[-123.41167,44.20078],[-123.41062,44.20217],[-123.41232,44.20412],[-123.4072,44.2025],[-123.40083,44.20353],[-123.39217,44.20279],[-123.38854,44.20538],[-123.38417,44.20609],[-123.38408,44.20706],[-123.38584,44.20868],[-123.38781,44.20818],[-123.38878,44.20958],[-123.39435,44.2069],[-123.39761,44.20749],[-123.40048,44.20625],[-123.40171,44.20641],[-123.40344,44.20814],[-123.40558,44.20651],[-123.40982,44.206],[-123.41295,44.20676],[-123.41334,44.20836],[-123.41853,44.2071],[-123.4192,44.20781],[-123.41829,44.20881],[-123.42059,44.20975],[-123.41969,44.21106],[-123.42195,44.21328],[-123.41863,44.21459],[-123.41844,44.21556],[-123.42374,44.21601],[-123.42425,44.21842],[-123.42368,44.21902],[-123.42749,44.22004],[-123.42746,44.2208],[-123.42599,44.2211],[-123.42195,44.22072],[-123.42177,44.22276],[-123.41975,44.22414],[-123.41884,44.22362],[-123.41875,44.22234],[-123.41652,44.2207],[-123.41627,44.22197],[-123.41499,44.2229],[-123.4135,44.22242],[-123.41066,44.22318],[-123.41159,44.22449],[-123.41057,44.22513],[-123.41336,44.22731],[-123.4086,44.22844],[-123.40625,44.22817],[-123.40387,44.22936],[-123.40433,44.23085],[-123.40508,44.23103],[-123.41136,44.22861],[-123.41394,44.22886],[-123.41283,44.23055],[-123.41441,44.23105],[-123.41517,44.23278],[-123.4101,44.23412],[-123.40949,44.23491],[-123.41084,44.23549],[-123.409,44.23608],[-123.41199,44.23767],[-123.41152,44.23992],[-123.41063,44.24077],[-123.4057,44.2415],[-123.40531,44.24359],[-123.41348,44.24353],[-123.41172,44.24417],[-123.41101,44.24606],[-123.40975,44.24697],[-123.40995,44.24894],[-123.4158,44.24847],[-123.41857,44.25126],[-123.41862,44.25199],[-123.41688,44.2529],[-123.41652,44.25473],[-123.41392,44.25431],[-123.41274,44.25527],[-123.41619,44.25582],[-123.41916,44.25388],[-123.42214,44.25408],[-123.42201,44.2558],[-123.42696,44.2582],[-123.4227,44.2582],[-123.41922,44.25923],[-123.42124,44.26126],[-123.41914,44.26162],[-123.419,44.26281],[-123.41538,44.26175],[-123.40565,44.26128],[-123.40516,44.26171],[-123.40595,44.26222],[-123.413,44.2639],[-123.40473,44.26808],[-123.408,44.26979],[-123.4113,44.26994],[-123.42078,44.26772],[-123.42208,44.2659],[-123.42528,44.26562],[-123.42666,44.26638],[-123.42598,44.26856],[-123.4265,44.2693],[-123.4305,44.26988],[-123.4302,44.2707],[-123.43103,44.27141],[-123.43571,44.27308],[-123.42954,44.27372],[-123.4304,44.27609],[-123.42726,44.27576],[-123.42719,44.27338],[-123.42481,44.27246],[-123.41842,44.27371],[-123.41551,44.27541],[-123.42187,44.27674],[-123.41834,44.28109],[-123.41485,44.28199],[-123.40681,44.27857],[-123.4051,44.27987],[-123.39936,44.27957],[-123.39776,44.28085],[-123.3713,44.28088],[-123.37147,44.28349],[-123.35117,44.28358],[-123.35122,44.29504],[-123.35065,44.29638],[-123.33902,44.29508],[-123.33194,44.29638],[-123.32858,44.29859],[-123.32681,44.29871],[-123.32396,44.29846],[-123.32105,44.29716],[-123.31437,44.30136],[-123.31437,44.30224],[-123.30884,44.30447],[-123.30684,44.30455],[-123.30542,44.30406],[-123.30542,44.3034],[-123.30359,44.30504],[-123.30062,44.30402],[-123.29977,44.30516],[-123.29743,44.30561],[-123.29247,44.30557],[-123.29424,44.30677],[-123.29116,44.30516],[-123.28922,44.30279],[-123.28859,44.2845],[-123.29098,44.27935],[-123.29258,44.27333],[-123.29532,44.27329],[-123.29521,44.26932],[-123.29321,44.26891],[-123.29213,44.26707],[-123.29321,44.26597],[-123.29355,44.26311],[-123.29732,44.26229],[-123.30017,44.26066],[-123.30274,44.25747],[-123.3045,44.25825],[-123.30433,44.25943],[-123.30485,44.25902],[-123.30519,44.26029],[-123.30553,44.25939],[-123.30616,44.26115],[-123.30679,44.25923],[-123.30901,44.25894],[-123.30855,44.25825],[-123.30912,44.25784],[-123.31095,44.25776],[-123.31078,44.25624],[-123.31392,44.25522],[-123.31688,44.25551],[-123.3138,44.25261],[-123.31409,44.25003],[-123.31825,44.24795],[-123.32019,44.24877],[-123.32048,44.24693],[-123.32219,44.24824],[-123.32207,44.24611],[-123.32299,44.24656],[-123.32304,44.24501],[-123.32156,44.24182],[-123.3251,44.24264],[-123.32584,44.24186],[-123.32652,44.24239],[-123.32635,44.24411],[-123.33114,44.2419],[-123.33257,44.24219],[-123.33314,44.24108],[-123.33805,44.24411],[-123.33959,44.24382],[-123.34061,44.24538],[-123.34255,44.2448],[-123.34478,44.24615],[-123.34426,44.25044],[-123.34472,44.24967],[-123.34677,44.24938],[-123.34729,44.24717],[-123.35082,44.24856],[-123.3502,44.24705],[-123.35094,44.24664],[-123.36029,44.24995],[-123.3652,44.24873],[-123.37244,44.25167],[-123.3725,44.25065],[-123.36982,44.2504],[-123.36862,44.24893],[-123.36936,44.24828],[-123.36588,44.2482],[-123.35989,44.2446],[-123.3559,44.24521],[-123.35464,44.24423],[-123.34643,44.24288],[-123.34449,44.23917],[-123.3336,44.23427],[-123.32823,44.23533],[-123.32202,44.23439],[-123.31808,44.23488],[-123.31654,44.23378],[-123.31603,44.2357],[-123.31511,44.23619],[-123.31146,44.23574],[-123.31027,44.23485],[-123.3097,44.23195],[-123.31038,44.23142],[-123.31626,44.2306],[-123.31414,44.22974],[-123.31591,44.22933],[-123.31506,44.22896],[-123.31318,44.22962],[-123.31238,44.22913],[-123.31295,44.22786],[-123.31454,44.2272],[-123.31432,44.22561],[-123.31169,44.22557],[-123.3045,44.22324],[-123.30308,44.22238],[-123.30211,44.2196],[-123.30331,44.21543],[-123.30662,44.21429],[-123.3077,44.21085],[-123.30975,44.21106],[-123.30975,44.21269],[-123.31089,44.21408],[-123.31551,44.20991],[-123.31734,44.20958],[-123.31546,44.2084],[-123.31586,44.2068],[-123.31802,44.20709],[-123.3166,44.20617],[-123.3182,44.20396],[-123.31551,44.20396],[-123.31506,44.20285],[-123.31626,44.20244],[-123.31472,44.20228],[-123.31209,44.2006],[-123.31198,44.19983],[-123.30901,44.19926],[-123.30798,44.19778],[-123.31951,44.19799],[-123.32162,44.1988],[-123.3227,44.2002],[-123.3239,44.19946],[-123.32555,44.20003],[-123.32458,44.2015],[-123.32521,44.20175],[-123.32698,44.2006],[-123.32892,44.2006],[-123.33029,44.20277],[-123.33012,44.20371],[-123.3288,44.20416],[-123.33006,44.20543],[-123.33263,44.20588],[-123.3332,44.20825],[-123.33508,44.2098],[-123.33799,44.20895],[-123.33862,44.20796],[-123.33217,44.19868],[-123.32607,44.19676],[-123.31911,44.1914],[-123.32093,44.18813],[-123.32327,44.18862],[-123.32378,44.1876],[-123.32521,44.18752],[-123.32367,44.18654],[-123.3251,44.18596],[-123.32378,44.18416],[-123.32527,44.18367],[-123.32612,44.18424],[-123.32801,44.18138],[-123.32738,44.17991],[-123.3292,44.17909],[-123.32692,44.17921],[-123.32567,44.17781],[-123.32322,44.1772],[-123.32322,44.17409],[-123.32213,44.17393],[-123.32236,44.17142],[-123.32213,44.17278],[-123.32133,44.1725],[-123.32128,44.1736],[-123.31768,44.17667],[-123.31677,44.18203],[-123.31568,44.1833],[-123.31306,44.18219],[-123.31318,44.17953],[-123.31203,44.17929],[-123.30895,44.18109],[-123.30222,44.18182],[-123.29931,44.18505],[-123.28893,44.18874],[-123.28317,44.18947],[-123.28095,44.1878],[-123.2834,44.1816],[-123.28574,44.18006],[-123.28596,44.17523],[-123.28893,44.17146],[-123.28728,44.17065],[-123.28939,44.16905],[-123.29133,44.165],[-123.29452,44.16258],[-123.2964,44.16238],[-123.29766,44.15444],[-123.29903,44.15403],[-123.29789,44.15362]]]}}]}