{"type":"FeatureCollection","features":[{"type":"Feature","properties":{"slug":"mcminnville","name":"McMinnville"},"geometry":{"type":"Polygon","coordinates":[[[-123.23841,45.22214],[-123.23164,45.21663],[-123.22994,45.2173],[-123.22958,45.21602],[-123.22841,45.21565],[-123.22729,45.21638],[-123.22282,45.216],[-123.22254,45.21511],[-123.22358,45.21451],[-123.21982,45.21238],[-123.22023,45.21107],[-123.22195,45.21005],[-123.22376,45.21257],[-123.2269,45.21155],[-123.23178,45.21327],[-123.23424,45.21237],[-123.23528,45.21158],[-123.23417,45.21108],[-123.23383,45.20925],[-123.2362,45.20517],[-123.23522,45.20453],[-123.2361,45.20347],[-123.23907,45.20566],[-123.24028,45.20811],[-123.24397,45.20748],[-123.24496,45.20829],[-123.24583,45.2075],[-123.24478,45.20545],[-123.24557,45.20491],[-123.24507,45.20211],[-123.24402,45.20106],[-123.24847,45.20226],[-123.25014,45.20102],[-123.24848,45.19919],[-123.2472,45.19921],[-123.24657,45.19726],[-123.24962,45.19813],[-123.25182,45.19513],[-123.25849,45.19607],[-123.25274,45.19427],[-123.25255,45.19342],[-123.25312,45.19186],[-123.25866,45.18916],[-123.25933,45.18777],[-123.2604,45.18772],[-123.26392,45.18995],[-123.26396,45.19153],[-123.26155,45.1926],[-123.26259,45.19326],[-123.26763,45.19071],[-123.27287,45.1909],[-123.27366,45.18793],[-123.26884,45.18593],[-123.26845,45.18226],[-123.26606,45.17671],[-123.26662,45.17605],[-123.2703,45.17573],[-123.27337,45.1761],[-123.27375,45.17497],[-123.27661,45.17466],[-123.27902,45.17645],[-123.28598,45.17699],[-123.28354,45.17597],[-123.27795,45.17113],[-123.2788,45.16469],[-123.2807,45.16281],[-123.28279,45.16249],[-123.28114,45.16111],[-123.27919,45.15293],[-123.28057,45.14971],[-123.28296,45.14746],[-123.28762,45.14632],[-123.28901,45.14711],[-123.28924,45.1422],[-123.29035,45.13875],[-123.2916,45.13758],[-123.30802,45.1371],[-123.30911,45.13535],[-123.311,45.13473],[-123.31227,45.13569],[-123.312,45.13728],[-123.31388,45.13593],[-123.31491,45.13621],[-123.31573,45.13848],[-123.31791,45.13932],[-123.31999,45.14277],[-123.3199,45.1442],[-123.31767,45.14504],[-123.31769,45.1457],[-123.32105,45.14627],[-123.32132,45.14986],[-123.32375,45.15238],[-123.32351,45.15719],[-123.3221,45.15938],[-123.32422,45.15754],[-123.326,45.15215],[-123.32446,45.14982],[-123.32506,45.14802],[-123.32436,45.14365],[-123.32298,45.14201],[-123.32225,45.1345],[-123.32304,45.13235],[-123.32062,45.1295],[-123.31733,45.12906],[-123.31522,45.12599],[-123.31909,45.12343],[-123.31775,45.12333],[-123.31699,45.12181],[-123.31988,45.12168],[-123.32281,45.11983],[-123.32417,45.11794],[-123.32746,45.11785],[-123.33119,45.11614],[-123.33523,45.11674],[-123.33597,45.11766],[-123.33593,45.11709],[-123.32991,45.11404],[-123.32786,45.11371],[-123.32719,45.11185],[-123.31976,45.11567],[-123.31688,45.11548],[-123.31705,45.11454],[-123.31602,45.11439],[-123.31417,45.1167],[-123.31154,45.11547],[-123.3079,45.11575],[-123.30792,45.1141],[-123.3154,45.1111],[-123.31721,45.11112],[-123.31803,45.108],[-123.32035,45.10734],[-123.32468,45.1085],[-123.3377,45.10943],[-123.33991,45.11042],[-123.34958,45.10783],[-123.35078,45.10853],[-123.35018,45.1101],[-123.35411,45.11388],[-123.35791,45.11387],[-123.36139,45.1125],[-123.36745,45.11501],[-123.36822,45.1164],[-123.36724,45.11699],[-123.36895,45.11972],[-123.3682,45.12352],[-123.37049,45.12456],[-123.3699,45.12288],[-123.37096,45.11994],[-123.36905,45.11853],[-123.3698,45.11537],[-123.36769,45.11096],[-123.36646,45.11007],[-123.36464,45.11037],[-123.36263,45.10893],[-123.35974,45.11045],[-123.35684,45.10981],[-123.35286,45.10388],[-123.3507,45.10239],[-123.34889,45.10278],[-123.34675,45.10162],[-123.34352,45.10206],[-123.34217,45.10302],[-123.33823,45.10254],[-123.33402,45.1031],[-123.32993,45.10264],[-123.32838,45.10144],[-123.32482,45.10205],[-123.32072,45.1001],[-123.31788,45.10153],[-123.31565,45.09959],[-123.31423,45.10157],[-123.31105,45.10089],[-123.30828,45.10298],[-123.30619,45.10305],[-123.30545,45.10199],[-123.30719,45.09897],[-123.3038,45.10091],[-123.30179,45.10385],[-123.29261,45.10461],[-123.29086,45.10367],[-123.29551,45.1009],[-123.29314,45.09532],[-123.29551,45.09069],[-123.30432,45.08944],[-123.31309,45.09168],[-123.32039,45.0911],[-123.3273,45.09325],[-123.33294,45.09304],[-123.34289,45.09632],[-123.34858,45.09521],[-123.35838,45.09681],[-123.37097,45.09522],[-123.38249,45.09763],[-123.38863,45.10232],[-123.39674,45.10482],[-123.3978,45.10365],[-123.40159,45.103],[-123.40223,45.10211],[-123.40773,45.09988],[-123.41263,45.10038],[-123.41764,45.09843],[-123.42266,45.09454],[-123.42578,45.09426],[-123.42752,45.0951],[-123.42739,45.10748],[-123.43205,45.10894],[-123.43226,45.11303],[-123.43334,45.11421],[-123.43234,45.1159],[-123.43492,45.12006],[-123.43688,45.12205],[-123.43963,45.12237],[-123.4444,45.12584],[-123.44645,45.12876],[-123.44673,45.13112],[-123.44828,45.13264],[-123.46008,45.13604],[-123.46446,45.14006],[-123.46553,45.14251],[-123.46354,45.15],[-123.46383,45.15135],[-123.46116,45.14922],[-123.46343,45.14768],[-123.46169,45.1471],[-123.46246,45.14607],[-123.46118,45.14547],[-123.46193,45.14428],[-123.46043,45.14292],[-123.4619,45.14216],[-123.46275,45.13964],[-123.45875,45.13772],[-123.45557,45.13843],[-123.45382,45.13743],[-123.45208,45.13758],[-123.45345,45.13892],[-123.45324,45.14136],[-123.45457,45.14311],[-123.45615,45.14335],[-123.45478,45.14532],[-123.45606,45.1463],[-123.45483,45.14767],[-123.4573,45.1483],[-123.45762,45.14955],[-123.45578,45.15156],[-123.45615,45.15302],[-123.45324,45.15336],[-123.45158,45.15568],[-123.45038,45.15307],[-123.44844,45.15357],[-123.44767,45.15271],[-123.44582,45.15307],[-123.44712,45.15048],[-123.44859,45.14953],[-123.44788,45.14857],[-123.44366,45.14989],[-123.44287,45.14916],[-123.44347,45.14795],[-123.44278,45.14765],[-123.43904,45.15065],[-123.44091,45.15139],[-123.44008,45.15234],[-123.44095,45.15325],[-123.44065,45.1543],[-123.44238,45.15603],[-123.44225,45.15759],[-123.43913,45.1546],[-123.43718,45.15421],[-123.43718,45.15265],[-123.4357,45.15252],[-123.43631,45.15195],[-123.43462,45.14943],[-123.43184,45.14679],[-123.42897,45.1454],[-123.42689,45.14496],[-123.42615,45.1454],[-123.42646,45.14687],[-123.42199,45.14757],[-123.41714,45.14672],[-123.41636,45.14574],[-123.41166,45.14426],[-123.40967,45.14428],[-123.40809,45.14297],[-123.40632,45.14276],[-123.40434,45.14419],[-123.39954,45.14415],[-123.39843,45.14684],[-123.40138,45.1477],[-123.40313,45.14944],[-123.41056,45.14974],[-123.41328,45.14883],[-123.41368,45.15014],[-123.41517,45.15104],[-123.41386,45.1527],[-123.41831,45.15432],[-123.42479,45.15369],[-123.42418,45.15457],[-123.4302,45.15658],[-123.43155,45.16057],[-123.43666,45.16198],[-123.43367,45.16211],[-123.43285,45.16347],[-123.43068,45.16199],[-123.42692,45.16649],[-123.42863,45.16265],[-123.42802,45.15992],[-123.423,45.15783],[-123.42182,45.15843],[-123.42158,45.15986],[-123.42032,45.15853],[-123.41524,45.1585],[-123.41079,45.15703],[-123.41045,45.15758],[-123.41307,45.16112],[-123.41173,45.16215],[-123.41087,45.16517],[-123.4099,45.16626],[-123.40595,45.1647],[-123.40247,45.16729],[-123.40229,45.17018],[-123.40629,45.16862],[-123.40805,45.17072],[-123.40902,45.16865],[-123.41169,45.16911],[-123.41433,45.16846],[-123.41643,45.16878],[-123.41806,45.17144],[-123.42161,45.17074],[-123.42546,45.17148],[-123.42562,45.17373],[-123.4241,45.17573],[-123.42193,45.17631],[-123.42211,45.18014],[-123.41914,45.17636],[-123.41625,45.17828],[-123.4166,45.1762],[-123.41462,45.17765],[-123.4147,45.17864],[-123.41109,45.17962],[-123.41208,45.18081],[-123.41158,45.18258],[-123.40862,45.18242],[-123.40206,45.17786],[-123.40103,45.17794],[-123.40151,45.1805],[-123.4047,45.18103],[-123.4069,45.18246],[-123.40712,45.18376],[-123.41039,45.18432],[-123.41153,45.18566],[-123.41373,45.18582],[-123.41433,45.18834],[-123.41182,45.18959],[-123.41246,45.19112],[-123.41115,45.19245],[-123.40789,45.19253],[-123.40718,45.19387],[-123.40495,45.19463],[-123.39837,45.19321],[-123.39568,45.19419],[-123.3963,45.19558],[-123.39268,45.19636],[-123.39604,45.20022],[-123.39205,45.19917],[-123.39071,45.20053],[-123.39121,45.20175],[-123.39603,45.20319],[-123.39434,45.20432],[-123.39304,45.20361],[-123.39074,45.20388],[-123.39079,45.20581],[-123.38901,45.20569],[-123.38858,45.20692],[-123.38718,45.20492],[-123.38781,45.2026],[-123.3865,45.20206],[-123.38031,45.20397],[-123.37502,45.20716],[-123.37958,45.20952],[-123.37382,45.21002],[-123.3745,45.21279],[-123.37288,45.21406],[-123.37306,45.21493],[-123.3775,45.21638],[-123.37942,45.21532],[-123.38123,45.21855],[-123.3858,45.21934],[-123.38561,45.22015],[-123.38836,45.2228],[-123.38944,45.22502],[-123.38243,45.22112],[-123.37502,45.22081],[-123.37502,45.22701],[-123.37449,45.22872],[-123.37297,45.2299],[-123.37311,45.22842],[-123.3699,45.22126],[-123.3684,45.22184],[-123.36718,45.22049],[-123.36577,45.22027],[-123.36176,45.22238],[-123.36106,45.22357],[-123.35691,45.22293],[-123.35585,45.2241],[-123.35645,45.22787],[-123.35539,45.2293],[-123.35168,45.23103],[-123.34774,45.22381],[-123.34268,45.22295],[-123.34185,45.22174],[-123.33837,45.22136],[-123.33151,45.21833],[-123.32599,45.21902],[-123.32605,45.2202],[-123.3249,45.22121],[-123.32593,45.22192],[-123.32132,45.22489],[-123.31946,45.22763],[-123.31494,45.22569],[-123.31374,45.22668],[-123.31009,45.22624],[-123.30592,45.22408],[-123.29857,45.22301],[-123.29458,45.22596],[-123.28728,45.22824],[-123.27804,45.22973],[-123.27348,45.22524],[-123.27174,45.22626],[-123.26873,45.22507],[-123.26719,45.22174],[-123.2634,45.22093],[-123.25804,45.22099],[-123.25192,45.22269],[-123.24694,45.22225],[-123.24567,45.22355],[-123.23841,45.22214]]]}}]}