{"type":"FeatureCollection","features":[{"type":"Feature","properties":{"slug":"mount-pisgah-polk-county","name":"Mount Pisgah, Polk County, Oregon"},"geometry":{"type":"Polygon","coordinates":[[[-123.3088,44.90722],[-123.30628,44.90857],[-123.30043,44.90894],[-123.29116,44.90682],[-123.29016,44.90716],[-123.28878,44.90669],[-123.28997,44.90588],[-123.28869,44.90534],[-123.28726,44.90598],[-123.28531,44.90487],[-123.28555,44.90339],[-123.28488,44.90337],[-123.28488,44.90526],[-123.28422,44.90481],[-123.2846,44.90423],[-123.28265,44.90444],[-123.2797,44.9037],[-123.27942,44.90292],[-123.27576,44.90282],[-123.27495,44.90151],[-123.27386,44.90235],[-123.27333,44.90093],[-123.27091,44.90127],[-123.27072,44.89926],[-123.27062,44.90196],[-123.26944,44.90219],[-123.26378,44.89922],[-123.26221,44.89922],[-123.25983,44.89687],[-123.25831,44.89734],[-123.25465,44.89525],[-123.25456,44.89212],[-123.25337,44.89136],[-123.25408,44.88978],[-123.25356,44.88877],[-123.25636,44.88493],[-123.25375,44.88311],[-123.25418,44.8819],[-123.25574,44.88133],[-123.25603,44.87978],[-123.25826,44.87998],[-123.25831,44.88332],[-123.26435,44.88325],[-123.26478,44.88486],[-123.26958,44.88488],[-123.26972,44.88593],[-123.27224,44.88471],[-123.27348,44.88501],[-123.274,44.88427],[-123.2778,44.88508],[-123.27856,44.88596],[-123.27913,44.88528],[-123.27638,44.88306],[-123.27928,44.88198],[-123.27642,44.88144],[-123.27733,44.87979],[-123.27262,44.88127],[-123.26986,44.88063],[-123.26758,44.88309],[-123.26692,44.88228],[-123.26696,44.87905],[-123.26487,44.87602],[-123.26587,44.87501],[-123.26425,44.87474],[-123.26392,44.8739],[-123.26402,44.87086],[-123.26578,44.86894],[-123.27172,44.86913],[-123.26753,44.86822],[-123.26525,44.86684],[-123.26482,44.86444],[-123.266,44.85367],[-123.27194,44.85411],[-123.27167,44.85723],[-123.27352,44.85919],[-123.27524,44.8574],[-123.27814,44.8608],[-123.27771,44.85642],[-123.27847,44.85578],[-123.2808,44.8571],[-123.28389,44.85673],[-123.28683,44.85814],[-123.30647,44.86057],[-123.31003,44.85838],[-123.31426,44.8542],[-123.31512,44.85221],[-123.32202,44.85205],[-123.32553,44.85592],[-123.32847,44.86256],[-123.32624,44.86298],[-123.32676,44.86514],[-123.32619,44.86645],[-123.32263,44.86551],[-123.32192,44.86595],[-123.32339,44.86807],[-123.32201,44.86824],[-123.32234,44.86992],[-123.32073,44.87144],[-123.32116,44.87265],[-123.31997,44.87338],[-123.32016,44.87466],[-123.31859,44.87523],[-123.31797,44.87648],[-123.3184,44.87974],[-123.31688,44.88065],[-123.30792,44.8808],[-123.30784,44.8819],[-123.30514,44.88449],[-123.30499,44.88559],[-123.3067,44.88569],[-123.31155,44.88829],[-123.31421,44.8992],[-123.31388,44.90118],[-123.30946,44.90452],[-123.3088,44.90722]]]}}]}