{"type":"FeatureCollection","features":[{"type":"Feature","properties":{"slug":"red-hill-douglas-county-oregon","name":"Red Hill Douglas County, Oregon"},"geometry":{"type":"Polygon","coordinates":[[[-123.26093,43.51914],[-123.2767,43.51918],[-123.27933,43.51743],[-123.27806,43.51652],[-123.27643,43.51223],[-123.27415,43.51168],[-123.2722,43.50889],[-123.2725,43.50785],[-123.27785,43.50535],[-123.27507,43.50415],[-123.27833,43.50346],[-123.27855,43.50208],[-123.27742,43.5011],[-123.27456,43.50055],[-123.27574,43.49929],[-123.27632,43.4978],[-123.27576,43.4965],[-123.27727,43.49417],[-123.27848,43.49457],[-123.27974,43.49711],[-123.28134,43.49773],[-123.28044,43.4933],[-123.28431,43.4927],[-123.28629,43.49656],[-123.28632,43.49864],[-123.28726,43.49862],[-123.28942,43.49771],[-123.28996,43.49639],[-123.28822,43.49416],[-123.28771,43.49063],[-123.29346,43.48935],[-123.29447,43.49013],[-123.2951,43.4887],[-123.29764,43.4884],[-123.29728,43.49048],[-123.29466,43.49503],[-123.29501,43.49605],[-123.30126,43.49352],[-123.3011,43.48851],[-123.30542,43.48685],[-123.30379,43.49215],[-123.30687,43.49258],[-123.30861,43.49201],[-123.31021,43.49325],[-123.31219,43.49318],[-123.31126,43.49481],[-123.31168,43.49528],[-123.31477,43.49533],[-123.31564,43.49637],[-123.31458,43.4987],[-123.31332,43.4994],[-123.30657,43.49981],[-123.30541,43.50068],[-123.30892,43.5027],[-123.30737,43.50385],[-123.30741,43.50554],[-123.30578,43.5057],[-123.30445,43.50792],[-123.30223,43.50671],[-123.29869,43.50646],[-123.30194,43.50994],[-123.30106,43.51115],[-123.29973,43.51144],[-123.29898,43.51372],[-123.29567,43.51432],[-123.29665,43.51505],[-123.29611,43.51737],[-123.29705,43.51769],[-123.29848,43.51671],[-123.30009,43.51762],[-123.30229,43.51485],[-123.30368,43.51566],[-123.30499,43.5152],[-123.30594,43.51627],[-123.30866,43.51633],[-123.30971,43.51835],[-123.30594,43.52008],[-123.30919,43.52166],[-123.30742,43.52365],[-123.30762,43.52444],[-123.30657,43.52539],[-123.30384,43.5257],[-123.30237,43.5247],[-123.29714,43.5283],[-123.29536,43.5278],[-123.29394,43.52589],[-123.29112,43.5254],[-123.28965,43.52713],[-123.2852,43.5255],[-123.28372,43.52623],[-123.2831,43.52967],[-123.28125,43.53262],[-123.28274,43.53289],[-123.28327,43.53563],[-123.28122,43.54557],[-123.27934,43.54797],[-123.27706,43.54801],[-123.27794,43.5498],[-123.2776,43.55119],[-123.2748,43.55437],[-123.27196,43.55396],[-123.27172,43.55465],[-123.2707,43.55456],[-123.27075,43.55738],[-123.26858,43.55765],[-123.26855,43.55936],[-123.26697,43.5594],[-123.26668,43.56097],[-123.2648,43.56264],[-123.2627,43.55934],[-123.26185,43.56159],[-123.26048,43.5626],[-123.25708,43.56151],[-123.25531,43.56251],[-123.25496,43.56901],[-123.25312,43.57047],[-123.25273,43.57175],[-123.25365,43.57272],[-123.25307,43.57635],[-123.25136,43.57618],[-123.25001,43.57696],[-123.24925,43.58069],[-123.24825,43.58085],[-123.24704,43.5829],[-123.24566,43.58287],[-123.2442,43.5861],[-123.24233,43.5866],[-123.242,43.588],[-123.239,43.58984],[-123.23437,43.597],[-123.2328,43.59764],[-123.2306,43.60024],[-123.22656,43.60166],[-123.22492,43.60018],[-123.22477,43.59867],[-123.22568,43.5979],[-123.22991,43.59791],[-123.22981,43.59695],[-123.24033,43.57658],[-123.24278,43.56535],[-123.25218,43.54298],[-123.25159,43.534],[-123.26093,43.51914]]]}}]}