{"type":"FeatureCollection","features":[{"type":"Feature","properties":{"slug":"ribbon-ridge","name":"Ribbon Ridge"},"geometry":{"type":"Polygon","coordinates":[[[-123.09124,45.38173],[-123.09176,45.38012],[-123.08563,45.37816],[-123.07339,45.37924],[-123.06799,45.37822],[-123.06642,45.37721],[-123.06417,45.37262],[-123.06251,45.37119],[-123.06234,45.36981],[-123.0643,45.36545],[-123.06378,45.36166],[-123.05708,45.34581],[-123.05702,45.34163],[-123.05843,45.34025],[-123.05841,45.3306],[-123.07891,45.33268],[-123.08958,45.34025],[-123.09661,45.35211],[-123.09896,45.35407],[-123.1018,45.36622],[-123.0997,45.37575],[-123.09624,45.37903],[-123.09493,45.38161],[-123.09124,45.38173]]]}}]}