{"type":"FeatureCollection","features":[{"type":"Feature","properties":{"slug":"rogue-valley","name":"Rogue Valley"},"geometry":{"type":"Polygon","coordinates":[[[-123.34723,42.65231],[-122.75761,42.65072],[-122.75762,42.56368],[-122.63955,42.56344],[-122.6398,42.47643],[-122.52223,42.47638],[-122.52226,42.38914],[-122.75757,42.3891],[-122.7576,42.30174],[-122.6398,42.30197],[-122.63778,42.21469],[-122.63508,42.21921],[-122.6122,42.22297],[-122.60662,42.2256],[-122.60802,42.2289],[-122.60403,42.22716],[-122.59675,42.23055],[-122.60148,42.22583],[-122.60011,42.22332],[-122.58957,42.22471],[-122.61104,42.21484],[-122.52268,42.21482],[-122.52268,42.12795],[-122.52586,42.12818],[-122.52942,42.12275],[-122.53841,42.12698],[-122.53315,42.1342],[-122.54749,42.12981],[-122.55334,42.13365],[-122.56297,42.13152],[-122.58001,42.13918],[-122.59866,42.1398],[-122.60331,42.13244],[-122.61253,42.13087],[-122.6023,42.1175],[-122.6219,42.1083],[-122.62729,42.09367],[-122.64004,42.10926],[-122.64006,42.12374],[-122.65482,42.12382],[-122.65499,42.12721],[-122.65926,42.1272],[-122.65904,42.1417],[-122.67833,42.14158],[-122.67878,42.15632],[-122.69841,42.1564],[-122.69838,42.17089],[-122.71295,42.1709],[-122.71295,42.15641],[-122.72023,42.15639],[-122.7178,42.15732],[-122.71782,42.1782],[-122.73218,42.17802],[-122.73159,42.17096],[-122.74662,42.17093],[-122.7481,42.15608],[-122.79654,42.15667],[-122.7966,42.14197],[-122.8756,42.14188],[-122.87554,42.12742],[-122.89487,42.12743],[-122.89497,42.1129],[-122.91429,42.11283],[-122.9143,42.09831],[-123.01322,42.09761],[-123.01374,42.12666],[-123.07266,42.12711],[-123.07263,42.14166],[-123.19082,42.14297],[-123.19068,42.128],[-123.26009,42.12803],[-123.25998,42.11834],[-123.26973,42.11832],[-123.26984,42.12786],[-123.28935,42.12781],[-123.2893,42.12187],[-123.30875,42.12184],[-123.30882,42.12777],[-123.31718,42.12773],[-123.31719,42.13082],[-123.322,42.1308],[-123.32202,42.13443],[-123.32686,42.1344],[-123.32686,42.13808],[-123.34703,42.13796],[-123.34703,42.14204],[-123.36632,42.14198],[-123.37109,42.14919],[-123.37586,42.14919],[-123.37597,42.1564],[-123.38074,42.15642],[-123.38082,42.16338],[-123.38561,42.16335],[-123.38566,42.1706],[-123.39528,42.17052],[-123.3953,42.18494],[-123.40484,42.18486],[-123.40485,42.18845],[-123.42414,42.18844],[-123.42415,42.19565],[-123.4653,42.19919],[-123.46533,42.08237],[-123.58312,42.08177],[-123.58311,42.03777],[-123.62244,42.03782],[-123.62209,42.00864],[-123.64153,42.00862],[-123.64189,42.03785],[-123.68147,42.03797],[-123.68091,42.05251],[-123.6999,42.0526],[-123.70029,41.99984],[-123.77696,41.99984],[-123.77709,42.02357],[-123.7578,42.02359],[-123.75783,42.03813],[-123.73941,42.03814],[-123.73934,42.06734],[-123.71962,42.06717],[-123.71951,42.08176],[-123.70473,42.0818],[-123.70481,42.0745],[-123.69989,42.07451],[-123.69985,42.09642],[-123.7195,42.09636],[-123.71951,42.1037],[-123.71947,42.11098],[-123.69982,42.11099],[-123.69974,42.12558],[-123.71921,42.12557],[-123.71916,42.14003],[-123.69971,42.14009],[-123.69959,42.21348],[-123.66117,42.21333],[-123.661,42.30111],[-123.64117,42.30112],[-123.64105,42.31562],[-123.62194,42.3157],[-123.62193,42.33026],[-123.58288,42.33035],[-123.58272,42.38899],[-123.52418,42.38923],[-123.52346,42.43271],[-123.54369,42.4327],[-123.54376,42.44713],[-123.52353,42.44722],[-123.52353,42.47693],[-123.60217,42.47701],[-123.60188,42.49151],[-123.58237,42.49154],[-123.58302,42.55321],[-123.60261,42.55309],[-123.60249,42.56464],[-123.59808,42.56464],[-123.59849,42.56026],[-123.5938,42.55867],[-123.57528,42.56387],[-123.56149,42.55041],[-123.54104,42.5546],[-123.5281,42.55081],[-123.50026,42.53915],[-123.50216,42.53399],[-123.49828,42.52904],[-123.49297,42.53051],[-123.48434,42.5264],[-123.48441,42.52281],[-123.46514,42.52033],[-123.46142,42.5161],[-123.44091,42.51876],[-123.4342,42.53386],[-123.43922,42.54609],[-123.43862,42.55572],[-123.42938,42.5665],[-123.40338,42.5829],[-123.41331,42.59165],[-123.4184,42.58652],[-123.43557,42.58196],[-123.43606,42.58916],[-123.43208,42.5942],[-123.43489,42.60879],[-123.42562,42.61889],[-123.42837,42.63051],[-123.46956,42.6494],[-123.47479,42.65789],[-123.46538,42.67225],[-123.44234,42.68632],[-123.42463,42.68809],[-123.41628,42.69559],[-123.38537,42.69763],[-123.36701,42.70799],[-123.36594,42.71227],[-123.37281,42.71903],[-123.36934,42.72922],[-123.37114,42.73949],[-123.36666,42.73948],[-123.36668,42.7322],[-123.34706,42.73223],[-123.34723,42.65231]]]}}]}