{"type":"FeatureCollection","features":[{"type":"Feature","properties":{"slug":"snake-river-valley","name":"Snake River Valley"},"geometry":{"type":"Polygon","coordinates":[[[-117.71625,42.98895],[-117.73105,42.99439],[-117.73561,42.99937],[-117.73782,43.00594],[-117.72729,43.01427],[-117.7361,43.0128],[-117.73508,43.0162],[-117.73788,43.01785],[-117.7305,43.01979],[-117.71636,43.01502],[-117.71093,43.02334],[-117.70326,43.02575],[-117.70203,43.0314],[-117.70794,43.04413],[-117.71709,43.05015],[-117.7117,43.05527],[-117.71318,43.06306],[-117.70319,43.07181],[-117.72183,43.07145],[-117.7201,43.07512],[-117.71375,43.07673],[-117.71856,43.07953],[-117.72051,43.08683],[-117.72386,43.08306],[-117.72547,43.08766],[-117.7391,43.08569],[-117.73846,43.08822],[-117.74142,43.08888],[-117.73577,43.09161],[-117.72716,43.08963],[-117.7286,43.09139],[-117.72509,43.09122],[-117.72517,43.09392],[-117.72058,43.09022],[-117.724,43.09999],[-117.73862,43.1043],[-117.73764,43.11005],[-117.74403,43.1147],[-117.76789,43.12105],[-117.75111,43.12101],[-117.75248,43.12498],[-117.73074,43.1167],[-117.71907,43.12238],[-117.71276,43.1175],[-117.70811,43.11978],[-117.70687,43.12942],[-117.71372,43.13509],[-117.7052,43.13586],[-117.70344,43.13885],[-117.70648,43.14333],[-117.70001,43.13859],[-117.66405,43.14087],[-117.66742,43.15385],[-117.66608,43.15922],[-117.66064,43.16326],[-117.66365,43.17477],[-117.66236,43.18475],[-117.66662,43.1859],[-117.6528,43.1922],[-117.65872,43.19519],[-117.66078,43.20209],[-117.65169,43.19705],[-117.64638,43.20382],[-117.63144,43.2052],[-117.62878,43.20917],[-117.6256,43.20658],[-117.62048,43.20799],[-117.61806,43.2119],[-117.62001,43.22275],[-117.61385,43.22801],[-117.60146,43.22477],[-117.59614,43.21942],[-117.59366,43.22546],[-117.59089,43.22113],[-117.58836,43.23423],[-117.58558,43.22161],[-117.57772,43.22656],[-117.57574,43.22366],[-117.56716,43.22251],[-117.56545,43.21762],[-117.56027,43.21579],[-117.55914,43.22056],[-117.55417,43.22064],[-117.55227,43.22417],[-117.54749,43.22087],[-117.54539,43.21215],[-117.53094,43.21036],[-117.53273,43.20304],[-117.52052,43.20395],[-117.52122,43.21286],[-117.53004,43.21483],[-117.53238,43.21742],[-117.52142,43.21763],[-117.51934,43.21977],[-117.52285,43.22767],[-117.51512,43.229],[-117.52177,43.23416],[-117.51653,43.23629],[-117.52089,43.24375],[-117.51661,43.24403],[-117.51621,43.24874],[-117.51322,43.2495],[-117.51573,43.25214],[-117.51363,43.25626],[-117.5182,43.26042],[-117.51731,43.26545],[-117.50948,43.27369],[-117.51071,43.27714],[-117.50464,43.27906],[-117.50639,43.28251],[-117.50023,43.28265],[-117.50155,43.28727],[-117.4955,43.28598],[-117.49407,43.28203],[-117.49071,43.28282],[-117.49494,43.29303],[-117.50598,43.29622],[-117.50886,43.29344],[-117.51294,43.29787],[-117.50769,43.30107],[-117.5185,43.30119],[-117.51598,43.30274],[-117.51797,43.30486],[-117.50852,43.30536],[-117.51378,43.30737],[-117.51373,43.31129],[-117.50756,43.30854],[-117.50007,43.3115],[-117.49805,43.31395],[-117.50099,43.31643],[-117.49735,43.31784],[-117.50012,43.31911],[-117.49283,43.32111],[-117.49757,43.32436],[-117.50237,43.33471],[-117.4994,43.3366],[-117.50279,43.3372],[-117.49406,43.3457],[-117.50443,43.35132],[-117.49902,43.35382],[-117.49843,43.35782],[-117.49921,43.35852],[-117.50095,43.35744],[-117.50228,43.35778],[-117.49967,43.36115],[-117.49994,43.36602],[-117.50258,43.36662],[-117.4997,43.3687],[-117.50818,43.37292],[-117.50157,43.37361],[-117.50351,43.37816],[-117.4991,43.37576],[-117.49985,43.38133],[-117.49461,43.38031],[-117.49472,43.38316],[-117.48832,43.37995],[-117.49003,43.38696],[-117.47705,43.38804],[-117.46579,43.40198],[-117.46443,43.39814],[-117.45638,43.39514],[-117.45678,43.39836],[-117.4279,43.39707],[-117.42564,43.3991],[-117.4335,43.40353],[-117.42065,43.42134],[-117.42336,43.42648],[-117.39631,43.42312],[-117.39574,43.42748],[-117.39266,43.4249],[-117.38987,43.42796],[-117.38133,43.4175],[-117.37623,43.42442],[-117.38321,43.43273],[-117.38525,43.42869],[-117.3908,43.43212],[-117.38855,43.43264],[-117.39059,43.43538],[-117.38235,43.43792],[-117.38506,43.44066],[-117.39088,43.43731],[-117.3875,43.44918],[-117.39429,43.44626],[-117.39467,43.44101],[-117.39859,43.44918],[-117.40548,43.44697],[-117.40086,43.45683],[-117.39575,43.45245],[-117.3884,43.45351],[-117.39112,43.45561],[-117.38834,43.46281],[-117.40025,43.45948],[-117.40474,43.46457],[-117.40266,43.46843],[-117.40039,43.47118],[-117.39694,43.46897],[-117.39079,43.47527],[-117.41028,43.48689],[-117.40296,43.48463],[-117.39419,43.48874],[-117.39295,43.48197],[-117.3847,43.48338],[-117.38003,43.48052],[-117.37776,43.4754],[-117.38024,43.47169],[-117.3771,43.47149],[-117.37536,43.46588],[-117.37301,43.46609],[-117.37505,43.47496],[-117.37115,43.47629],[-117.37307,43.47823],[-117.3659,43.47664],[-117.35932,43.4809],[-117.37096,43.48144],[-117.37295,43.48476],[-117.36583,43.49002],[-117.37054,43.49119],[-117.37218,43.48914],[-117.37392,43.4885],[-117.37456,43.49169],[-117.37227,43.49418],[-117.37413,43.49814],[-117.36437,43.50867],[-117.3754,43.50676],[-117.38007,43.50125],[-117.37944,43.50478],[-117.38208,43.50533],[-117.37874,43.50883],[-117.38383,43.50978],[-117.38102,43.5134],[-117.38627,43.51563],[-117.38442,43.52871],[-117.40184,43.52865],[-117.39484,43.54232],[-117.39742,43.54758],[-117.41584,43.5512],[-117.42372,43.55058],[-117.42801,43.54583],[-117.43076,43.55314],[-117.44074,43.55655],[-117.44256,43.5482],[-117.44675,43.5447],[-117.43926,43.54332],[-117.44584,43.53958],[-117.44339,43.53468],[-117.4381,43.53316],[-117.44517,43.53362],[-117.43868,43.52575],[-117.4464,43.52931],[-117.44736,43.52699],[-117.44931,43.53515],[-117.45439,43.52626],[-117.45859,43.53313],[-117.46097,43.52154],[-117.46953,43.51621],[-117.46446,43.51629],[-117.46253,43.50928],[-117.46809,43.51045],[-117.46676,43.50576],[-117.4717,43.50481],[-117.46956,43.50343],[-117.47251,43.50458],[-117.47162,43.50763],[-117.47541,43.50836],[-117.47152,43.51],[-117.47357,43.51441],[-117.47934,43.51638],[-117.48212,43.51417],[-117.482,43.51876],[-117.48598,43.51811],[-117.48651,43.52074],[-117.4784,43.52285],[-117.48139,43.52436],[-117.48001,43.52876],[-117.47526,43.52987],[-117.47972,43.53411],[-117.47029,43.53546],[-117.4778,43.53773],[-117.47437,43.5426],[-117.47897,43.54252],[-117.47564,43.54477],[-117.48052,43.54474],[-117.4827,43.54826],[-117.47453,43.54672],[-117.46667,43.554],[-117.47106,43.55641],[-117.46744,43.56097],[-117.45965,43.56404],[-117.4608,43.567],[-117.4431,43.56889],[-117.45423,43.56885],[-117.45759,43.57474],[-117.46822,43.56241],[-117.48015,43.56134],[-117.48089,43.55894],[-117.47738,43.55892],[-117.4811,43.55509],[-117.49004,43.56056],[-117.50249,43.56157],[-117.51079,43.55707],[-117.51434,43.55827],[-117.51953,43.5482],[-117.51764,43.55738],[-117.5038,43.56698],[-117.50425,43.56966],[-117.49231,43.56789],[-117.48985,43.57284],[-117.48212,43.57636],[-117.48332,43.5791],[-117.47653,43.57769],[-117.46763,43.5874],[-117.46124,43.58262],[-117.44702,43.58],[-117.43806,43.58242],[-117.43622,43.57858],[-117.4288,43.58039],[-117.41803,43.57784],[-117.41653,43.59005],[-117.42292,43.59394],[-117.4155,43.59342],[-117.41693,43.60052],[-117.42921,43.60862],[-117.42842,43.61312],[-117.43312,43.62107],[-117.42442,43.62333],[-117.42337,43.63192],[-117.42875,43.63524],[-117.42918,43.63938],[-117.41392,43.65612],[-117.40257,43.67938],[-117.40736,43.68216],[-117.40888,43.68882],[-117.41382,43.69054],[-117.41492,43.69634],[-117.42364,43.6961],[-117.42106,43.69869],[-117.42723,43.69921],[-117.42708,43.70479],[-117.4332,43.70391],[-117.43468,43.71157],[-117.43956,43.71412],[-117.42905,43.71731],[-117.42781,43.72145],[-117.42216,43.72152],[-117.42131,43.73037],[-117.42646,43.73695],[-117.43224,43.73049],[-117.45083,43.73189],[-117.43664,43.74085],[-117.43678,43.74521],[-117.44181,43.74368],[-117.4393,43.75026],[-117.44931,43.75544],[-117.45826,43.74877],[-117.46274,43.75676],[-117.46678,43.75682],[-117.46132,43.76226],[-117.47139,43.75988],[-117.4791,43.76325],[-117.47876,43.77153],[-117.48636,43.77504],[-117.48538,43.78356],[-117.4811,43.78875],[-117.47484,43.785],[-117.47172,43.79713],[-117.4747,43.80275],[-117.4818,43.80036],[-117.49108,43.81008],[-117.49358,43.80485],[-117.49962,43.80886],[-117.50279,43.80554],[-117.52104,43.81352],[-117.5234,43.80755],[-117.52651,43.80882],[-117.53056,43.80398],[-117.52483,43.8026],[-117.53239,43.80043],[-117.52951,43.79703],[-117.53206,43.79676],[-117.53005,43.79551],[-117.53294,43.7929],[-117.53133,43.78857],[-117.53193,43.78744],[-117.53616,43.80125],[-117.54146,43.80065],[-117.5443,43.79629],[-117.5537,43.80285],[-117.55566,43.78644],[-117.56243,43.78185],[-117.57503,43.78093],[-117.58358,43.77202],[-117.57988,43.76521],[-117.57302,43.76697],[-117.57796,43.76287],[-117.57773,43.75848],[-117.57298,43.74938],[-117.56877,43.74965],[-117.57047,43.74666],[-117.57686,43.75178],[-117.58631,43.75307],[-117.60002,43.74427],[-117.60196,43.75079],[-117.60531,43.74971],[-117.61049,43.72672],[-117.61372,43.72136],[-117.61182,43.72736],[-117.61655,43.73817],[-117.61379,43.7414],[-117.61532,43.748],[-117.62165,43.73896],[-117.64153,43.73734],[-117.64728,43.72985],[-117.65199,43.73344],[-117.65036,43.74017],[-117.661,43.74131],[-117.6746,43.73173],[-117.67623,43.72286],[-117.69054,43.71659],[-117.68356,43.71422],[-117.69054,43.70787],[-117.68942,43.69239],[-117.70382,43.69019],[-117.70382,43.69427],[-117.70629,43.69171],[-117.71166,43.69329],[-117.70964,43.6892],[-117.71397,43.68338],[-117.70981,43.67872],[-117.72494,43.68648],[-117.72638,43.68356],[-117.72216,43.67803],[-117.72384,43.67146],[-117.72743,43.6786],[-117.73561,43.6744],[-117.73532,43.6772],[-117.74036,43.67731],[-117.74803,43.66814],[-117.76078,43.66478],[-117.76785,43.65888],[-117.76538,43.66499],[-117.75865,43.66548],[-117.75465,43.67308],[-117.75,43.6753],[-117.75058,43.67956],[-117.74773,43.67927],[-117.75174,43.68318],[-117.74266,43.67764],[-117.73659,43.68615],[-117.73851,43.68861],[-117.73007,43.69376],[-117.73611,43.69581],[-117.73156,43.70576],[-117.73525,43.70562],[-117.73562,43.71227],[-117.74881,43.71133],[-117.74204,43.72106],[-117.74327,43.72719],[-117.74822,43.72654],[-117.75388,43.7198],[-117.7547,43.72515],[-117.76572,43.72586],[-117.75631,43.72719],[-117.7501,43.73347],[-117.74732,43.73205],[-117.74845,43.7289],[-117.74427,43.73014],[-117.74345,43.74356],[-117.7342,43.7495],[-117.73638,43.75643],[-117.74272,43.75318],[-117.74482,43.74604],[-117.75007,43.75144],[-117.76045,43.74449],[-117.75799,43.75253],[-117.76759,43.74518],[-117.77112,43.74701],[-117.7589,43.75612],[-117.75972,43.7622],[-117.7673,43.76232],[-117.7676,43.75953],[-117.77449,43.7615],[-117.78838,43.75591],[-117.79254,43.75614],[-117.79918,43.76372],[-117.80688,43.75696],[-117.8141,43.75973],[-117.82252,43.75575],[-117.8159,43.76729],[-117.82606,43.77095],[-117.82915,43.77529],[-117.8393,43.77622],[-117.84431,43.77332],[-117.84597,43.77882],[-117.85927,43.77329],[-117.86147,43.77944],[-117.87096,43.7801],[-117.87038,43.78773],[-117.87336,43.78046],[-117.87827,43.78046],[-117.87587,43.77545],[-117.87916,43.7755],[-117.87899,43.76908],[-117.88318,43.77379],[-117.88905,43.77314],[-117.89197,43.77906],[-117.90322,43.78691],[-117.90624,43.78047],[-117.90319,43.77144],[-117.90552,43.7689],[-117.90907,43.76955],[-117.9081,43.77434],[-117.91078,43.77368],[-117.91289,43.77876],[-117.919,43.77642],[-117.92204,43.78205],[-117.92472,43.77778],[-117.9379,43.7851],[-117.94148,43.78352],[-117.93852,43.76993],[-117.94204,43.76953],[-117.94528,43.77351],[-117.94541,43.76959],[-117.94899,43.77164],[-117.94627,43.77937],[-117.96396,43.78214],[-117.96809,43.77304],[-117.97111,43.78057],[-117.97487,43.7799],[-117.97472,43.77601],[-117.98051,43.77797],[-117.99114,43.79226],[-117.99413,43.79098],[-117.99121,43.77631],[-117.98484,43.77061],[-117.9868,43.76808],[-117.98442,43.76451],[-117.98502,43.76226],[-117.98926,43.76584],[-117.99356,43.7644],[-117.99407,43.75353],[-117.98883,43.7465],[-117.98039,43.745],[-117.97342,43.73891],[-117.97793,43.74257],[-117.99308,43.74528],[-117.99751,43.74129],[-118.00048,43.7525],[-117.99798,43.75305],[-117.99975,43.75765],[-117.99752,43.76109],[-118.00235,43.76563],[-117.99553,43.76815],[-118.00008,43.77199],[-118.00011,43.80098],[-117.98715,43.79825],[-117.98234,43.80397],[-117.99705,43.81763],[-118.00742,43.82039],[-118.01453,43.82478],[-117.9895,43.81773],[-117.98842,43.81506],[-117.97975,43.81938],[-117.98441,43.81249],[-117.97872,43.81198],[-117.97365,43.80281],[-117.9767,43.79845],[-117.96799,43.7977],[-117.96019,43.80103],[-117.96486,43.80627],[-117.96262,43.80924],[-117.95461,43.80567],[-117.95713,43.80946],[-117.95399,43.81014],[-117.95683,43.81242],[-117.95568,43.8247],[-117.94407,43.81145],[-117.93402,43.81415],[-117.93245,43.82082],[-117.92126,43.8151],[-117.9111,43.81614],[-117.90796,43.81962],[-117.90755,43.81579],[-117.90216,43.81474],[-117.90134,43.81782],[-117.89619,43.8124],[-117.89032,43.81737],[-117.89022,43.81292],[-117.88597,43.81168],[-117.87319,43.81992],[-117.87739,43.81202],[-117.87495,43.80804],[-117.87146,43.80938],[-117.86456,43.80348],[-117.85958,43.81036],[-117.85269,43.79939],[-117.85114,43.8021],[-117.84743,43.79952],[-117.84526,43.80339],[-117.84089,43.7998],[-117.84513,43.79465],[-117.8409,43.79157],[-117.83403,43.79474],[-117.82745,43.793],[-117.82576,43.79599],[-117.81915,43.79229],[-117.81309,43.795],[-117.81312,43.78888],[-117.80468,43.7799],[-117.79807,43.78355],[-117.78239,43.78221],[-117.78014,43.78594],[-117.78678,43.78836],[-117.78324,43.79642],[-117.78693,43.8014],[-117.77211,43.79191],[-117.76925,43.8027],[-117.764,43.80432],[-117.76798,43.80836],[-117.76537,43.81182],[-117.77246,43.81465],[-117.76635,43.81992],[-117.76884,43.82626],[-117.77226,43.82619],[-117.77018,43.82759],[-117.77514,43.83674],[-117.77469,43.8461],[-117.76902,43.83075],[-117.75662,43.81569],[-117.7512,43.81515],[-117.75248,43.80922],[-117.74857,43.80169],[-117.75135,43.795],[-117.74712,43.78709],[-117.7406,43.78708],[-117.73602,43.79552],[-117.73766,43.79814],[-117.73433,43.79713],[-117.73229,43.80032],[-117.73181,43.79152],[-117.72398,43.79078],[-117.72082,43.79863],[-117.72556,43.79958],[-117.72486,43.80264],[-117.71954,43.80258],[-117.72184,43.80721],[-117.71828,43.80652],[-117.71897,43.81373],[-117.71594,43.81839],[-117.72105,43.8164],[-117.72528,43.81695],[-117.71493,43.82203],[-117.72705,43.82154],[-117.72973,43.82413],[-117.72476,43.8248],[-117.72497,43.82619],[-117.72668,43.82722],[-117.72693,43.82793],[-117.71714,43.82516],[-117.71493,43.82952],[-117.71838,43.83237],[-117.71183,43.83214],[-117.71077,43.84106],[-117.71175,43.84629],[-117.72487,43.84405],[-117.72494,43.84938],[-117.71787,43.84537],[-117.70985,43.85542],[-117.72358,43.86214],[-117.7212,43.86533],[-117.71403,43.86164],[-117.71466,43.86614],[-117.71095,43.86946],[-117.71506,43.87486],[-117.72164,43.87231],[-117.71997,43.88063],[-117.72381,43.88831],[-117.71666,43.89009],[-117.72473,43.89688],[-117.72122,43.8979],[-117.72355,43.90452],[-117.72634,43.90676],[-117.73126,43.90508],[-117.73303,43.90933],[-117.73986,43.91102],[-117.73586,43.91954],[-117.73972,43.91976],[-117.7379,43.92316],[-117.7415,43.9255],[-117.73807,43.92797],[-117.73043,43.92575],[-117.73428,43.93261],[-117.73042,43.93609],[-117.73467,43.93767],[-117.7383,43.93065],[-117.7419,43.93418],[-117.7482,43.93201],[-117.74755,43.93617],[-117.75445,43.94222],[-117.76553,43.94268],[-117.76637,43.94609],[-117.77064,43.94389],[-117.7751,43.95149],[-117.77004,43.95386],[-117.77197,43.95732],[-117.78496,43.95447],[-117.7901,43.94994],[-117.78896,43.94789],[-117.80243,43.94178],[-117.80173,43.93885],[-117.80586,43.94018],[-117.81254,43.93518],[-117.81333,43.94151],[-117.80633,43.94755],[-117.80709,43.95104],[-117.80044,43.95319],[-117.80132,43.95822],[-117.79642,43.96299],[-117.79662,43.96734],[-117.7905,43.96974],[-117.79706,43.9709],[-117.79313,43.98082],[-117.79692,43.98396],[-117.79578,43.99126],[-117.8018,43.987],[-117.80322,43.98183],[-117.80665,43.98434],[-117.81011,43.98122],[-117.81391,43.98253],[-117.80888,43.98842],[-117.81499,43.99002],[-117.81366,43.99478],[-117.83076,43.99156],[-117.82233,43.99657],[-117.82156,44.00054],[-117.82557,44.00364],[-117.82519,44.00762],[-117.82889,44.00691],[-117.8296,44.01201],[-117.83922,44.0058],[-117.83912,44.00074],[-117.84408,43.99829],[-117.84765,44.00034],[-117.85242,43.9982],[-117.84888,44.00503],[-117.86331,44.00515],[-117.84792,44.01496],[-117.85712,44.01592],[-117.85624,44.01913],[-117.86707,44.0197],[-117.85715,44.02165],[-117.85553,44.02563],[-117.85106,44.02218],[-117.83406,44.02005],[-117.82009,44.02289],[-117.82415,44.02849],[-117.83002,44.02931],[-117.82591,44.03187],[-117.82937,44.0394],[-117.83524,44.03509],[-117.84202,44.0423],[-117.84402,44.03788],[-117.84637,44.04163],[-117.85895,44.0406],[-117.87215,44.04367],[-117.84215,44.04404],[-117.842,44.05159],[-117.84696,44.05275],[-117.84933,44.05449],[-117.84261,44.05426],[-117.83919,44.04825],[-117.83122,44.04465],[-117.82817,44.05241],[-117.82625,44.04427],[-117.82262,44.04776],[-117.82,44.04342],[-117.81727,44.04708],[-117.81263,44.0406],[-117.80747,44.04716],[-117.79827,44.0466],[-117.792,44.03592],[-117.78695,44.03552],[-117.78254,44.03963],[-117.78286,44.03573],[-117.77919,44.0355],[-117.77446,44.0286],[-117.76824,44.02967],[-117.76939,44.04694],[-117.76536,44.05134],[-117.76188,44.05048],[-117.76591,44.05424],[-117.76203,44.05364],[-117.76263,44.05621],[-117.76636,44.05918],[-117.76646,44.06434],[-117.76915,44.06226],[-117.77842,44.06851],[-117.78443,44.08493],[-117.79206,44.09098],[-117.79587,44.09089],[-117.80726,44.09465],[-117.80817,44.09573],[-117.79592,44.09415],[-117.78266,44.08622],[-117.7756,44.07165],[-117.77002,44.07805],[-117.77399,44.06898],[-117.76682,44.06966],[-117.76167,44.07418],[-117.75833,44.07152],[-117.75986,44.06452],[-117.7568,44.06565],[-117.75455,44.06247],[-117.7576,44.06137],[-117.75106,44.05363],[-117.74679,44.05518],[-117.75032,44.05128],[-117.74863,44.04632],[-117.74502,44.04783],[-117.74332,44.05564],[-117.7385,44.05997],[-117.73663,44.06922],[-117.73759,44.05514],[-117.7305,44.04244],[-117.71952,44.03921],[-117.72063,44.0477],[-117.71177,44.04152],[-117.70978,44.0528],[-117.70554,44.05576],[-117.70629,44.05007],[-117.70981,44.04962],[-117.7095,44.04432],[-117.70305,44.04146],[-117.7019,44.03663],[-117.68983,44.03369],[-117.68842,44.02983],[-117.68131,44.03062],[-117.67824,44.03709],[-117.67618,44.03615],[-117.67586,44.02903],[-117.67241,44.02871],[-117.66907,44.0177],[-117.66752,44.02992],[-117.66326,44.02684],[-117.66063,44.02894],[-117.66299,44.0311],[-117.65942,44.03164],[-117.66057,44.04388],[-117.6512,44.03256],[-117.65153,44.02796],[-117.64446,44.02735],[-117.64149,44.02155],[-117.63702,44.02148],[-117.63244,44.0284],[-117.63159,44.02163],[-117.63471,44.02034],[-117.62991,44.01428],[-117.63717,44.0111],[-117.64329,44.01385],[-117.64418,44.00543],[-117.6405,44.00594],[-117.63934,44.00162],[-117.63304,44.00635],[-117.62273,43.99651],[-117.61952,44.00252],[-117.61576,43.99818],[-117.61022,43.99867],[-117.61172,44.00555],[-117.60939,44.00845],[-117.60097,43.99938],[-117.60155,44.00599],[-117.59498,44.00907],[-117.59728,44.01174],[-117.59135,44.01315],[-117.58734,44.02075],[-117.57853,44.02231],[-117.58674,44.02962],[-117.58435,44.03298],[-117.57467,44.02556],[-117.57142,44.02489],[-117.57224,44.02736],[-117.56689,44.02484],[-117.57522,44.03826],[-117.56727,44.02797],[-117.56,44.03044],[-117.55598,44.03608],[-117.56697,44.04511],[-117.54806,44.03617],[-117.54352,44.03657],[-117.53899,44.04182],[-117.54269,44.04422],[-117.53829,44.04463],[-117.54184,44.04935],[-117.53354,44.04477],[-117.52847,44.04566],[-117.53632,44.05282],[-117.53628,44.05906],[-117.53364,44.06442],[-117.52916,44.06436],[-117.52561,44.06864],[-117.52687,44.07075],[-117.52059,44.06995],[-117.52391,44.07264],[-117.51905,44.07326],[-117.51784,44.07645],[-117.50514,44.07299],[-117.49251,44.07742],[-117.50233,44.08304],[-117.49888,44.08449],[-117.49962,44.08835],[-117.50843,44.09253],[-117.50184,44.09594],[-117.50217,44.09888],[-117.50737,44.10174],[-117.50551,44.10492],[-117.50826,44.10768],[-117.5136,44.10909],[-117.51098,44.11427],[-117.51533,44.11632],[-117.51495,44.12243],[-117.52451,44.12423],[-117.52085,44.1325],[-117.52291,44.13588],[-117.52974,44.13445],[-117.53464,44.14648],[-117.53793,44.14759],[-117.53372,44.15097],[-117.54374,44.15162],[-117.53987,44.15864],[-117.54829,44.15908],[-117.54635,44.16145],[-117.54937,44.16294],[-117.5451,44.16757],[-117.56004,44.16869],[-117.55938,44.17369],[-117.56777,44.17643],[-117.57154,44.1876],[-117.57489,44.18949],[-117.57042,44.19692],[-117.58386,44.19101],[-117.57968,44.19641],[-117.58207,44.20091],[-117.57976,44.20684],[-117.59442,44.21266],[-117.58818,44.22418],[-117.60315,44.22428],[-117.59207,44.22789],[-117.59667,44.2307],[-117.59861,44.23669],[-117.61542,44.23896],[-117.62358,44.23275],[-117.61592,44.2415],[-117.60167,44.24669],[-117.59947,44.2435],[-117.59294,44.24512],[-117.59564,44.25151],[-117.6003,44.24823],[-117.6173,44.25082],[-117.6209,44.26016],[-117.61374,44.25454],[-117.60328,44.25458],[-117.59796,44.25878],[-117.5934,44.258],[-117.59959,44.26088],[-117.58768,44.26376],[-117.59217,44.27141],[-117.5965,44.27217],[-117.59137,44.27929],[-117.59767,44.28413],[-117.59181,44.28768],[-117.59312,44.29308],[-117.58937,44.30038],[-117.58428,44.2995],[-117.58634,44.30294],[-117.58097,44.30239],[-117.5728,44.29573],[-117.5635,44.29835],[-117.56457,44.30432],[-117.57106,44.30865],[-117.57107,44.31475],[-117.5766,44.31586],[-117.58387,44.32871],[-117.59171,44.32826],[-117.59228,44.32496],[-117.59711,44.32618],[-117.59649,44.32917],[-117.603,44.3306],[-117.60349,44.33597],[-117.60696,44.33736],[-117.6084,44.33398],[-117.61477,44.33162],[-117.61682,44.33395],[-117.61979,44.33066],[-117.62956,44.33363],[-117.64115,44.33072],[-117.64216,44.33328],[-117.6471,44.3311],[-117.6545,44.33184],[-117.64556,44.33429],[-117.65237,44.34644],[-117.66412,44.35206],[-117.69026,44.35334],[-117.69192,44.35782],[-117.7002,44.35923],[-117.7217,44.37087],[-117.72729,44.38105],[-117.72572,44.38312],[-117.71941,44.38287],[-117.70367,44.37056],[-117.69341,44.37053],[-117.69481,44.36726],[-117.68877,44.36423],[-117.68288,44.36774],[-117.68292,44.3626],[-117.67405,44.36316],[-117.67107,44.3558],[-117.66224,44.35647],[-117.66075,44.36019],[-117.65773,44.35939],[-117.65273,44.36394],[-117.6466,44.35637],[-117.64386,44.36138],[-117.64088,44.35724],[-117.63735,44.35805],[-117.63905,44.35397],[-117.63457,44.35359],[-117.63721,44.35076],[-117.63494,44.34879],[-117.61881,44.34709],[-117.62378,44.34206],[-117.63126,44.34231],[-117.64248,44.33699],[-117.63952,44.33524],[-117.61258,44.33842],[-117.61547,44.3427],[-117.60995,44.34647],[-117.61334,44.34741],[-117.6132,44.35185],[-117.61803,44.34989],[-117.62193,44.35706],[-117.61255,44.35787],[-117.61488,44.3611],[-117.61109,44.36099],[-117.60852,44.36572],[-117.60508,44.35416],[-117.59919,44.35635],[-117.60186,44.35813],[-117.59849,44.36118],[-117.59286,44.35463],[-117.58393,44.36046],[-117.57968,44.34889],[-117.59274,44.34892],[-117.60135,44.34412],[-117.60121,44.34013],[-117.59225,44.33701],[-117.58327,44.34398],[-117.57418,44.3428],[-117.58909,44.33424],[-117.57589,44.33588],[-117.56971,44.33354],[-117.56954,44.32907],[-117.56603,44.33223],[-117.56963,44.32503],[-117.56766,44.32245],[-117.55857,44.32958],[-117.55752,44.32676],[-117.56087,44.32389],[-117.557,44.32285],[-117.56181,44.32224],[-117.55973,44.31628],[-117.56194,44.31018],[-117.54367,44.28961],[-117.53221,44.2882],[-117.53013,44.27827],[-117.52694,44.28121],[-117.51679,44.28034],[-117.50439,44.26434],[-117.49952,44.2634],[-117.4864,44.26708],[-117.48086,44.2705],[-117.48048,44.27449],[-117.47743,44.27381],[-117.47355,44.26738],[-117.46845,44.26871],[-117.47151,44.26512],[-117.46923,44.26266],[-117.46122,44.26186],[-117.46406,44.25643],[-117.46157,44.25553],[-117.45168,44.26302],[-117.45491,44.27491],[-117.44942,44.27647],[-117.44464,44.27334],[-117.4401,44.2813],[-117.43669,44.27132],[-117.44199,44.2654],[-117.44039,44.26343],[-117.44686,44.26206],[-117.4525,44.25616],[-117.44835,44.25096],[-117.44086,44.25379],[-117.43106,44.25172],[-117.43001,44.25484],[-117.43457,44.25883],[-117.42799,44.25952],[-117.4302,44.26226],[-117.42554,44.26514],[-117.42301,44.26332],[-117.42221,44.2678],[-117.41895,44.26638],[-117.41662,44.25769],[-117.4114,44.26088],[-117.40878,44.25636],[-117.39634,44.25202],[-117.39848,44.257],[-117.40527,44.26036],[-117.40562,44.26655],[-117.39521,44.26576],[-117.39541,44.27019],[-117.39186,44.2712],[-117.39351,44.27505],[-117.38851,44.27673],[-117.38642,44.27436],[-117.37914,44.27611],[-117.37209,44.2699],[-117.36566,44.26915],[-117.36828,44.27439],[-117.36522,44.27338],[-117.35783,44.26636],[-117.35014,44.26618],[-117.33794,44.25466],[-117.33821,44.26697],[-117.34316,44.26829],[-117.34003,44.26952],[-117.34258,44.27505],[-117.34698,44.27569],[-117.34987,44.28269],[-117.35668,44.28306],[-117.36175,44.29083],[-117.37547,44.29622],[-117.38004,44.29444],[-117.38007,44.29829],[-117.38563,44.29933],[-117.39145,44.30581],[-117.38897,44.30644],[-117.39301,44.31452],[-117.38372,44.30253],[-117.36767,44.29633],[-117.36408,44.29984],[-117.36341,44.29535],[-117.35984,44.29452],[-117.35624,44.29938],[-117.35156,44.2874],[-117.34585,44.29141],[-117.3457,44.28721],[-117.33251,44.27869],[-117.33245,44.2881],[-117.32501,44.28057],[-117.32272,44.28354],[-117.32469,44.28751],[-117.32188,44.28805],[-117.32456,44.29141],[-117.32116,44.29424],[-117.33025,44.29862],[-117.32421,44.30082],[-117.33076,44.30631],[-117.34981,44.3134],[-117.35101,44.31898],[-117.34845,44.32228],[-117.33414,44.31561],[-117.32676,44.31618],[-117.32588,44.32384],[-117.3303,44.3251],[-117.32469,44.3337],[-117.33459,44.33487],[-117.33776,44.33836],[-117.33097,44.34022],[-117.33794,44.34619],[-117.35513,44.34639],[-117.3433,44.35123],[-117.36186,44.35921],[-117.34233,44.35879],[-117.34206,44.35593],[-117.32804,44.34872],[-117.31854,44.3517],[-117.33013,44.35601],[-117.32502,44.36102],[-117.3319,44.36299],[-117.32968,44.36588],[-117.33178,44.37016],[-117.34142,44.37233],[-117.34174,44.3745],[-117.33658,44.3748],[-117.33677,44.37875],[-117.34476,44.37965],[-117.3435,44.38233],[-117.34845,44.38446],[-117.3324,44.38273],[-117.33735,44.38886],[-117.33681,44.39296],[-117.34586,44.39885],[-117.35927,44.39871],[-117.35538,44.40218],[-117.3369,44.40555],[-117.33493,44.41376],[-117.32974,44.41729],[-117.33356,44.4191],[-117.33375,44.42796],[-117.33774,44.43346],[-117.34794,44.43282],[-117.35183,44.43665],[-117.35585,44.434],[-117.35814,44.43818],[-117.35868,44.43525],[-117.36737,44.43485],[-117.36771,44.44109],[-117.37243,44.43956],[-117.37283,44.44378],[-117.39184,44.44674],[-117.4112,44.44249],[-117.41124,44.43966],[-117.41839,44.43664],[-117.428,44.43671],[-117.42917,44.43284],[-117.43881,44.42753],[-117.43866,44.43812],[-117.43478,44.44136],[-117.45249,44.44458],[-117.47387,44.4331],[-117.47862,44.43235],[-117.47823,44.43493],[-117.48781,44.43046],[-117.49268,44.43165],[-117.486,44.43427],[-117.4854,44.44014],[-117.47937,44.44049],[-117.47952,44.44379],[-117.47592,44.4425],[-117.47123,44.4475],[-117.47685,44.45107],[-117.48493,44.44883],[-117.47922,44.45445],[-117.48416,44.45579],[-117.48474,44.46091],[-117.49075,44.45907],[-117.48771,44.46344],[-117.48954,44.46608],[-117.49606,44.46598],[-117.49273,44.4681],[-117.49605,44.47229],[-117.4955,44.47798],[-117.49045,44.47677],[-117.49394,44.47364],[-117.49151,44.47175],[-117.48843,44.4737],[-117.48583,44.4713],[-117.48517,44.47413],[-117.47788,44.46908],[-117.47318,44.47292],[-117.47021,44.46447],[-117.4637,44.46301],[-117.46238,44.4652],[-117.44762,44.45637],[-117.44546,44.45823],[-117.4365,44.45209],[-117.43712,44.44823],[-117.42821,44.44749],[-117.42379,44.44269],[-117.41721,44.44671],[-117.42227,44.45642],[-117.41275,44.44995],[-117.41006,44.45123],[-117.41246,44.45748],[-117.40719,44.4551],[-117.40688,44.46844],[-117.40092,44.4534],[-117.39477,44.45434],[-117.39491,44.46515],[-117.39066,44.46],[-117.38627,44.46408],[-117.38649,44.45637],[-117.37699,44.45628],[-117.3753,44.46774],[-117.36672,44.45344],[-117.3591,44.45592],[-117.35511,44.45271],[-117.34542,44.45396],[-117.35703,44.46558],[-117.34594,44.4641],[-117.34579,44.46777],[-117.35345,44.47585],[-117.366,44.47875],[-117.37132,44.48358],[-117.36912,44.48569],[-117.37209,44.49142],[-117.3824,44.49],[-117.38037,44.49414],[-117.38866,44.49331],[-117.38338,44.50771],[-117.39512,44.50401],[-117.40401,44.50702],[-117.40647,44.51167],[-117.41303,44.50717],[-117.42007,44.51281],[-117.42392,44.50888],[-117.43646,44.50638],[-117.4321,44.51024],[-117.4343,44.512],[-117.42441,44.51597],[-117.4286,44.52122],[-117.42315,44.5232],[-117.43409,44.52887],[-117.43232,44.53057],[-117.43904,44.53626],[-117.43364,44.53703],[-117.43502,44.53967],[-117.46519,44.54162],[-117.4872,44.55216],[-117.4914,44.55702],[-117.49257,44.55176],[-117.49778,44.54862],[-117.50072,44.55198],[-117.50494,44.55105],[-117.5077,44.55589],[-117.52409,44.5589],[-117.52226,44.56137],[-117.52824,44.56302],[-117.53138,44.56797],[-117.53772,44.56547],[-117.54201,44.5723],[-117.55153,44.56494],[-117.54667,44.57536],[-117.55543,44.57614],[-117.56605,44.57004],[-117.5756,44.57288],[-117.5788,44.56987],[-117.60704,44.5646],[-117.61452,44.55667],[-117.60389,44.54926],[-117.60258,44.54567],[-117.61117,44.54765],[-117.61556,44.55262],[-117.62562,44.5497],[-117.62484,44.54612],[-117.63179,44.54234],[-117.63224,44.54482],[-117.63574,44.54327],[-117.64568,44.54866],[-117.64979,44.54563],[-117.64952,44.54836],[-117.66235,44.54967],[-117.66383,44.54621],[-117.66911,44.54571],[-117.67009,44.54133],[-117.67716,44.54548],[-117.6818,44.54148],[-117.68225,44.54553],[-117.68889,44.54629],[-117.68472,44.54207],[-117.69124,44.53413],[-117.71025,44.52434],[-117.71315,44.51901],[-117.71002,44.51299],[-117.71671,44.51104],[-117.71631,44.5065],[-117.71986,44.50427],[-117.727,44.5042],[-117.72257,44.50069],[-117.72721,44.50107],[-117.72591,44.49248],[-117.73314,44.48518],[-117.74791,44.48348],[-117.7761,44.48906],[-117.77641,44.49168],[-117.75622,44.49481],[-117.74746,44.49173],[-117.74238,44.49383],[-117.73794,44.50169],[-117.72025,44.5081],[-117.71801,44.5116],[-117.71151,44.51326],[-117.71457,44.51885],[-117.71203,44.52766],[-117.70355,44.52921],[-117.70319,44.53275],[-117.69595,44.53793],[-117.70676,44.539],[-117.69346,44.54025],[-117.69002,44.54871],[-117.68226,44.54899],[-117.67248,44.54439],[-117.6755,44.55321],[-117.6705,44.54779],[-117.66841,44.55234],[-117.66162,44.55397],[-117.65362,44.55035],[-117.64069,44.5514],[-117.64122,44.549],[-117.63276,44.54757],[-117.62664,44.55397],[-117.61863,44.55503],[-117.61956,44.55794],[-117.61572,44.56141],[-117.6201,44.56767],[-117.61337,44.56363],[-117.6017,44.57381],[-117.59916,44.57023],[-117.58406,44.5728],[-117.58017,44.57506],[-117.58,44.57897],[-117.56392,44.57608],[-117.55566,44.58092],[-117.5582,44.58526],[-117.53132,44.5778],[-117.53076,44.58247],[-117.53577,44.58728],[-117.53334,44.58925],[-117.53691,44.59231],[-117.53477,44.59572],[-117.53056,44.59581],[-117.52846,44.59953],[-117.50689,44.59986],[-117.52002,44.60358],[-117.52588,44.60898],[-117.52658,44.61177],[-117.51532,44.61246],[-117.52123,44.61415],[-117.51979,44.6163],[-117.53262,44.62537],[-117.52686,44.63186],[-117.53155,44.63189],[-117.5399,44.64041],[-117.54502,44.64006],[-117.54386,44.63498],[-117.54647,44.63534],[-117.54758,44.64186],[-117.55189,44.64396],[-117.55388,44.63715],[-117.55773,44.64226],[-117.56254,44.63992],[-117.56163,44.6453],[-117.58225,44.65409],[-117.57496,44.65562],[-117.57464,44.65244],[-117.55852,44.64981],[-117.55623,44.65344],[-117.55616,44.64914],[-117.55005,44.64856],[-117.54684,44.65507],[-117.54179,44.6486],[-117.53805,44.65035],[-117.53429,44.64568],[-117.52498,44.64377],[-117.5229,44.64627],[-117.52631,44.65134],[-117.51936,44.65086],[-117.52391,44.6562],[-117.51635,44.65261],[-117.51214,44.65444],[-117.51464,44.64802],[-117.50864,44.64364],[-117.50438,44.65019],[-117.50677,44.65137],[-117.49717,44.65235],[-117.50547,44.67663],[-117.50059,44.68965],[-117.50117,44.67219],[-117.49663,44.66674],[-117.49516,44.65801],[-117.49326,44.65674],[-117.49326,44.65843],[-117.49137,44.66046],[-117.49005,44.65594],[-117.47929,44.66722],[-117.47804,44.67587],[-117.4707,44.68671],[-117.46815,44.68515],[-117.47139,44.68389],[-117.47636,44.67036],[-117.46762,44.66835],[-117.47792,44.66507],[-117.48167,44.65704],[-117.47745,44.65496],[-117.4889,44.64905],[-117.47568,44.64596],[-117.47309,44.63778],[-117.46603,44.63349],[-117.46687,44.63844],[-117.46436,44.64024],[-117.45997,44.63624],[-117.45611,44.64334],[-117.45408,44.63552],[-117.45072,44.63374],[-117.45286,44.63185],[-117.44787,44.62995],[-117.44534,44.64143],[-117.44333,44.6364],[-117.4384,44.63998],[-117.44078,44.63531],[-117.43808,44.63011],[-117.43046,44.63365],[-117.42927,44.62938],[-117.42101,44.63959],[-117.41967,44.63479],[-117.41576,44.63751],[-117.41884,44.62653],[-117.41522,44.62496],[-117.40867,44.62912],[-117.4126,44.62198],[-117.40761,44.62006],[-117.4083,44.61676],[-117.41038,44.61491],[-117.42002,44.61834],[-117.41521,44.61454],[-117.4192,44.61414],[-117.42081,44.60986],[-117.42458,44.61411],[-117.43181,44.60626],[-117.4259,44.5988],[-117.42175,44.60172],[-117.41703,44.60063],[-117.41949,44.59464],[-117.41305,44.59532],[-117.41183,44.58971],[-117.40655,44.591],[-117.40383,44.58406],[-117.40819,44.58292],[-117.40726,44.57751],[-117.40177,44.57414],[-117.40314,44.58263],[-117.40007,44.58041],[-117.39857,44.58312],[-117.40033,44.59224],[-117.38854,44.59862],[-117.39119,44.589],[-117.38874,44.58697],[-117.39477,44.58427],[-117.39558,44.57601],[-117.38356,44.57003],[-117.37011,44.57071],[-117.36936,44.5651],[-117.365,44.56496],[-117.37134,44.56031],[-117.36078,44.5583],[-117.36462,44.55366],[-117.36389,44.54847],[-117.37069,44.55098],[-117.36913,44.54227],[-117.36596,44.54027],[-117.36569,44.54519],[-117.36242,44.54274],[-117.35648,44.54466],[-117.35928,44.53734],[-117.35361,44.53675],[-117.35557,44.53353],[-117.35185,44.53176],[-117.34678,44.53631],[-117.33611,44.53846],[-117.34657,44.52862],[-117.34144,44.52726],[-117.34621,44.5254],[-117.34826,44.51955],[-117.34133,44.51857],[-117.34444,44.51588],[-117.34224,44.51209],[-117.35174,44.51311],[-117.34963,44.50954],[-117.354,44.50864],[-117.355,44.49942],[-117.34853,44.5018],[-117.34379,44.49813],[-117.34257,44.50458],[-117.33818,44.50437],[-117.33421,44.5095],[-117.33439,44.49947],[-117.3283,44.49222],[-117.32382,44.49674],[-117.32496,44.49952],[-117.32002,44.50027],[-117.32202,44.50639],[-117.3178,44.50146],[-117.31306,44.50493],[-117.3141,44.49511],[-117.30886,44.49261],[-117.3146,44.49268],[-117.31996,44.4874],[-117.31766,44.48454],[-117.31375,44.48624],[-117.31049,44.47848],[-117.30716,44.47883],[-117.30389,44.48496],[-117.30174,44.48273],[-117.30156,44.47869],[-117.30541,44.47682],[-117.30138,44.47083],[-117.30616,44.46645],[-117.30028,44.46538],[-117.30232,44.46045],[-117.29723,44.45848],[-117.30228,44.45539],[-117.29019,44.44993],[-117.29462,44.4474],[-117.29134,44.44328],[-117.29784,44.44324],[-117.29623,44.4379],[-117.28862,44.43952],[-117.27558,44.43596],[-117.28322,44.43485],[-117.28784,44.4294],[-117.2862,44.4244],[-117.29088,44.42405],[-117.2849,44.41354],[-117.29483,44.41299],[-117.28751,44.40701],[-117.28092,44.40604],[-117.29491,44.39874],[-117.28068,44.38841],[-117.2713,44.39079],[-117.26955,44.38674],[-117.277,44.38401],[-117.2782,44.38026],[-117.26822,44.37876],[-117.26805,44.3757],[-117.26466,44.37645],[-117.25547,44.36964],[-117.25325,44.37354],[-117.24815,44.36749],[-117.24932,44.37589],[-117.25563,44.3829],[-117.25847,44.38119],[-117.26273,44.38526],[-117.25957,44.39172],[-117.26292,44.39392],[-117.26085,44.39807],[-117.2642,44.40225],[-117.25914,44.40808],[-117.25111,44.40656],[-117.25038,44.41181],[-117.23808,44.41345],[-117.24057,44.42212],[-117.22909,44.42934],[-117.2326,44.43473],[-117.22761,44.4374],[-117.22842,44.442],[-117.24839,44.45836],[-117.24814,44.46346],[-117.24242,44.466],[-117.245,44.47046],[-117.23888,44.47592],[-117.23744,44.48258],[-117.24325,44.48253],[-117.24926,44.47685],[-117.24925,44.48059],[-117.25304,44.4818],[-117.25183,44.48505],[-117.25731,44.48736],[-117.26732,44.48233],[-117.26352,44.49242],[-117.27536,44.49493],[-117.27938,44.4921],[-117.27852,44.49662],[-117.28295,44.50402],[-117.28028,44.50606],[-117.27354,44.49794],[-117.26906,44.49888],[-117.2699,44.50084],[-117.2639,44.49937],[-117.25824,44.513],[-117.24812,44.49608],[-117.23511,44.50042],[-117.24118,44.50627],[-117.23883,44.50845],[-117.24425,44.5116],[-117.22773,44.50897],[-117.23626,44.5121],[-117.24549,44.52266],[-117.24467,44.53118],[-117.24823,44.5345],[-117.24358,44.53894],[-117.24277,44.53471],[-117.23783,44.53237],[-117.23836,44.52576],[-117.22662,44.51921],[-117.2259,44.52699],[-117.22356,44.52572],[-117.21934,44.52965],[-117.21824,44.52501],[-117.21515,44.52574],[-117.21254,44.5347],[-117.21875,44.54097],[-117.21993,44.54793],[-117.22557,44.55036],[-117.22698,44.55703],[-117.21384,44.55213],[-117.21137,44.54416],[-117.2024,44.53848],[-117.19785,44.5295],[-117.19526,44.53395],[-117.1911,44.53146],[-117.21034,44.55415],[-117.2054,44.55452],[-117.20179,44.55973],[-117.20537,44.56917],[-117.19927,44.56561],[-117.19116,44.56787],[-117.19625,44.55365],[-117.18097,44.5411],[-117.18137,44.55371],[-117.17685,44.55912],[-117.1723,44.55181],[-117.15795,44.54944],[-117.15559,44.55408],[-117.16237,44.55966],[-117.16081,44.56336],[-117.17224,44.57185],[-117.15553,44.57652],[-117.16068,44.57911],[-117.16048,44.58395],[-117.14702,44.58396],[-117.14318,44.59203],[-117.14411,44.59487],[-117.16967,44.59998],[-117.1615,44.60429],[-117.14658,44.60469],[-117.14924,44.60865],[-117.13908,44.61162],[-117.13995,44.6176],[-117.13428,44.61887],[-117.12823,44.62779],[-117.13534,44.63129],[-117.14511,44.63024],[-117.14165,44.63384],[-117.14508,44.63559],[-117.12388,44.64013],[-117.14374,44.64538],[-117.13627,44.65294],[-117.12534,44.6515],[-117.12843,44.66154],[-117.12469,44.66028],[-117.12362,44.66349],[-117.1183,44.66084],[-117.12139,44.66738],[-117.11968,44.66935],[-117.11389,44.67016],[-117.11335,44.67307],[-117.10346,44.67343],[-117.10361,44.6767],[-117.09876,44.67483],[-117.0984,44.68516],[-117.09976,44.68803],[-117.10735,44.68232],[-117.12024,44.68459],[-117.12688,44.6781],[-117.13024,44.67953],[-117.13072,44.67631],[-117.13753,44.67826],[-117.14115,44.67075],[-117.14505,44.67424],[-117.16926,44.67083],[-117.18251,44.66433],[-117.18921,44.65451],[-117.18516,44.66329],[-117.19875,44.6634],[-117.19196,44.66676],[-117.18525,44.66489],[-117.1788,44.66969],[-117.17936,44.67231],[-117.17284,44.67422],[-117.1729,44.67824],[-117.15934,44.6804],[-117.16081,44.6844],[-117.1494,44.68163],[-117.14579,44.68454],[-117.14865,44.69032],[-117.13968,44.68641],[-117.1326,44.69375],[-117.13385,44.69968],[-117.13936,44.69915],[-117.15473,44.70751],[-117.15023,44.69811],[-117.15135,44.69367],[-117.15768,44.69287],[-117.16881,44.6971],[-117.17113,44.69512],[-117.17995,44.70252],[-117.18487,44.7001],[-117.19582,44.70753],[-117.20288,44.70517],[-117.20869,44.69703],[-117.20715,44.70371],[-117.21241,44.70322],[-117.2091,44.70863],[-117.21662,44.70776],[-117.2187,44.71438],[-117.22347,44.71177],[-117.23042,44.71852],[-117.23933,44.71772],[-117.23923,44.72289],[-117.24476,44.71907],[-117.24629,44.72461],[-117.25035,44.72182],[-117.25182,44.72589],[-117.25726,44.72718],[-117.25881,44.72399],[-117.26366,44.72694],[-117.26299,44.73036],[-117.2691,44.72806],[-117.2763,44.73058],[-117.27648,44.73318],[-117.28461,44.73004],[-117.28006,44.73588],[-117.28677,44.7377],[-117.28649,44.74579],[-117.2943,44.74156],[-117.3068,44.74925],[-117.31829,44.74768],[-117.31014,44.75463],[-117.3162,44.76094],[-117.31338,44.76701],[-117.31522,44.76978],[-117.32025,44.76984],[-117.31899,44.7756],[-117.32552,44.77531],[-117.34172,44.78655],[-117.35293,44.78893],[-117.35369,44.79564],[-117.36014,44.79916],[-117.36414,44.79714],[-117.35985,44.7925],[-117.36096,44.78942],[-117.38078,44.79318],[-117.40445,44.79072],[-117.40462,44.78774],[-117.41334,44.78327],[-117.41613,44.77674],[-117.42453,44.77555],[-117.425,44.77283],[-117.44293,44.77231],[-117.44241,44.76804],[-117.44673,44.76889],[-117.44832,44.76345],[-117.45042,44.77],[-117.46336,44.77395],[-117.46737,44.76816],[-117.47176,44.76919],[-117.47364,44.76419],[-117.48003,44.77021],[-117.48477,44.76631],[-117.4867,44.77086],[-117.49063,44.77164],[-117.492,44.77756],[-117.50682,44.78335],[-117.51084,44.77789],[-117.51203,44.78225],[-117.51522,44.78036],[-117.51634,44.7835],[-117.52016,44.7773],[-117.52546,44.78276],[-117.53185,44.77518],[-117.52819,44.77247],[-117.52862,44.7646],[-117.521,44.76214],[-117.52642,44.76163],[-117.52738,44.75855],[-117.53105,44.76243],[-117.53933,44.76227],[-117.53904,44.76789],[-117.55243,44.76533],[-117.55048,44.773],[-117.5571,44.76807],[-117.5582,44.771],[-117.55434,44.7758],[-117.5463,44.77941],[-117.56229,44.77958],[-117.56361,44.78204],[-117.55738,44.78646],[-117.55908,44.78966],[-117.57214,44.77792],[-117.56909,44.7695],[-117.57434,44.77174],[-117.57904,44.76751],[-117.58106,44.77488],[-117.58859,44.76948],[-117.59222,44.77105],[-117.59556,44.76562],[-117.60381,44.7684],[-117.60678,44.75848],[-117.61317,44.76708],[-117.61941,44.7649],[-117.62495,44.76772],[-117.62618,44.76333],[-117.63025,44.76673],[-117.64278,44.76668],[-117.64642,44.77121],[-117.65072,44.76893],[-117.6521,44.77398],[-117.66175,44.77751],[-117.67445,44.77511],[-117.68028,44.78697],[-117.6883,44.79147],[-117.68546,44.79319],[-117.68797,44.80002],[-117.66796,44.80365],[-117.66662,44.7999],[-117.64995,44.79602],[-117.63658,44.78765],[-117.63117,44.78918],[-117.63364,44.79372],[-117.62776,44.7914],[-117.62495,44.79384],[-117.6316,44.79995],[-117.64074,44.80276],[-117.64108,44.80668],[-117.64508,44.80418],[-117.64839,44.81565],[-117.64012,44.81562],[-117.63662,44.81192],[-117.63626,44.81716],[-117.64385,44.82643],[-117.65488,44.82389],[-117.6609,44.82595],[-117.66225,44.82959],[-117.65686,44.83217],[-117.66938,44.83886],[-117.66588,44.84409],[-117.68003,44.84157],[-117.68091,44.84545],[-117.70751,44.85366],[-117.71134,44.86318],[-117.71924,44.86265],[-117.72268,44.87106],[-117.72024,44.88351],[-117.71374,44.87743],[-117.71064,44.87767],[-117.71047,44.88249],[-117.72654,44.90328],[-117.72509,44.90681],[-117.71996,44.90434],[-117.71979,44.90849],[-117.72223,44.9162],[-117.72654,44.9178],[-117.73281,44.92781],[-117.72746,44.92624],[-117.7267,44.93127],[-117.72176,44.9299],[-117.71914,44.93704],[-117.71198,44.93116],[-117.7113,44.93645],[-117.71882,44.94761],[-117.72482,44.9428],[-117.74174,44.95067],[-117.74537,44.93958],[-117.74716,44.94619],[-117.75443,44.94882],[-117.75548,44.95267],[-117.77048,44.95137],[-117.77062,44.95362],[-117.75708,44.95638],[-117.77468,44.96278],[-117.76879,44.96439],[-117.77128,44.9666],[-117.76678,44.96869],[-117.7676,44.97453],[-117.77694,44.98267],[-117.78083,44.99245],[-117.62964,44.99319],[-117.62454,44.97402],[-117.61798,44.96841],[-117.62309,44.96787],[-117.629,44.94639],[-117.62295,44.94171],[-117.60372,44.9502],[-117.60597,44.94018],[-117.59764,44.93167],[-117.59307,44.93508],[-117.58596,44.93433],[-117.58933,44.93096],[-117.58526,44.92869],[-117.57895,44.93284],[-117.55246,44.9195],[-117.53741,44.92374],[-117.53697,44.91538],[-117.53256,44.91367],[-117.50228,44.91618],[-117.50097,44.90755],[-117.4935,44.91087],[-117.49284,44.90279],[-117.47855,44.91384],[-117.487,44.90016],[-117.48128,44.89692],[-117.47834,44.8987],[-117.4777,44.89529],[-117.47469,44.89942],[-117.469,44.89444],[-117.45804,44.90103],[-117.45768,44.89618],[-117.45133,44.89893],[-117.42832,44.89569],[-117.42862,44.90459],[-117.42481,44.89893],[-117.41718,44.89848],[-117.42448,44.8976],[-117.4239,44.89306],[-117.44749,44.89512],[-117.44882,44.89206],[-117.45901,44.88937],[-117.45782,44.88682],[-117.46327,44.88707],[-117.46148,44.88485],[-117.46413,44.8805],[-117.45547,44.87864],[-117.4589,44.87265],[-117.45474,44.86881],[-117.44849,44.86853],[-117.453,44.86199],[-117.44751,44.86018],[-117.43962,44.86456],[-117.43892,44.85743],[-117.43449,44.85946],[-117.42697,44.85429],[-117.42453,44.86208],[-117.41945,44.86193],[-117.41717,44.86118],[-117.4193,44.85664],[-117.41456,44.85334],[-117.40832,44.85546],[-117.40716,44.85076],[-117.39382,44.84999],[-117.38981,44.84414],[-117.38125,44.8423],[-117.37539,44.8449],[-117.37412,44.84121],[-117.36149,44.83401],[-117.35794,44.83675],[-117.35964,44.83096],[-117.34996,44.83482],[-117.35341,44.83035],[-117.34008,44.82566],[-117.33804,44.83023],[-117.33147,44.82815],[-117.32371,44.83312],[-117.32321,44.82668],[-117.31234,44.82117],[-117.30784,44.82581],[-117.3023,44.82182],[-117.29226,44.82279],[-117.28957,44.81853],[-117.27932,44.82025],[-117.27609,44.82406],[-117.28407,44.83166],[-117.27667,44.82902],[-117.27631,44.83454],[-117.2701,44.83082],[-117.26467,44.83548],[-117.26233,44.83369],[-117.25197,44.8375],[-117.25096,44.83502],[-117.24656,44.83818],[-117.24872,44.83054],[-117.24589,44.82606],[-117.24212,44.83018],[-117.23774,44.82707],[-117.23262,44.83014],[-117.22972,44.82721],[-117.239,44.83759],[-117.2404,44.84966],[-117.24532,44.85679],[-117.25065,44.85883],[-117.24982,44.86366],[-117.25493,44.86502],[-117.24928,44.87233],[-117.26137,44.87572],[-117.25524,44.87767],[-117.26081,44.88211],[-117.25994,44.88501],[-117.27934,44.89687],[-117.31182,44.90437],[-117.3138,44.91002],[-117.32256,44.91374],[-117.3225,44.91917],[-117.32521,44.92052],[-117.32232,44.92116],[-117.32867,44.92765],[-117.32749,44.93078],[-117.3354,44.94229],[-117.33464,44.94736],[-117.3237,44.92349],[-117.32051,44.92342],[-117.31949,44.91774],[-117.30699,44.90942],[-117.30718,44.90675],[-117.29119,44.90198],[-117.28237,44.90298],[-117.26939,44.89658],[-117.27013,44.90166],[-117.26069,44.89521],[-117.25685,44.90617],[-117.25836,44.91137],[-117.25649,44.91313],[-117.25356,44.90598],[-117.25522,44.90245],[-117.25081,44.90127],[-117.25329,44.89854],[-117.25065,44.89507],[-117.25552,44.89242],[-117.25243,44.88427],[-117.24718,44.88515],[-117.24339,44.87993],[-117.24045,44.88669],[-117.23991,44.88071],[-117.2366,44.88129],[-117.23746,44.86928],[-117.23426,44.86914],[-117.22292,44.84678],[-117.21528,44.83996],[-117.21549,44.84378],[-117.22163,44.849],[-117.21314,44.84657],[-117.21111,44.85206],[-117.20242,44.8408],[-117.19851,44.84174],[-117.1996,44.83852],[-117.19139,44.83586],[-117.19275,44.84332],[-117.19112,44.8504],[-117.18852,44.85298],[-117.18979,44.84585],[-117.18665,44.84497],[-117.18709,44.84078],[-117.17697,44.83058],[-117.17652,44.82638],[-117.1706,44.82535],[-117.16743,44.8207],[-117.16599,44.82795],[-117.16168,44.81908],[-117.15488,44.82071],[-117.15387,44.82364],[-117.15372,44.81916],[-117.15882,44.81653],[-117.15718,44.81268],[-117.15404,44.81415],[-117.15328,44.80776],[-117.14815,44.80493],[-117.14641,44.81099],[-117.14039,44.81014],[-117.14431,44.82243],[-117.1332,44.81174],[-117.12906,44.81215],[-117.12529,44.8023],[-117.12335,44.80742],[-117.12056,44.80726],[-117.12371,44.81201],[-117.12058,44.81374],[-117.12034,44.8191],[-117.1133,44.8099],[-117.10394,44.80499],[-117.10604,44.8152],[-117.09433,44.80779],[-117.09597,44.804],[-117.08597,44.78573],[-117.08017,44.78741],[-117.08236,44.79766],[-117.07467,44.79568],[-117.07369,44.79117],[-117.071,44.79236],[-117.06796,44.78796],[-117.06428,44.78932],[-117.06398,44.79554],[-117.08706,44.81358],[-117.10025,44.81885],[-117.10317,44.82358],[-117.10601,44.82242],[-117.10496,44.81793],[-117.10973,44.81933],[-117.11992,44.83701],[-117.12893,44.83976],[-117.12911,44.84357],[-117.12087,44.8427],[-117.12319,44.85521],[-117.11925,44.85606],[-117.1219,44.86211],[-117.12953,44.86001],[-117.12904,44.86239],[-117.14816,44.86819],[-117.15073,44.87372],[-117.15642,44.87323],[-117.15903,44.88485],[-117.16462,44.8893],[-117.16226,44.89094],[-117.16905,44.89236],[-117.17864,44.91404],[-117.18042,44.93463],[-117.1778,44.94132],[-117.13975,44.94128],[-117.13107,44.93865],[-117.12735,44.94771],[-117.12122,44.9348],[-117.11817,44.94212],[-117.10917,44.94753],[-117.11166,44.95217],[-117.09956,44.9545],[-117.09236,44.9512],[-117.08601,44.95634],[-117.09054,44.95917],[-117.08287,44.95798],[-117.08215,44.96234],[-117.07555,44.96581],[-117.07234,44.95813],[-117.07598,44.954],[-117.08663,44.94747],[-117.10652,44.94314],[-117.1057,44.94036],[-117.11146,44.93442],[-117.11048,44.93117],[-117.10574,44.93187],[-117.10448,44.92939],[-117.10085,44.93153],[-117.09524,44.92368],[-117.08874,44.92638],[-117.08452,44.9237],[-117.086,44.92125],[-117.08253,44.92154],[-117.08156,44.91855],[-117.07908,44.92074],[-117.07453,44.9162],[-117.07093,44.91823],[-117.07168,44.92513],[-117.06704,44.92158],[-117.06421,44.92641],[-117.07881,44.93861],[-117.07823,44.94296],[-117.07174,44.94094],[-117.07457,44.9463],[-117.06926,44.94716],[-117.07256,44.95152],[-117.0696,44.95505],[-117.0666,44.95627],[-117.06667,44.95327],[-117.063,44.95212],[-117.06052,44.95402],[-117.06034,44.9481],[-117.05949,44.95491],[-117.0564,44.95578],[-117.04765,44.9516],[-117.05088,44.94703],[-117.04704,44.94942],[-117.04606,44.94579],[-117.04075,44.94428],[-117.03886,44.94878],[-117.05363,44.96131],[-117.03584,44.95995],[-117.03339,44.95473],[-117.02667,44.95206],[-117.02748,44.94426],[-117.03191,44.94518],[-117.03264,44.94143],[-117.02907,44.94007],[-117.02946,44.93688],[-117.02374,44.93824],[-117.02618,44.93238],[-117.01963,44.93037],[-117.01796,44.93551],[-117.02345,44.94514],[-117.02222,44.94823],[-117.00792,44.94286],[-117.0158,44.95235],[-117.01274,44.95737],[-117.01423,44.9623],[-117.00821,44.95231],[-117.00491,44.95273],[-117.00583,44.95049],[-116.99374,44.94187],[-116.99422,44.93833],[-116.99018,44.93828],[-116.99182,44.93555],[-116.98587,44.92582],[-116.98059,44.92428],[-116.97934,44.92815],[-116.98344,44.93357],[-116.97503,44.93222],[-116.97913,44.93655],[-116.97257,44.93769],[-116.97392,44.94876],[-116.99008,44.94786],[-116.99533,44.95465],[-116.99566,44.96278],[-116.99197,44.97049],[-116.99117,44.95916],[-116.98789,44.95448],[-116.98136,44.95609],[-116.97962,44.96165],[-116.97369,44.95871],[-116.96997,44.9625],[-116.97221,44.96674],[-116.9659,44.97036],[-116.9667,44.97314],[-116.96311,44.97302],[-116.96504,44.97831],[-116.95964,44.97914],[-116.96063,44.98436],[-116.95829,44.98453],[-116.95577,44.99386],[-116.94917,44.98118],[-116.94218,44.98717],[-116.93652,44.98668],[-116.93689,44.99129],[-116.93174,44.99054],[-116.92146,45.00001],[-116.90986,45.00002],[-116.91606,44.99388],[-116.91381,44.98933],[-116.91838,44.98898],[-116.91703,44.98519],[-116.91964,44.98573],[-116.92391,44.97722],[-116.92704,44.98028],[-116.9321,44.97648],[-116.93073,44.97327],[-116.93702,44.97369],[-116.93801,44.96978],[-116.94706,44.96715],[-116.9436,44.96464],[-116.95107,44.95603],[-116.94594,44.95348],[-116.95194,44.94913],[-116.94736,44.94633],[-116.94881,44.94248],[-116.9418,44.94828],[-116.94352,44.93846],[-116.93851,44.93245],[-116.93381,44.93539],[-116.92967,44.94746],[-116.92687,44.94739],[-116.92425,44.93849],[-116.91734,44.93796],[-116.91284,44.94119],[-116.91348,44.94405],[-116.90758,44.94608],[-116.91141,44.94955],[-116.90816,44.9498],[-116.90836,44.95479],[-116.90401,44.95201],[-116.89736,44.95396],[-116.89714,44.95778],[-116.90193,44.95937],[-116.89683,44.9628],[-116.89861,44.96588],[-116.88648,44.96591],[-116.89204,44.97196],[-116.88537,44.97459],[-116.89074,44.9766],[-116.88553,44.9782],[-116.89107,44.98198],[-116.88614,44.98475],[-116.89471,44.98958],[-116.88511,44.99154],[-116.8763,44.98877],[-116.87926,44.9925],[-116.87737,44.99973],[-116.84617,44.99978],[-116.85755,44.98257],[-116.85828,44.97801],[-116.85351,44.97299],[-116.84679,44.97242],[-116.83863,44.98354],[-116.82627,44.98249],[-116.83645,44.96924],[-116.85098,44.96156],[-116.83199,44.93301],[-116.84889,44.90072],[-116.85243,44.88758],[-116.86534,44.8706],[-116.87714,44.86605],[-116.88775,44.8558],[-116.89862,44.85374],[-116.89625,44.84833],[-116.90015,44.83667],[-116.90577,44.83479],[-116.9221,44.81188],[-116.9311,44.80478],[-116.9338,44.79678],[-116.9307,44.78988],[-116.9347,44.78388],[-116.9709,44.77388],[-116.9989,44.75638],[-117.0138,44.75684],[-117.02,44.75102],[-117.03827,44.74818],[-117.04782,44.74153],[-117.05021,44.73256],[-117.06227,44.72714],[-117.0618,44.70665],[-117.07912,44.69217],[-117.0808,44.67377],[-117.09587,44.66474],[-117.09497,44.65201],[-117.09822,44.64069],[-117.10823,44.62711],[-117.11475,44.62488],[-117.12052,44.61466],[-117.12475,44.58383],[-117.14825,44.56437],[-117.14293,44.55724],[-117.14416,44.54565],[-117.14924,44.53615],[-117.16103,44.52517],[-117.18158,44.52296],[-117.18976,44.51339],[-117.20024,44.49203],[-117.20894,44.48566],[-117.22508,44.48235],[-117.22537,44.47548],[-117.21525,44.45215],[-117.21507,44.42716],[-117.22726,44.40524],[-117.24287,44.39556],[-117.23512,44.37385],[-117.19734,44.34741],[-117.18977,44.33659],[-117.20332,44.31302],[-117.21679,44.30824],[-117.22274,44.29833],[-117.21697,44.28836],[-117.19815,44.27383],[-117.17034,44.25889],[-117.14622,44.25803],[-117.13677,44.26039],[-117.11986,44.27827],[-117.10421,44.27994],[-117.09457,44.27098],[-117.0895,44.25823],[-117.06728,44.24401],[-117.05143,44.22875],[-117.04615,44.23067],[-117.04228,44.24277],[-117.03186,44.24863],[-116.97697,44.24321],[-116.97196,44.23568],[-116.97432,44.22861],[-116.97022,44.21749],[-116.9737,44.20802],[-116.97059,44.19629],[-116.94759,44.19126],[-116.93544,44.19396],[-116.92539,44.19154],[-116.91574,44.18315],[-116.90275,44.17947],[-116.89576,44.17127],[-116.89593,44.15429],[-116.90241,44.14517],[-116.91122,44.13999],[-116.91424,44.1273],[-116.92856,44.11516],[-116.9283,44.10733],[-116.9337,44.10004],[-116.94313,44.09406],[-116.9672,44.09094],[-116.97735,44.08536],[-116.97318,44.04942],[-116.95667,44.04415],[-116.942,44.0346],[-116.93613,44.02714],[-116.93686,44.0105],[-116.94494,44.00278],[-116.9353,43.98862],[-116.94002,43.98445],[-116.96083,43.98282],[-116.96642,43.9773],[-116.97605,43.97506],[-116.97088,43.9683],[-116.95921,43.96636],[-116.97243,43.95799],[-116.96048,43.9551],[-116.96914,43.93887],[-116.95933,43.92933],[-116.96154,43.91839],[-116.98115,43.91369],[-116.97603,43.89555],[-116.98386,43.88079],[-116.98294,43.86771],[-117.02004,43.85896],[-117.02012,43.85396],[-117.0107,43.84975],[-117.01158,43.84105],[-117.02516,43.84133],[-117.03209,43.83328],[-117.03229,43.82877],[-117.02155,43.8194],[-117.02663,43.80811],[-117.02672,43.48873],[-117.0289,43.49182],[-117.03891,43.48799],[-117.043,43.4977],[-117.05302,43.49899],[-117.06166,43.49659],[-117.06815,43.48926],[-117.07292,43.49269],[-117.07835,43.48927],[-117.07962,43.49187],[-117.07489,43.49956],[-117.08153,43.49931],[-117.08097,43.50434],[-117.08453,43.50229],[-117.0894,43.50657],[-117.09325,43.50064],[-117.09916,43.50481],[-117.10327,43.50388],[-117.10137,43.50065],[-117.10354,43.49705],[-117.10486,43.49984],[-117.1119,43.49806],[-117.11337,43.49376],[-117.1046,43.4906],[-117.10769,43.48532],[-117.1018,43.48046],[-117.10962,43.47888],[-117.1127,43.48149],[-117.1126,43.47456],[-117.10655,43.47367],[-117.11263,43.47081],[-117.10488,43.45849],[-117.09808,43.45855],[-117.10534,43.45415],[-117.10438,43.44553],[-117.10153,43.44062],[-117.09807,43.44386],[-117.09493,43.438],[-117.08779,43.4359],[-117.0952,43.4268],[-117.09932,43.42744],[-117.10661,43.42214],[-117.10092,43.4108],[-117.10658,43.40118],[-117.10339,43.4107],[-117.10938,43.41275],[-117.1073,43.41656],[-117.11447,43.41865],[-117.1136,43.42716],[-117.12173,43.42714],[-117.1226,43.43505],[-117.1271,43.4411],[-117.12801,43.44623],[-117.12508,43.44965],[-117.12745,43.45107],[-117.12284,43.45254],[-117.12366,43.46209],[-117.12987,43.46688],[-117.12789,43.4707],[-117.13118,43.47485],[-117.12697,43.47505],[-117.13255,43.4824],[-117.1383,43.48953],[-117.14195,43.48831],[-117.14608,43.49151],[-117.15031,43.488],[-117.15068,43.48157],[-117.16558,43.494],[-117.17434,43.49531],[-117.17537,43.49289],[-117.1787,43.49166],[-117.17603,43.49734],[-117.16585,43.50063],[-117.16962,43.51422],[-117.17715,43.51218],[-117.17001,43.52037],[-117.16784,43.52908],[-117.16202,43.51266],[-117.15851,43.52012],[-117.15475,43.51267],[-117.15188,43.51582],[-117.15096,43.52424],[-117.15865,43.54338],[-117.1625,43.54614],[-117.16562,43.5411],[-117.16528,43.54609],[-117.17386,43.54561],[-117.16984,43.54913],[-117.17444,43.55321],[-117.16688,43.5717],[-117.1684,43.57812],[-117.1624,43.58168],[-117.16654,43.585],[-117.1652,43.58803],[-117.17253,43.58882],[-117.17156,43.59746],[-117.17638,43.60647],[-117.16814,43.60748],[-117.16786,43.61422],[-117.16206,43.62364],[-117.1596,43.61265],[-117.14663,43.62664],[-117.14175,43.62781],[-117.14843,43.63128],[-117.14568,43.6346],[-117.14941,43.63587],[-117.14435,43.64213],[-117.15257,43.64614],[-117.15075,43.64728],[-117.15672,43.65347],[-117.1535,43.66274],[-117.15874,43.66598],[-117.1641,43.66322],[-117.15809,43.65458],[-117.16261,43.64695],[-117.16859,43.64702],[-117.17016,43.644],[-117.17478,43.65046],[-117.17983,43.64572],[-117.17823,43.64993],[-117.18451,43.65652],[-117.1874,43.65163],[-117.19025,43.65448],[-117.1919,43.64913],[-117.1932,43.6483],[-117.19546,43.6546],[-117.19729,43.64921],[-117.20086,43.64741],[-117.20105,43.65121],[-117.20685,43.64588],[-117.20071,43.65599],[-117.20369,43.66117],[-117.20867,43.65458],[-117.21088,43.66019],[-117.21575,43.65451],[-117.21931,43.65636],[-117.22429,43.65183],[-117.22919,43.6526],[-117.2343,43.65883],[-117.2412,43.65974],[-117.24217,43.65728],[-117.23421,43.65169],[-117.23286,43.64482],[-117.22485,43.64995],[-117.23083,43.64373],[-117.22697,43.64083],[-117.2221,43.62571],[-117.23017,43.62169],[-117.2243,43.61874],[-117.22387,43.61432],[-117.22662,43.61691],[-117.23552,43.61502],[-117.23603,43.61158],[-117.24271,43.61297],[-117.24855,43.6031],[-117.24685,43.59405],[-117.24354,43.59255],[-117.2459,43.58932],[-117.25721,43.60299],[-117.26422,43.59655],[-117.26393,43.60583],[-117.27363,43.60818],[-117.27355,43.60266],[-117.27792,43.6024],[-117.28308,43.60959],[-117.28648,43.60294],[-117.29394,43.6017],[-117.29064,43.59484],[-117.29597,43.59642],[-117.30216,43.59244],[-117.30302,43.58615],[-117.31379,43.58652],[-117.31227,43.58313],[-117.321,43.58452],[-117.32296,43.5817],[-117.31571,43.58287],[-117.30888,43.57646],[-117.31673,43.57489],[-117.31452,43.56679],[-117.3189,43.56937],[-117.3281,43.57031],[-117.32163,43.56823],[-117.32862,43.56588],[-117.32437,43.56299],[-117.32046,43.56523],[-117.32122,43.55503],[-117.316,43.55434],[-117.3138,43.5506],[-117.30072,43.55018],[-117.30917,43.54702],[-117.32429,43.54847],[-117.32822,43.54627],[-117.32705,43.54266],[-117.33385,43.54177],[-117.33515,43.53896],[-117.32805,43.5388],[-117.32682,43.53603],[-117.32658,43.5403],[-117.3174,43.5393],[-117.31139,43.54508],[-117.30794,43.54479],[-117.3141,43.5281],[-117.30689,43.5292],[-117.31324,43.52573],[-117.31379,43.51743],[-117.3216,43.51498],[-117.32976,43.52136],[-117.33099,43.50975],[-117.32279,43.51018],[-117.31912,43.5137],[-117.31367,43.51082],[-117.30436,43.51557],[-117.29847,43.51582],[-117.29631,43.51291],[-117.30865,43.50952],[-117.31069,43.50173],[-117.3135,43.50163],[-117.31391,43.50562],[-117.31722,43.50404],[-117.31705,43.49862],[-117.31307,43.49667],[-117.30073,43.49996],[-117.29979,43.49682],[-117.30597,43.49563],[-117.30581,43.48929],[-117.30239,43.48835],[-117.29875,43.49257],[-117.2964,43.48864],[-117.30084,43.48545],[-117.29728,43.48311],[-117.30424,43.48027],[-117.29721,43.47674],[-117.30284,43.47472],[-117.30944,43.4771],[-117.31115,43.46689],[-117.31636,43.46147],[-117.31149,43.46176],[-117.3119,43.45805],[-117.32092,43.45569],[-117.31936,43.44981],[-117.30119,43.45776],[-117.30764,43.44824],[-117.31968,43.44555],[-117.31541,43.44474],[-117.31677,43.44282],[-117.31038,43.43782],[-117.31574,43.43508],[-117.31638,43.43087],[-117.29924,43.43652],[-117.29924,43.44057],[-117.28761,43.45111],[-117.29211,43.44375],[-117.2906,43.43998],[-117.279,43.44058],[-117.27303,43.45602],[-117.27189,43.44757],[-117.27685,43.44009],[-117.27075,43.4409],[-117.26603,43.44565],[-117.26147,43.44008],[-117.26672,43.44236],[-117.26903,43.43968],[-117.26619,43.43857],[-117.27131,43.43424],[-117.2757,43.4375],[-117.2824,43.43324],[-117.28552,43.43462],[-117.29039,43.43217],[-117.28774,43.43033],[-117.29197,43.4267],[-117.29535,43.42756],[-117.29556,43.43158],[-117.31003,43.42747],[-117.30288,43.42698],[-117.31084,43.42182],[-117.31112,43.4146],[-117.30446,43.41859],[-117.30444,43.42359],[-117.29753,43.42252],[-117.29411,43.41855],[-117.28205,43.4299],[-117.2807,43.42637],[-117.28606,43.42041],[-117.28233,43.41823],[-117.28661,43.41591],[-117.28565,43.41311],[-117.27206,43.41875],[-117.272,43.42744],[-117.26663,43.4172],[-117.26382,43.41886],[-117.26471,43.42363],[-117.26061,43.41919],[-117.25987,43.42277],[-117.25134,43.42446],[-117.25147,43.42807],[-117.23808,43.41728],[-117.22766,43.42276],[-117.2293,43.42856],[-117.22226,43.42839],[-117.22136,43.42561],[-117.21751,43.42917],[-117.21283,43.42591],[-117.21004,43.43073],[-117.20386,43.42488],[-117.21217,43.42543],[-117.20989,43.41465],[-117.21633,43.42246],[-117.22123,43.4203],[-117.21575,43.41745],[-117.21536,43.41302],[-117.22284,43.41939],[-117.2257,43.41867],[-117.22484,43.41001],[-117.23143,43.41068],[-117.23317,43.40748],[-117.2352,43.40954],[-117.24137,43.40186],[-117.22988,43.39914],[-117.22969,43.38973],[-117.22224,43.38551],[-117.22652,43.38468],[-117.22831,43.38836],[-117.2304,43.38626],[-117.23209,43.39097],[-117.23769,43.39218],[-117.24022,43.38996],[-117.23728,43.38778],[-117.2397,43.38271],[-117.24574,43.38622],[-117.2491,43.3824],[-117.24592,43.37986],[-117.24822,43.3748],[-117.24084,43.3707],[-117.24996,43.36673],[-117.25858,43.35106],[-117.26204,43.35924],[-117.2638,43.35656],[-117.26816,43.36031],[-117.27475,43.35974],[-117.27122,43.35652],[-117.27571,43.34853],[-117.2776,43.35539],[-117.28461,43.35412],[-117.28693,43.34976],[-117.29127,43.35109],[-117.28808,43.35828],[-117.29573,43.36191],[-117.29441,43.35848],[-117.29774,43.35934],[-117.29632,43.35416],[-117.29993,43.34126],[-117.29406,43.34028],[-117.29904,43.3379],[-117.30214,43.33078],[-117.29699,43.33404],[-117.29431,43.33101],[-117.29,43.33281],[-117.29579,43.32584],[-117.29042,43.32893],[-117.28645,43.32584],[-117.29189,43.32012],[-117.28845,43.31434],[-117.29207,43.31346],[-117.29077,43.30729],[-117.28522,43.30826],[-117.28454,43.30594],[-117.28793,43.30504],[-117.2823,43.29914],[-117.27058,43.29884],[-117.28411,43.29797],[-117.28206,43.29544],[-117.28567,43.2949],[-117.28503,43.29903],[-117.28956,43.29934],[-117.28762,43.30156],[-117.29453,43.30565],[-117.30053,43.31558],[-117.3021,43.31033],[-117.29961,43.30782],[-117.30481,43.30599],[-117.30034,43.29731],[-117.3077,43.30622],[-117.30572,43.31218],[-117.31718,43.30994],[-117.31822,43.30667],[-117.32104,43.31054],[-117.331,43.3119],[-117.33275,43.30561],[-117.32184,43.2966],[-117.3249,43.29555],[-117.32155,43.29268],[-117.31482,43.29118],[-117.31399,43.28467],[-117.31933,43.29057],[-117.32494,43.28996],[-117.32787,43.27435],[-117.32364,43.26752],[-117.32885,43.2675],[-117.33303,43.27394],[-117.33037,43.28024],[-117.33443,43.2879],[-117.33049,43.29114],[-117.33265,43.29572],[-117.33809,43.30129],[-117.34295,43.29552],[-117.34589,43.29791],[-117.34959,43.29347],[-117.34383,43.28724],[-117.34938,43.28767],[-117.34066,43.27701],[-117.34325,43.26435],[-117.34741,43.27036],[-117.34402,43.27423],[-117.35147,43.28219],[-117.35371,43.28032],[-117.36055,43.29205],[-117.37727,43.29325],[-117.38994,43.28767],[-117.39142,43.29063],[-117.38827,43.29373],[-117.39045,43.29517],[-117.39964,43.28884],[-117.4044,43.28943],[-117.40085,43.28543],[-117.40428,43.27688],[-117.41017,43.27598],[-117.40723,43.27247],[-117.4166,43.2745],[-117.41328,43.26658],[-117.41579,43.26296],[-117.42322,43.25968],[-117.43301,43.26092],[-117.43668,43.25797],[-117.43569,43.25257],[-117.43925,43.2512],[-117.43616,43.2456],[-117.44525,43.24426],[-117.44989,43.2467],[-117.44783,43.24821],[-117.45068,43.26605],[-117.46218,43.27558],[-117.46232,43.26889],[-117.46554,43.26894],[-117.46796,43.2591],[-117.47227,43.2557],[-117.47107,43.24186],[-117.47845,43.24264],[-117.47459,43.24027],[-117.47443,43.23377],[-117.47858,43.23698],[-117.48345,43.23273],[-117.48676,43.22576],[-117.48389,43.22135],[-117.48773,43.22168],[-117.49316,43.21652],[-117.49129,43.21],[-117.49381,43.20888],[-117.49629,43.21268],[-117.49991,43.21084],[-117.49867,43.20645],[-117.49359,43.20588],[-117.49594,43.2015],[-117.491,43.19946],[-117.49416,43.19917],[-117.49315,43.18939],[-117.49574,43.19651],[-117.50405,43.20003],[-117.51042,43.20812],[-117.51588,43.19574],[-117.52353,43.19799],[-117.52788,43.19402],[-117.5385,43.19829],[-117.54304,43.2051],[-117.55218,43.20309],[-117.55016,43.1991],[-117.55425,43.20043],[-117.5513,43.19479],[-117.55475,43.18809],[-117.55764,43.19036],[-117.57887,43.1877],[-117.58892,43.19526],[-117.59101,43.1921],[-117.5991,43.19186],[-117.60667,43.19479],[-117.60682,43.1981],[-117.61227,43.19594],[-117.6302,43.2009],[-117.64144,43.19842],[-117.63876,43.18584],[-117.65704,43.18228],[-117.65411,43.17455],[-117.65847,43.15901],[-117.6631,43.15457],[-117.65972,43.13942],[-117.69165,43.13574],[-117.69902,43.1308],[-117.70025,43.1224],[-117.70321,43.12046],[-117.70116,43.10351],[-117.69353,43.09892],[-117.69009,43.1008],[-117.68689,43.0894],[-117.6833,43.08737],[-117.68821,43.08429],[-117.68942,43.07605],[-117.67697,43.07171],[-117.68226,43.06252],[-117.68094,43.05623],[-117.68854,43.04996],[-117.69337,43.04046],[-117.69129,43.02085],[-117.70303,43.01962],[-117.70468,43.01354],[-117.73134,43.00412],[-117.72619,42.99634],[-117.70556,42.98856],[-117.71625,42.98895]]]}}]}