{"type":"FeatureCollection","features":[{"type":"Feature","properties":{"slug":"southern-oregon","name":"Southern Oregon"},"geometry":{"type":"MultiPolygon","coordinates":[[[[-123.11267,42.75576],[-123.11267,42.75557],[-123.11267,42.75576],[-123.11267,42.75576]]],[[[-123.11267,42.75576],[-123.15225,42.75584],[-123.15204,42.73773],[-123.18053,42.73777],[-123.18056,42.73166],[-123.19047,42.73171],[-123.19052,42.7245],[-123.20043,42.72448],[-123.20044,42.71724],[-123.20993,42.71717],[-123.21041,42.70999],[-123.22965,42.70996],[-123.22963,42.70262],[-123.24922,42.70243],[-123.24934,42.72441],[-123.27427,42.72472],[-123.2743,42.73204],[-123.30921,42.73206],[-123.30918,42.72842],[-123.32864,42.72825],[-123.3286,42.73176],[-123.34706,42.73223],[-123.34723,42.65231],[-122.75761,42.65072],[-122.75762,42.56368],[-122.63955,42.56344],[-122.6398,42.47643],[-122.52223,42.47638],[-122.52226,42.38914],[-122.75757,42.3891],[-122.7576,42.30174],[-122.6398,42.30197],[-122.63778,42.21469],[-122.63508,42.21921],[-122.6122,42.22297],[-122.60662,42.2256],[-122.60802,42.2289],[-122.60403,42.22716],[-122.59675,42.23055],[-122.60148,42.22583],[-122.60011,42.22332],[-122.58957,42.22471],[-122.61104,42.21484],[-122.52268,42.21482],[-122.52268,42.12795],[-122.52586,42.12818],[-122.52942,42.12275],[-122.53841,42.12698],[-122.53315,42.1342],[-122.54749,42.12981],[-122.55334,42.13365],[-122.56297,42.13152],[-122.58001,42.13918],[-122.59866,42.1398],[-122.60331,42.13244],[-122.61253,42.13087],[-122.6023,42.1175],[-122.6219,42.1083],[-122.62729,42.09367],[-122.64004,42.10926],[-122.64006,42.12374],[-122.65482,42.12382],[-122.65499,42.12721],[-122.65926,42.1272],[-122.65904,42.1417],[-122.67833,42.14158],[-122.67878,42.15632],[-122.69841,42.1564],[-122.69838,42.17089],[-122.71295,42.1709],[-122.71295,42.15641],[-122.72023,42.15639],[-122.7178,42.15732],[-122.71782,42.1782],[-122.73218,42.17802],[-122.73159,42.17096],[-122.74662,42.17093],[-122.7481,42.15608],[-122.79654,42.15667],[-122.7966,42.14197],[-122.8756,42.14188],[-122.87554,42.12742],[-122.89487,42.12743],[-122.89497,42.1129],[-122.91429,42.11283],[-122.9143,42.09831],[-123.01322,42.09761],[-123.01374,42.12666],[-123.07266,42.12711],[-123.07263,42.14166],[-123.19082,42.14297],[-123.19068,42.128],[-123.26009,42.12803],[-123.25998,42.11834],[-123.26973,42.11832],[-123.26984,42.12786],[-123.28935,42.12781],[-123.2893,42.12187],[-123.30875,42.12184],[-123.30882,42.12777],[-123.31718,42.12773],[-123.31719,42.13082],[-123.322,42.1308],[-123.32202,42.13443],[-123.32686,42.1344],[-123.32686,42.13808],[-123.34703,42.13796],[-123.34703,42.14204],[-123.36632,42.14198],[-123.37109,42.14919],[-123.37586,42.14919],[-123.37597,42.1564],[-123.38074,42.15642],[-123.38082,42.16338],[-123.38561,42.16335],[-123.38566,42.1706],[-123.39528,42.17052],[-123.3953,42.18494],[-123.40484,42.18486],[-123.40485,42.18845],[-123.42414,42.18844],[-123.42415,42.19565],[-123.4653,42.19919],[-123.46533,42.08237],[-123.58312,42.08177],[-123.58311,42.03777],[-123.62244,42.03782],[-123.62209,42.00864],[-123.64153,42.00862],[-123.64189,42.03785],[-123.68147,42.03797],[-123.68091,42.05251],[-123.6999,42.0526],[-123.70029,41.99984],[-123.77696,41.99984],[-123.77709,42.02357],[-123.7578,42.02359],[-123.75783,42.03813],[-123.73941,42.03814],[-123.73934,42.06734],[-123.71962,42.06717],[-123.71951,42.08176],[-123.70473,42.0818],[-123.70481,42.0745],[-123.69989,42.07451],[-123.69985,42.09642],[-123.7195,42.09636],[-123.71951,42.1037],[-123.71947,42.11098],[-123.69982,42.11099],[-123.69974,42.12558],[-123.71921,42.12557],[-123.71916,42.14003],[-123.69971,42.14009],[-123.69959,42.21348],[-123.66117,42.21333],[-123.661,42.30111],[-123.64117,42.30112],[-123.64105,42.31562],[-123.62194,42.3157],[-123.62193,42.33026],[-123.58288,42.33035],[-123.58272,42.38899],[-123.52418,42.38923],[-123.52346,42.43271],[-123.54369,42.4327],[-123.54376,42.44713],[-123.52353,42.44722],[-123.52353,42.47693],[-123.60217,42.47701],[-123.60188,42.49151],[-123.58237,42.49154],[-123.58302,42.55321],[-123.60261,42.55309],[-123.60249,42.56464],[-123.59808,42.56464],[-123.59849,42.56026],[-123.5938,42.55867],[-123.57528,42.56387],[-123.56149,42.55041],[-123.53956,42.55454],[-123.50026,42.53915],[-123.50216,42.53399],[-123.49828,42.52904],[-123.49297,42.53051],[-123.48434,42.5264],[-123.48395,42.5226],[-123.46514,42.52033],[-123.46142,42.5161],[-123.44605,42.51683],[-123.44091,42.51876],[-123.4342,42.53386],[-123.43986,42.55135],[-123.435,42.5614],[-123.40339,42.58248],[-123.41331,42.59165],[-123.4184,42.58652],[-123.43557,42.58196],[-123.43606,42.58916],[-123.43208,42.5942],[-123.43489,42.60879],[-123.42562,42.61889],[-123.42837,42.63051],[-123.46956,42.6494],[-123.47479,42.65789],[-123.46538,42.67225],[-123.44234,42.68632],[-123.42463,42.68809],[-123.41628,42.69559],[-123.38537,42.69763],[-123.36701,42.70799],[-123.36566,42.71143],[-123.37254,42.71824],[-123.3722,42.72496],[-123.40131,42.72496],[-123.40141,42.7103],[-123.40636,42.71029],[-123.40631,42.71397],[-123.42574,42.71449],[-123.4257,42.71104],[-123.44494,42.71113],[-123.44547,42.70303],[-123.46528,42.6993],[-123.46644,42.9197],[-123.4644,42.91708],[-123.46066,42.91869],[-123.4614,42.926],[-123.45787,42.92023],[-123.45349,42.92096],[-123.45616,42.92536],[-123.44907,42.92794],[-123.45087,42.9318],[-123.44634,42.9303],[-123.44256,42.93512],[-123.43477,42.93538],[-123.43155,42.93745],[-123.43189,42.94154],[-123.42937,42.93959],[-123.41715,42.94529],[-123.41885,42.94195],[-123.41607,42.93813],[-123.406,42.94588],[-123.40317,42.94276],[-123.39584,42.9429],[-123.39674,42.94993],[-123.38402,42.94858],[-123.36664,42.96832],[-123.38698,42.96515],[-123.36681,42.97503],[-123.36762,42.97954],[-123.37534,42.98473],[-123.36784,42.98216],[-123.36643,42.98461],[-123.36158,42.97587],[-123.35475,42.97784],[-123.35009,42.98794],[-123.34202,42.99248],[-123.33605,43.00141],[-123.32881,43.00217],[-123.32944,43.00582],[-123.32108,43.00494],[-123.31543,43.00983],[-123.30779,43.01092],[-123.30149,43.02416],[-123.30448,43.02796],[-123.31214,43.0257],[-123.31987,43.02936],[-123.32726,43.02492],[-123.32867,43.02895],[-123.3328,43.02943],[-123.33836,43.0253],[-123.33844,43.03143],[-123.34762,43.03286],[-123.33687,43.0369],[-123.33946,43.03934],[-123.33702,43.05082],[-123.34427,43.05686],[-123.34741,43.05292],[-123.35571,43.05422],[-123.3533,43.0464],[-123.35802,43.04768],[-123.35605,43.0445],[-123.36072,43.04538],[-123.36258,43.04139],[-123.36636,43.04675],[-123.36965,43.04649],[-123.3724,43.04881],[-123.37098,43.05418],[-123.38344,43.06422],[-123.38097,43.07154],[-123.37244,43.07497],[-123.37368,43.07776],[-123.39254,43.07464],[-123.39442,43.07258],[-123.38808,43.07044],[-123.3967,43.06388],[-123.39677,43.05963],[-123.38767,43.0561],[-123.39071,43.05135],[-123.38399,43.05235],[-123.38887,43.04835],[-123.38745,43.04634],[-123.37599,43.05214],[-123.38279,43.04374],[-123.37169,43.044],[-123.36839,43.03906],[-123.37122,43.03394],[-123.37615,43.03895],[-123.37636,43.03236],[-123.38013,43.03859],[-123.3868,43.04035],[-123.38132,43.03123],[-123.3857,43.02857],[-123.38912,43.03241],[-123.39277,43.03096],[-123.3923,43.03466],[-123.39783,43.03595],[-123.39612,43.04123],[-123.39218,43.04278],[-123.39935,43.04851],[-123.40068,43.04536],[-123.40616,43.04828],[-123.40894,43.04576],[-123.4023,43.0418],[-123.404,43.03847],[-123.41144,43.0416],[-123.41058,43.03611],[-123.41532,43.03836],[-123.41695,43.03558],[-123.40847,43.02901],[-123.41816,43.03017],[-123.41184,43.02542],[-123.41594,43.02216],[-123.41311,43.01974],[-123.41393,43.01843],[-123.41882,43.02047],[-123.42086,43.02694],[-123.42315,43.02363],[-123.42908,43.02514],[-123.42667,43.02868],[-123.42974,43.03054],[-123.42246,43.03172],[-123.42553,43.03331],[-123.42264,43.0365],[-123.4276,43.03763],[-123.4223,43.03928],[-123.4254,43.0413],[-123.41866,43.04604],[-123.42202,43.04897],[-123.41417,43.05132],[-123.41958,43.05472],[-123.41484,43.05775],[-123.4114,43.0564],[-123.41238,43.05884],[-123.40948,43.05996],[-123.41154,43.06227],[-123.40471,43.06738],[-123.40224,43.07526],[-123.40849,43.07764],[-123.41569,43.06243],[-123.42479,43.0581],[-123.42865,43.05271],[-123.42681,43.05174],[-123.43293,43.04753],[-123.42848,43.04626],[-123.43448,43.04435],[-123.43295,43.03979],[-123.43995,43.03927],[-123.43424,43.03527],[-123.44343,43.03625],[-123.43636,43.03275],[-123.44611,43.03372],[-123.44196,43.02903],[-123.44427,43.02294],[-123.44955,43.03188],[-123.45684,43.02788],[-123.45277,43.02502],[-123.45549,43.01874],[-123.45936,43.02814],[-123.47362,43.02009],[-123.46859,43.02766],[-123.45881,43.03065],[-123.44647,43.03976],[-123.44984,43.04234],[-123.4433,43.04261],[-123.44602,43.04642],[-123.44097,43.04498],[-123.4388,43.04856],[-123.44364,43.05024],[-123.43558,43.0565],[-123.44188,43.05592],[-123.452,43.04655],[-123.45379,43.04689],[-123.45832,43.04451],[-123.46234,43.04405],[-123.45175,43.05293],[-123.45466,43.05625],[-123.44476,43.05915],[-123.44967,43.06031],[-123.44832,43.06419],[-123.44157,43.06184],[-123.44351,43.06564],[-123.44058,43.06698],[-123.43596,43.06325],[-123.43682,43.06715],[-123.43423,43.06871],[-123.42952,43.06371],[-123.42991,43.06796],[-123.42508,43.06728],[-123.42986,43.06995],[-123.43846,43.06926],[-123.43471,43.07476],[-123.42367,43.07319],[-123.42508,43.07835],[-123.43159,43.07912],[-123.42493,43.08427],[-123.42965,43.08823],[-123.43734,43.08063],[-123.44688,43.07805],[-123.444,43.07557],[-123.44885,43.07505],[-123.44132,43.07268],[-123.44295,43.06982],[-123.44878,43.07059],[-123.45769,43.05828],[-123.46002,43.06056],[-123.46067,43.0581],[-123.47691,43.05097],[-123.46905,43.05887],[-123.47856,43.0605],[-123.4809,43.06208],[-123.46485,43.06117],[-123.45512,43.07245],[-123.46659,43.06893],[-123.47517,43.06972],[-123.47746,43.07199],[-123.46928,43.07094],[-123.466,43.07375],[-123.47035,43.07563],[-123.46124,43.07532],[-123.46028,43.07892],[-123.45792,43.07585],[-123.45342,43.07631],[-123.45572,43.08088],[-123.4451,43.08468],[-123.43912,43.09275],[-123.45236,43.09],[-123.45159,43.08615],[-123.45685,43.0841],[-123.45988,43.08643],[-123.46103,43.08332],[-123.47072,43.08016],[-123.4693,43.08626],[-123.46103,43.09109],[-123.463,43.09449],[-123.47726,43.09275],[-123.4803,43.09722],[-123.48092,43.08965],[-123.48554,43.09155],[-123.48783,43.09825],[-123.49175,43.09267],[-123.49771,43.09279],[-123.50138,43.08681],[-123.48883,43.08441],[-123.48227,43.07975],[-123.49785,43.08144],[-123.49493,43.0776],[-123.49971,43.07708],[-123.50099,43.07279],[-123.49392,43.07041],[-123.4979,43.07027],[-123.49572,43.06585],[-123.49608,43.06431],[-123.50348,43.07225],[-123.50309,43.07976],[-123.50587,43.08292],[-123.51404,43.07932],[-123.51231,43.07582],[-123.50699,43.07594],[-123.5109,43.07371],[-123.50654,43.0678],[-123.50926,43.06759],[-123.51029,43.06273],[-123.51116,43.06946],[-123.51785,43.07698],[-123.51996,43.07072],[-123.52452,43.07371],[-123.53059,43.06992],[-123.51982,43.06663],[-123.51943,43.06219],[-123.52647,43.06399],[-123.52243,43.05799],[-123.53137,43.06214],[-123.5322,43.06535],[-123.53672,43.06293],[-123.53678,43.0668],[-123.54721,43.06178],[-123.54788,43.05697],[-123.54076,43.0607],[-123.54415,43.05622],[-123.5373,43.0559],[-123.53844,43.05104],[-123.53038,43.05036],[-123.5273,43.04711],[-123.53754,43.04803],[-123.54056,43.03908],[-123.53472,43.03963],[-123.54215,43.0365],[-123.53818,43.03488],[-123.53616,43.02709],[-123.51776,43.02955],[-123.52721,43.02435],[-123.53571,43.02458],[-123.53594,43.01849],[-123.53148,43.0181],[-123.53626,43.01668],[-123.53558,43.01255],[-123.53981,43.01018],[-123.54319,43.01361],[-123.54574,43.00828],[-123.55459,43.00572],[-123.55922,42.99795],[-123.56246,42.99778],[-123.56173,43.00072],[-123.55169,43.01367],[-123.55032,43.03152],[-123.55767,43.03575],[-123.57449,43.02913],[-123.56551,43.03707],[-123.55641,43.03954],[-123.5603,43.04584],[-123.58134,43.04455],[-123.58974,43.0495],[-123.58943,43.04497],[-123.59162,43.04664],[-123.5984,43.04024],[-123.59681,43.04681],[-123.60727,43.05019],[-123.61125,43.04561],[-123.6197,43.04483],[-123.62576,43.03349],[-123.62743,43.03691],[-123.62352,43.04521],[-123.60715,43.05111],[-123.59571,43.0517],[-123.58932,43.05779],[-123.58901,43.05103],[-123.58144,43.04756],[-123.56614,43.05232],[-123.56246,43.04913],[-123.55793,43.05034],[-123.5528,43.04015],[-123.54488,43.04076],[-123.54627,43.04873],[-123.55452,43.05181],[-123.55991,43.06205],[-123.56376,43.06061],[-123.5695,43.06839],[-123.58124,43.06891],[-123.587,43.06465],[-123.58795,43.0712],[-123.59229,43.07131],[-123.60889,43.06434],[-123.61212,43.06618],[-123.62397,43.06146],[-123.62824,43.06415],[-123.62139,43.06394],[-123.60646,43.07719],[-123.61796,43.08176],[-123.63051,43.07561],[-123.62799,43.07851],[-123.63431,43.07836],[-123.62979,43.07999],[-123.63385,43.08744],[-123.62708,43.07988],[-123.62242,43.08126],[-123.62056,43.08334],[-123.62633,43.09086],[-123.62577,43.09534],[-123.62411,43.09136],[-123.61756,43.09058],[-123.6203,43.08858],[-123.61882,43.08528],[-123.60214,43.08486],[-123.60194,43.0887],[-123.59444,43.08976],[-123.59261,43.09375],[-123.61156,43.0924],[-123.60836,43.095],[-123.61057,43.09701],[-123.60408,43.09745],[-123.60155,43.10246],[-123.59532,43.102],[-123.59934,43.1052],[-123.59705,43.10708],[-123.58958,43.10747],[-123.5908,43.11182],[-123.6019,43.11666],[-123.61677,43.11725],[-123.6204,43.1217],[-123.61943,43.12504],[-123.63242,43.1272],[-123.63907,43.12323],[-123.63337,43.12951],[-123.6405,43.12904],[-123.63469,43.13366],[-123.63955,43.13587],[-123.6323,43.13457],[-123.58289,43.17074],[-123.58514,43.17293],[-123.58297,43.17633],[-123.5767,43.17749],[-123.57231,43.18088],[-123.57299,43.18386],[-123.56671,43.18628],[-123.56692,43.18961],[-123.56088,43.19207],[-123.5626,43.19768],[-123.55851,43.20182],[-123.56222,43.20642],[-123.55816,43.20966],[-123.54214,43.21129],[-123.54551,43.21708],[-123.53765,43.2212],[-123.53603,43.23333],[-123.54112,43.23853],[-123.53506,43.2416],[-123.53914,43.24582],[-123.53258,43.24879],[-123.53405,43.25319],[-123.52972,43.25572],[-123.53097,43.2592],[-123.5199,43.26407],[-123.51857,43.26988],[-123.52328,43.27566],[-123.52171,43.2792],[-123.51497,43.27876],[-123.51445,43.28196],[-123.51153,43.27992],[-123.50998,43.28439],[-123.5043,43.28679],[-123.50803,43.29152],[-123.50694,43.29941],[-123.5109,43.2994],[-123.51142,43.30276],[-123.51791,43.30608],[-123.50863,43.31446],[-123.49201,43.31314],[-123.4998,43.31718],[-123.51244,43.31766],[-123.5071,43.32082],[-123.50966,43.32235],[-123.50778,43.32697],[-123.51431,43.3244],[-123.51988,43.32638],[-123.52559,43.32282],[-123.53318,43.32575],[-123.5352,43.33065],[-123.53133,43.33537],[-123.53718,43.33629],[-123.53944,43.33984],[-123.53318,43.34651],[-123.53298,43.35187],[-123.51947,43.35958],[-123.5149,43.36878],[-123.51691,43.37196],[-123.58491,43.40388],[-123.5853,43.51901],[-123.70555,43.6068],[-123.70578,43.65836],[-123.82625,43.65391],[-123.82776,43.69547],[-123.83302,43.6989],[-123.82434,43.70061],[-123.82659,43.6976],[-123.82361,43.69374],[-123.82705,43.68702],[-123.81927,43.68534],[-123.81947,43.68033],[-123.82288,43.68049],[-123.82091,43.67837],[-123.82377,43.67705],[-123.81958,43.67654],[-123.82183,43.67263],[-123.8119,43.6797],[-123.81267,43.69415],[-123.80531,43.69468],[-123.80505,43.69935],[-123.80075,43.70258],[-123.78039,43.69553],[-123.78514,43.691],[-123.78126,43.68947],[-123.78684,43.68587],[-123.78725,43.68079],[-123.77963,43.68726],[-123.78077,43.6836],[-123.77711,43.68007],[-123.77307,43.68951],[-123.76672,43.69068],[-123.76232,43.67797],[-123.76049,43.6843],[-123.75744,43.68422],[-123.75691,43.68036],[-123.75377,43.6841],[-123.74764,43.68029],[-123.74968,43.67659],[-123.74351,43.68028],[-123.73872,43.67365],[-123.74006,43.6802],[-123.75898,43.68785],[-123.76058,43.69111],[-123.75826,43.69216],[-123.76228,43.69468],[-123.75475,43.69906],[-123.75356,43.69455],[-123.74639,43.6962],[-123.74078,43.69371],[-123.74451,43.6987],[-123.73717,43.69912],[-123.74369,43.70174],[-123.74317,43.70532],[-123.72767,43.70391],[-123.72731,43.70773],[-123.7317,43.70997],[-123.72372,43.70922],[-123.72472,43.71232],[-123.73236,43.71363],[-123.72964,43.7151],[-123.73363,43.71691],[-123.72809,43.71714],[-123.72811,43.72007],[-123.72185,43.71783],[-123.72342,43.72001],[-123.72037,43.7202],[-123.72259,43.72182],[-123.7192,43.72424],[-123.70796,43.71904],[-123.70246,43.70814],[-123.7005,43.71171],[-123.70403,43.71594],[-123.69683,43.7165],[-123.70023,43.72185],[-123.69328,43.71798],[-123.68697,43.71921],[-123.69315,43.71357],[-123.69025,43.71344],[-123.69188,43.71033],[-123.6867,43.70973],[-123.6946,43.70368],[-123.6899,43.70461],[-123.68279,43.698],[-123.67504,43.70457],[-123.67353,43.70127],[-123.66754,43.7044],[-123.66899,43.70656],[-123.66463,43.70571],[-123.66701,43.7086],[-123.66139,43.70828],[-123.66433,43.71287],[-123.66817,43.71168],[-123.66714,43.71492],[-123.67115,43.7139],[-123.66814,43.7165],[-123.67191,43.71864],[-123.6691,43.71984],[-123.66402,43.71537],[-123.66137,43.71795],[-123.66081,43.71397],[-123.65497,43.71899],[-123.65123,43.71423],[-123.65855,43.71202],[-123.6575,43.70973],[-123.65114,43.71043],[-123.65175,43.7071],[-123.65814,43.70642],[-123.65923,43.70203],[-123.66239,43.70268],[-123.66135,43.69887],[-123.66456,43.70079],[-123.66607,43.69677],[-123.6777,43.6951],[-123.67817,43.6907],[-123.68503,43.69083],[-123.67223,43.68649],[-123.67043,43.69102],[-123.66434,43.68947],[-123.66538,43.69302],[-123.65808,43.69384],[-123.64332,43.68574],[-123.64018,43.69104],[-123.64369,43.68792],[-123.64377,43.69324],[-123.64725,43.693],[-123.64866,43.69772],[-123.65543,43.69822],[-123.64819,43.70144],[-123.65059,43.7049],[-123.64718,43.70708],[-123.64087,43.70261],[-123.64287,43.69946],[-123.63364,43.69408],[-123.63514,43.69874],[-123.63207,43.70018],[-123.64388,43.70758],[-123.64481,43.70948],[-123.64068,43.71022],[-123.64552,43.71256],[-123.63804,43.71573],[-123.63446,43.71061],[-123.63295,43.71457],[-123.61994,43.70121],[-123.61501,43.70181],[-123.62233,43.70764],[-123.62139,43.71043],[-123.62517,43.71075],[-123.62356,43.71449],[-123.62968,43.71758],[-123.62204,43.72034],[-123.61584,43.71386],[-123.61448,43.72143],[-123.60627,43.71856],[-123.60752,43.70826],[-123.60222,43.70779],[-123.60294,43.71052],[-123.59838,43.71019],[-123.60396,43.71681],[-123.59894,43.71923],[-123.60367,43.72267],[-123.60842,43.7217],[-123.60556,43.72557],[-123.61256,43.72872],[-123.60209,43.73368],[-123.60258,43.73146],[-123.58582,43.73113],[-123.5894,43.72877],[-123.58485,43.72742],[-123.58927,43.71517],[-123.58116,43.7182],[-123.58389,43.7228],[-123.58043,43.72733],[-123.57431,43.72215],[-123.57108,43.72371],[-123.57037,43.72698],[-123.57533,43.73044],[-123.57214,43.7312],[-123.56208,43.73079],[-123.5628,43.72797],[-123.55492,43.72282],[-123.56402,43.72213],[-123.55882,43.7178],[-123.56327,43.71678],[-123.56338,43.71085],[-123.56906,43.71405],[-123.56773,43.70786],[-123.57759,43.71188],[-123.57662,43.70845],[-123.58708,43.70465],[-123.58583,43.69984],[-123.58103,43.7009],[-123.57992,43.70512],[-123.57367,43.70578],[-123.56907,43.69614],[-123.56466,43.70454],[-123.55283,43.69012],[-123.55114,43.69473],[-123.54493,43.69764],[-123.55003,43.69813],[-123.55997,43.70619],[-123.55126,43.71856],[-123.54882,43.71708],[-123.54829,43.71237],[-123.55177,43.70919],[-123.54928,43.70678],[-123.53983,43.70569],[-123.53625,43.70108],[-123.53562,43.70941],[-123.5223,43.70215],[-123.52548,43.69759],[-123.5354,43.69522],[-123.52676,43.69054],[-123.52901,43.68059],[-123.52509,43.68402],[-123.52156,43.6824],[-123.52284,43.68977],[-123.51701,43.69013],[-123.52321,43.69519],[-123.51638,43.69698],[-123.51777,43.69976],[-123.51376,43.70365],[-123.51828,43.70316],[-123.51675,43.70632],[-123.52061,43.70537],[-123.52279,43.71042],[-123.52725,43.71126],[-123.5223,43.71522],[-123.53138,43.71453],[-123.52347,43.71924],[-123.53117,43.72248],[-123.52213,43.72582],[-123.51982,43.71952],[-123.50013,43.70792],[-123.50159,43.71121],[-123.49762,43.71432],[-123.50249,43.71698],[-123.49529,43.72046],[-123.50496,43.71819],[-123.50826,43.7201],[-123.50157,43.72316],[-123.5137,43.72293],[-123.51116,43.72612],[-123.51426,43.72473],[-123.51728,43.72968],[-123.50567,43.72897],[-123.51143,43.73283],[-123.50564,43.73737],[-123.49924,43.7282],[-123.49392,43.72668],[-123.49342,43.73126],[-123.497,43.73117],[-123.49755,43.73489],[-123.49188,43.73538],[-123.49957,43.73804],[-123.49504,43.74022],[-123.49854,43.74472],[-123.49703,43.74554],[-123.48909,43.73894],[-123.4875,43.74429],[-123.48478,43.74186],[-123.48134,43.74477],[-123.47888,43.74155],[-123.48371,43.73696],[-123.47506,43.73724],[-123.47631,43.73424],[-123.47186,43.73389],[-123.4752,43.73004],[-123.48418,43.73184],[-123.47941,43.7282],[-123.48577,43.72586],[-123.47912,43.72109],[-123.48672,43.72048],[-123.48038,43.71326],[-123.48632,43.71244],[-123.48632,43.70522],[-123.47297,43.70785],[-123.479,43.71692],[-123.47265,43.71706],[-123.4758,43.71947],[-123.47333,43.72315],[-123.47553,43.72482],[-123.47094,43.72748],[-123.46526,43.71634],[-123.46107,43.72035],[-123.45392,43.72017],[-123.45318,43.72212],[-123.46149,43.72509],[-123.45908,43.72816],[-123.46356,43.72653],[-123.46438,43.72986],[-123.4608,43.73131],[-123.46588,43.73364],[-123.46265,43.7361],[-123.45414,43.73112],[-123.4511,43.73276],[-123.44829,43.72838],[-123.44235,43.73259],[-123.44586,43.73387],[-123.44415,43.7364],[-123.44688,43.73568],[-123.44653,43.73814],[-123.45286,43.73702],[-123.45001,43.7392],[-123.45304,43.73994],[-123.44556,43.74123],[-123.45176,43.74626],[-123.43982,43.74571],[-123.43926,43.74029],[-123.43422,43.74516],[-123.431,43.74024],[-123.42655,43.73974],[-123.43318,43.73644],[-123.42553,43.7356],[-123.4281,43.73101],[-123.43204,43.73244],[-123.42951,43.72896],[-123.43457,43.72948],[-123.4326,43.72536],[-123.44116,43.72202],[-123.424,43.72392],[-123.42538,43.72879],[-123.42053,43.72883],[-123.41965,43.73347],[-123.41437,43.729],[-123.40914,43.734],[-123.40233,43.73515],[-123.40536,43.73102],[-123.40169,43.73207],[-123.39873,43.7287],[-123.40953,43.72654],[-123.40346,43.72323],[-123.41447,43.72242],[-123.40591,43.7187],[-123.41076,43.7167],[-123.40737,43.71503],[-123.40804,43.70998],[-123.41088,43.71265],[-123.41714,43.71084],[-123.41633,43.71414],[-123.4209,43.71805],[-123.42479,43.71023],[-123.43012,43.71528],[-123.43402,43.71341],[-123.43391,43.70947],[-123.44201,43.70571],[-123.4428,43.71114],[-123.44648,43.70712],[-123.44954,43.71012],[-123.45244,43.71047],[-123.44695,43.70353],[-123.44754,43.69986],[-123.46262,43.70367],[-123.46406,43.70224],[-123.4536,43.7002],[-123.45569,43.69851],[-123.45268,43.69598],[-123.4599,43.69564],[-123.46447,43.68833],[-123.47529,43.69134],[-123.47391,43.68859],[-123.47797,43.68494],[-123.48197,43.6842],[-123.48868,43.68917],[-123.48988,43.68568],[-123.49998,43.68611],[-123.50412,43.68332],[-123.50216,43.68061],[-123.48971,43.68511],[-123.47753,43.67737],[-123.4793,43.68396],[-123.4725,43.68339],[-123.47401,43.68765],[-123.46813,43.68774],[-123.46133,43.6795],[-123.46006,43.68447],[-123.45615,43.68428],[-123.4589,43.6889],[-123.45483,43.69047],[-123.45261,43.6872],[-123.44964,43.68872],[-123.44654,43.6764],[-123.44506,43.6801],[-123.43839,43.67963],[-123.439,43.68298],[-123.43196,43.68006],[-123.43559,43.68319],[-123.43275,43.68501],[-123.43923,43.68634],[-123.43454,43.68789],[-123.43745,43.69107],[-123.42733,43.68707],[-123.43281,43.69366],[-123.43922,43.69461],[-123.43641,43.6962],[-123.44048,43.69707],[-123.43779,43.69943],[-123.43258,43.69738],[-123.43041,43.70144],[-123.42789,43.69589],[-123.41845,43.6898],[-123.42051,43.695],[-123.41551,43.69494],[-123.42304,43.69868],[-123.42147,43.70109],[-123.42567,43.70504],[-123.42091,43.70555],[-123.41628,43.70166],[-123.41145,43.70432],[-123.41085,43.69906],[-123.40536,43.69914],[-123.40044,43.69021],[-123.39998,43.6986],[-123.405,43.70566],[-123.40017,43.70568],[-123.39872,43.70886],[-123.39648,43.70314],[-123.38948,43.70084],[-123.39412,43.70644],[-123.39078,43.70817],[-123.39667,43.71095],[-123.39049,43.71252],[-123.39803,43.71445],[-123.39536,43.7209],[-123.39028,43.71601],[-123.39096,43.72161],[-123.3896,43.71892],[-123.38777,43.72253],[-123.38615,43.71658],[-123.38415,43.72255],[-123.38282,43.71946],[-123.38076,43.72289],[-123.37894,43.72052],[-123.38358,43.71314],[-123.37805,43.71186],[-123.37657,43.71665],[-123.37341,43.71441],[-123.37122,43.71145],[-123.37578,43.70158],[-123.36859,43.69841],[-123.36719,43.70388],[-123.37075,43.70862],[-123.36855,43.71056],[-123.37065,43.71674],[-123.36793,43.71672],[-123.37344,43.7248],[-123.36737,43.72444],[-123.36264,43.72015],[-123.36431,43.72663],[-123.37194,43.72977],[-123.36779,43.73286],[-123.36342,43.73056],[-123.36442,43.7349],[-123.36175,43.73491],[-123.35982,43.72778],[-123.35666,43.72656],[-123.35968,43.7392],[-123.35354,43.73743],[-123.35607,43.74263],[-123.34943,43.74264],[-123.3494,43.74034],[-123.34379,43.74327],[-123.3468,43.73835],[-123.34496,43.73728],[-123.35008,43.73308],[-123.34436,43.73343],[-123.34796,43.72568],[-123.34398,43.72684],[-123.34427,43.72227],[-123.3399,43.72396],[-123.33791,43.72123],[-123.34341,43.71047],[-123.33507,43.70593],[-123.33513,43.71791],[-123.3284,43.71749],[-123.3277,43.71984],[-123.34015,43.72733],[-123.34118,43.7298],[-123.33297,43.72862],[-123.34065,43.73679],[-123.33667,43.73835],[-123.33078,43.73435],[-123.33474,43.74036],[-123.33169,43.7419],[-123.32793,43.73818],[-123.32864,43.7436],[-123.32352,43.74502],[-123.32032,43.74132],[-123.32182,43.73809],[-123.31746,43.73993],[-123.31342,43.7325],[-123.31137,43.73792],[-123.3227,43.74652],[-123.31756,43.74689],[-123.31722,43.75076],[-123.30928,43.7465],[-123.3116,43.74895],[-123.30916,43.74993],[-123.31632,43.75364],[-123.31147,43.75343],[-123.31794,43.75815],[-123.31474,43.75784],[-123.31443,43.76146],[-123.30913,43.75806],[-123.31208,43.76418],[-123.30882,43.76396],[-123.31328,43.76812],[-123.30907,43.77094],[-123.30663,43.76799],[-123.30452,43.77589],[-123.29875,43.77174],[-123.29944,43.76734],[-123.29814,43.76738],[-123.29787,43.77113],[-123.3007,43.77476],[-123.29783,43.77846],[-123.29639,43.77564],[-123.29411,43.77772],[-123.29422,43.77475],[-123.29077,43.77802],[-123.28881,43.77489],[-123.28523,43.77657],[-123.291,43.76706],[-123.28594,43.77198],[-123.28488,43.76692],[-123.28028,43.76938],[-123.28284,43.76536],[-123.27832,43.76545],[-123.28188,43.76126],[-123.2752,43.76262],[-123.27741,43.75693],[-123.27182,43.76486],[-123.26877,43.76177],[-123.27055,43.75952],[-123.26675,43.7603],[-123.26337,43.76716],[-123.27048,43.76826],[-123.2663,43.76977],[-123.26878,43.77299],[-123.26024,43.76888],[-123.24956,43.77112],[-123.24209,43.776],[-123.24489,43.7796],[-123.19768,43.77945],[-123.2015,43.77707],[-123.20236,43.77029],[-123.20621,43.77045],[-123.19912,43.76296],[-123.20757,43.76129],[-123.21068,43.75109],[-123.20694,43.75861],[-123.20249,43.75727],[-123.19286,43.76557],[-123.18671,43.76165],[-123.1944,43.75029],[-123.18614,43.75492],[-123.18293,43.76177],[-123.17766,43.75854],[-123.17429,43.76225],[-123.15629,43.75769],[-123.15764,43.7629],[-123.1454,43.7656],[-123.14291,43.76203],[-123.14568,43.75564],[-123.13799,43.76009],[-123.13802,43.74117],[-123.14298,43.73977],[-123.14996,43.74698],[-123.15874,43.74774],[-123.16344,43.74343],[-123.16908,43.74472],[-123.17383,43.74172],[-123.17191,43.73546],[-123.17688,43.73092],[-123.18583,43.72984],[-123.1836,43.72344],[-123.17318,43.72941],[-123.1726,43.72694],[-123.16281,43.72716],[-123.17298,43.71931],[-123.16631,43.7156],[-123.16738,43.71243],[-123.1556,43.71168],[-123.14879,43.7156],[-123.14585,43.71113],[-123.15239,43.70764],[-123.14933,43.70317],[-123.17218,43.7033],[-123.18448,43.70803],[-123.18439,43.7042],[-123.15469,43.69941],[-123.16066,43.6961],[-123.15738,43.69472],[-123.16013,43.69368],[-123.15807,43.68849],[-123.16869,43.69348],[-123.16638,43.68985],[-123.16859,43.68826],[-123.1761,43.68975],[-123.17742,43.69368],[-123.18271,43.68972],[-123.1848,43.69438],[-123.18474,43.68966],[-123.18876,43.68846],[-123.19471,43.69452],[-123.19613,43.68652],[-123.19421,43.68916],[-123.18934,43.68579],[-123.17839,43.68872],[-123.17121,43.68747],[-123.16856,43.68222],[-123.17329,43.6795],[-123.18193,43.6826],[-123.17964,43.67815],[-123.18741,43.67656],[-123.18766,43.67132],[-123.19731,43.66525],[-123.19205,43.6654],[-123.1796,43.6761],[-123.17747,43.67385],[-123.16154,43.67543],[-123.15948,43.67081],[-123.16885,43.67078],[-123.16435,43.66855],[-123.18397,43.66185],[-123.17431,43.66335],[-123.17128,43.65871],[-123.1629,43.65589],[-123.17865,43.65489],[-123.17965,43.65228],[-123.16136,43.65068],[-123.17317,43.64678],[-123.17205,43.64494],[-123.17954,43.64476],[-123.18184,43.63987],[-123.16794,43.64382],[-123.16459,43.64254],[-123.17117,43.63905],[-123.168,43.63617],[-123.15508,43.63854],[-123.15486,43.63377],[-123.15151,43.63382],[-123.15853,43.62923],[-123.15268,43.62589],[-123.14427,43.62712],[-123.14651,43.62496],[-123.14357,43.62354],[-123.15107,43.62264],[-123.16801,43.62614],[-123.16637,43.62239],[-123.16876,43.62092],[-123.1633,43.62076],[-123.16292,43.61759],[-123.15731,43.6211],[-123.14959,43.61986],[-123.15138,43.61756],[-123.1395,43.61948],[-123.15366,43.61095],[-123.14925,43.60994],[-123.15205,43.60524],[-123.14542,43.60678],[-123.14515,43.60043],[-123.1396,43.59949],[-123.1386,43.5944],[-123.14253,43.58992],[-123.1338,43.58621],[-123.1384,43.5828],[-123.13375,43.58163],[-123.13969,43.576],[-123.13287,43.57203],[-123.1404,43.57323],[-123.14293,43.5717],[-123.14118,43.5684],[-123.14648,43.57153],[-123.15985,43.56471],[-123.16291,43.55649],[-123.15374,43.55953],[-123.15511,43.55561],[-123.14727,43.5545],[-123.14638,43.55211],[-123.15533,43.55371],[-123.17032,43.54979],[-123.16717,43.54333],[-123.16181,43.54268],[-123.16924,43.54138],[-123.16724,43.53427],[-123.15958,43.53486],[-123.16549,43.5309],[-123.15392,43.53018],[-123.16304,43.52856],[-123.1634,43.52601],[-123.15184,43.52635],[-123.15788,43.52359],[-123.15505,43.52156],[-123.16243,43.5229],[-123.16009,43.51879],[-123.21148,43.51901],[-123.2166,43.51694],[-123.21412,43.51259],[-123.21655,43.50971],[-123.20953,43.50517],[-123.20725,43.49743],[-123.2022,43.49617],[-123.20285,43.48325],[-123.19518,43.48752],[-123.19251,43.48254],[-123.18434,43.48548],[-123.16492,43.47714],[-123.16648,43.4804],[-123.1585,43.48164],[-123.15137,43.47738],[-123.15486,43.4708],[-123.14685,43.4743],[-123.1436,43.46976],[-123.13908,43.47766],[-123.15061,43.49262],[-123.14009,43.48126],[-123.13938,43.48676],[-123.13379,43.48983],[-123.13199,43.49516],[-123.13547,43.47892],[-123.12587,43.48216],[-123.12476,43.48732],[-123.12105,43.48238],[-123.11849,43.48512],[-123.11826,43.48135],[-123.11542,43.48101],[-123.10719,43.48238],[-123.10714,43.48666],[-123.10503,43.4815],[-123.11603,43.47768],[-123.1204,43.47904],[-123.12907,43.47409],[-123.12125,43.47198],[-123.10612,43.4792],[-123.10644,43.47573],[-123.11159,43.47382],[-123.10545,43.46863],[-123.11338,43.47183],[-123.11744,43.47032],[-123.11118,43.46652],[-123.11324,43.4655],[-123.11705,43.46425],[-123.11891,43.4673],[-123.12288,43.46249],[-123.12716,43.46791],[-123.13612,43.46417],[-123.14034,43.45976],[-123.13048,43.45994],[-123.13518,43.45541],[-123.15354,43.45208],[-123.15712,43.44967],[-123.15608,43.44732],[-123.16376,43.44569],[-123.16307,43.44064],[-123.16819,43.44334],[-123.1686,43.43937],[-123.17566,43.43581],[-123.17541,43.43199],[-123.18206,43.43142],[-123.18172,43.42743],[-123.18619,43.42832],[-123.18939,43.42508],[-123.18409,43.42465],[-123.18276,43.4211],[-123.19172,43.42233],[-123.19034,43.41897],[-123.20114,43.41487],[-123.1949,43.40872],[-123.18774,43.41854],[-123.17651,43.41565],[-123.17416,43.42105],[-123.17699,43.42166],[-123.17718,43.42549],[-123.17043,43.42917],[-123.17037,43.42396],[-123.16737,43.42422],[-123.16201,43.43039],[-123.16698,43.43326],[-123.16169,43.43317],[-123.14523,43.45044],[-123.14249,43.45004],[-123.1464,43.44606],[-123.144,43.44362],[-123.14953,43.4415],[-123.14594,43.43949],[-123.15082,43.43954],[-123.15032,43.43653],[-123.1576,43.43334],[-123.15733,43.42877],[-123.16936,43.41498],[-123.15741,43.42351],[-123.1521,43.42294],[-123.15013,43.42971],[-123.14851,43.42527],[-123.13877,43.42749],[-123.14271,43.42973],[-123.14171,43.43239],[-123.13589,43.42947],[-123.13396,43.43301],[-123.13668,43.43492],[-123.13005,43.43971],[-123.13189,43.45134],[-123.12707,43.44345],[-123.11927,43.44924],[-123.1238,43.43906],[-123.12142,43.43652],[-123.12962,43.43483],[-123.12995,43.43285],[-123.12503,43.43389],[-123.13025,43.42639],[-123.1225,43.43328],[-123.11548,43.43318],[-123.11583,43.42919],[-123.11478,43.42862],[-123.10998,43.43339],[-123.11034,43.44048],[-123.10833,43.43921],[-123.10912,43.40048],[-123.11625,43.40065],[-123.11689,43.40384],[-123.12458,43.3984],[-123.12584,43.39622],[-123.12205,43.39529],[-123.12053,43.38943],[-123.1271,43.39477],[-123.13397,43.3921],[-123.12815,43.396],[-123.128,43.40167],[-123.11638,43.41072],[-123.13306,43.42095],[-123.13616,43.41752],[-123.13303,43.41094],[-123.13952,43.41439],[-123.14138,43.41217],[-123.14199,43.40348],[-123.13586,43.40417],[-123.14209,43.4009],[-123.14222,43.39736],[-123.14657,43.4017],[-123.15244,43.39847],[-123.15258,43.40618],[-123.15713,43.40277],[-123.16262,43.40569],[-123.16051,43.39987],[-123.16406,43.39795],[-123.16049,43.39823],[-123.15862,43.39172],[-123.14938,43.39609],[-123.14488,43.39266],[-123.1556,43.38984],[-123.14885,43.38815],[-123.15188,43.38587],[-123.15043,43.38267],[-123.15588,43.38455],[-123.15296,43.37784],[-123.16143,43.38428],[-123.1599,43.38872],[-123.16842,43.38898],[-123.17025,43.38648],[-123.16709,43.38629],[-123.16777,43.38257],[-123.1725,43.38055],[-123.16419,43.372],[-123.16887,43.37039],[-123.17162,43.37345],[-123.1767,43.36718],[-123.17475,43.37611],[-123.18007,43.37842],[-123.17815,43.38076],[-123.18083,43.38443],[-123.175,43.38929],[-123.17176,43.40058],[-123.17952,43.39433],[-123.19125,43.37196],[-123.19268,43.37654],[-123.20009,43.3694],[-123.19987,43.35975],[-123.20493,43.36693],[-123.20667,43.3605],[-123.21348,43.36551],[-123.2154,43.35673],[-123.21762,43.3607],[-123.22102,43.36004],[-123.21634,43.36736],[-123.21974,43.36817],[-123.21732,43.36939],[-123.22025,43.37011],[-123.21902,43.37577],[-123.22389,43.3749],[-123.22537,43.37828],[-123.2304,43.37713],[-123.22642,43.37318],[-123.22871,43.37272],[-123.2269,43.36632],[-123.23079,43.36384],[-123.23005,43.36828],[-123.23355,43.37225],[-123.23719,43.36315],[-123.2414,43.36766],[-123.25122,43.36938],[-123.25262,43.36334],[-123.23902,43.35905],[-123.2546,43.36106],[-123.25785,43.35523],[-123.25161,43.35163],[-123.26408,43.35237],[-123.26676,43.34134],[-123.26111,43.34281],[-123.26126,43.33784],[-123.2557,43.33333],[-123.25503,43.34289],[-123.25003,43.34196],[-123.24612,43.34529],[-123.24755,43.33896],[-123.23958,43.34631],[-123.23055,43.34706],[-123.23983,43.33905],[-123.23709,43.3364],[-123.24407,43.3332],[-123.23368,43.33047],[-123.24826,43.322],[-123.24791,43.3183],[-123.24568,43.32153],[-123.23594,43.32327],[-123.23408,43.32046],[-123.24616,43.30926],[-123.24534,43.30427],[-123.25274,43.29437],[-123.24457,43.29415],[-123.24188,43.29643],[-123.24335,43.29953],[-123.23678,43.30083],[-123.23699,43.30417],[-123.23159,43.30215],[-123.23338,43.30669],[-123.23041,43.31078],[-123.22774,43.30604],[-123.22421,43.30766],[-123.22307,43.31027],[-123.22785,43.31346],[-123.2239,43.31995],[-123.22449,43.32519],[-123.22057,43.32599],[-123.21923,43.32175],[-123.20911,43.32048],[-123.20591,43.31628],[-123.20706,43.32296],[-123.21434,43.32562],[-123.20553,43.32818],[-123.22078,43.33447],[-123.21702,43.33703],[-123.20996,43.33589],[-123.21502,43.34564],[-123.21252,43.34686],[-123.20734,43.34533],[-123.20439,43.33932],[-123.20606,43.33483],[-123.20173,43.33174],[-123.19434,43.34058],[-123.196,43.34437],[-123.19168,43.34332],[-123.18563,43.34873],[-123.19182,43.34014],[-123.19278,43.33168],[-123.19845,43.32855],[-123.19807,43.32086],[-123.17692,43.33419],[-123.17752,43.338],[-123.17482,43.33631],[-123.1693,43.33923],[-123.16727,43.34178],[-123.16998,43.34544],[-123.16232,43.34575],[-123.15847,43.35199],[-123.15781,43.34771],[-123.1524,43.35016],[-123.16354,43.34329],[-123.16487,43.33919],[-123.18953,43.31796],[-123.1718,43.31888],[-123.1741,43.32315],[-123.17003,43.32881],[-123.16901,43.32403],[-123.16366,43.32567],[-123.16554,43.31934],[-123.16099,43.31968],[-123.15907,43.3233],[-123.15217,43.32282],[-123.15529,43.32799],[-123.1531,43.32868],[-123.15424,43.33386],[-123.14727,43.3249],[-123.14174,43.33215],[-123.14506,43.3352],[-123.13945,43.33454],[-123.13521,43.34033],[-123.1388,43.34317],[-123.1355,43.34493],[-123.13333,43.34192],[-123.12686,43.3486],[-123.12972,43.35221],[-123.12592,43.35214],[-123.123,43.35716],[-123.12676,43.35915],[-123.12292,43.35873],[-123.11608,43.36447],[-123.12084,43.35881],[-123.11804,43.35582],[-123.12308,43.35294],[-123.12345,43.34986],[-123.11996,43.34932],[-123.12862,43.34265],[-123.12602,43.34112],[-123.13284,43.33816],[-123.12891,43.33741],[-123.135,43.33377],[-123.13376,43.33084],[-123.14052,43.3221],[-123.13884,43.31988],[-123.13372,43.32254],[-123.13583,43.31933],[-123.13271,43.31922],[-123.13172,43.31274],[-123.12426,43.32112],[-123.12402,43.31647],[-123.11977,43.31891],[-123.12065,43.31479],[-123.11399,43.32251],[-123.11844,43.32464],[-123.10708,43.32847],[-123.1092,43.33067],[-123.10633,43.33989],[-123.11326,43.33884],[-123.107,43.35557],[-123.10429,43.35402],[-123.10828,43.34847],[-123.10469,43.3475],[-123.10544,43.34314],[-123.0992,43.34686],[-123.10114,43.33809],[-123.0946,43.33769],[-123.10015,43.33502],[-123.09695,43.33267],[-123.10071,43.33206],[-123.09228,43.32167],[-123.08674,43.32197],[-123.08592,43.3254],[-123.08211,43.32217],[-123.07782,43.32311],[-123.07697,43.32849],[-123.08271,43.33602],[-123.07523,43.33468],[-123.07609,43.33021],[-123.07149,43.33091],[-123.07216,43.32243],[-123.06352,43.32132],[-123.05705,43.32568],[-123.05651,43.33112],[-123.04983,43.32631],[-123.04702,43.32841],[-123.0429,43.32624],[-123.04277,43.33094],[-123.0398,43.32713],[-123.01736,43.32736],[-123.01382,43.33571],[-123.00501,43.33484],[-122.99106,43.34371],[-122.99147,43.3211],[-123.00147,43.3213],[-123.00653,43.32935],[-123.01105,43.32981],[-123.01863,43.3221],[-123.03257,43.31942],[-123.03276,43.31271],[-123.03673,43.31445],[-123.04149,43.30755],[-123.04112,43.31431],[-123.05109,43.31993],[-123.06567,43.30724],[-123.07588,43.3054],[-123.0744,43.30027],[-123.07746,43.29953],[-123.07491,43.29637],[-123.08633,43.29862],[-123.08607,43.29131],[-123.08396,43.28708],[-123.07679,43.28994],[-123.07167,43.28776],[-123.07765,43.28389],[-123.07414,43.27578],[-123.0637,43.28105],[-123.06631,43.27802],[-123.06272,43.2721],[-123.04761,43.27563],[-123.0437,43.2701],[-123.02959,43.27008],[-123.03003,43.26065],[-123.02637,43.26172],[-123.02817,43.25792],[-123.02089,43.25202],[-123.01941,43.24316],[-122.98,43.23236],[-122.96722,43.23206],[-122.98352,43.23095],[-122.991,43.23436],[-123.01464,43.23613],[-123.01829,43.22312],[-123.0162,43.21623],[-123.02142,43.21425],[-123.01996,43.21185],[-123.02136,43.20941],[-123.02253,43.21372],[-123.0196,43.21582],[-123.02219,43.22296],[-123.01913,43.23459],[-123.0223,43.23946],[-123.03484,43.23905],[-123.02318,43.24194],[-123.0331,43.25592],[-123.04,43.25853],[-123.03682,43.2647],[-123.0428,43.26366],[-123.05266,43.2686],[-123.05999,43.26499],[-123.07035,43.26671],[-123.07551,43.25804],[-123.07673,43.24543],[-123.08324,43.24078],[-123.07971,43.24529],[-123.08235,43.25199],[-123.08025,43.26468],[-123.0877,43.27082],[-123.0878,43.27586],[-123.09122,43.27214],[-123.09044,43.26151],[-123.09646,43.25748],[-123.09266,43.25141],[-123.10349,43.25582],[-123.09994,43.24615],[-123.10905,43.25483],[-123.1097,43.24447],[-123.11215,43.24006],[-123.11614,43.24035],[-123.11548,43.24911],[-123.11874,43.24959],[-123.11368,43.25624],[-123.12392,43.25578],[-123.12095,43.25989],[-123.12669,43.26207],[-123.1255,43.26534],[-123.12379,43.26723],[-123.11855,43.26104],[-123.11227,43.2611],[-123.11682,43.26741],[-123.11095,43.2674],[-123.10272,43.2618],[-123.09799,43.26664],[-123.09947,43.27094],[-123.1057,43.27367],[-123.09931,43.27852],[-123.10315,43.28066],[-123.11669,43.27665],[-123.12544,43.26916],[-123.12936,43.27506],[-123.12504,43.27494],[-123.12365,43.27773],[-123.12651,43.28009],[-123.12208,43.27923],[-123.11135,43.28693],[-123.11878,43.2851],[-123.12094,43.28815],[-123.12955,43.2817],[-123.13296,43.28314],[-123.12498,43.29291],[-123.13071,43.29965],[-123.13501,43.29752],[-123.13489,43.29197],[-123.14229,43.29571],[-123.14703,43.2886],[-123.15327,43.29075],[-123.15322,43.29613],[-123.15803,43.2925],[-123.15996,43.29815],[-123.16382,43.29405],[-123.16875,43.29944],[-123.17334,43.29403],[-123.16914,43.29596],[-123.16288,43.28899],[-123.17035,43.28583],[-123.17254,43.28118],[-123.15325,43.28482],[-123.15883,43.27579],[-123.15252,43.26708],[-123.14101,43.27119],[-123.13696,43.27768],[-123.13504,43.27093],[-123.13965,43.26752],[-123.13623,43.26581],[-123.14139,43.26471],[-123.13799,43.26311],[-123.14305,43.26239],[-123.14108,43.26013],[-123.14575,43.26108],[-123.14805,43.25796],[-123.13897,43.25574],[-123.1395,43.25376],[-123.15096,43.2544],[-123.1531,43.25007],[-123.15037,43.24623],[-123.14771,43.2487],[-123.14737,43.24515],[-123.13922,43.24636],[-123.13772,43.24296],[-123.13429,43.24326],[-123.1344,43.24094],[-123.14811,43.2433],[-123.1508,43.24118],[-123.1464,43.23364],[-123.13958,43.23594],[-123.13592,43.23281],[-123.13982,43.23352],[-123.14292,43.22806],[-123.14943,43.23071],[-123.15544,43.23563],[-123.15516,43.24468],[-123.15954,43.24587],[-123.1689,43.23592],[-123.16477,43.22855],[-123.17444,43.22747],[-123.1742,43.22176],[-123.1663,43.21819],[-123.17841,43.21526],[-123.17429,43.21387],[-123.17722,43.21179],[-123.17604,43.20703],[-123.16467,43.21054],[-123.16436,43.21765],[-123.16151,43.219],[-123.16206,43.21096],[-123.15057,43.21388],[-123.16498,43.20573],[-123.15949,43.2053],[-123.18227,43.20152],[-123.17625,43.20023],[-123.17872,43.1963],[-123.18156,43.19862],[-123.18395,43.19632],[-123.18551,43.20116],[-123.19197,43.19633],[-123.19053,43.20094],[-123.20044,43.2036],[-123.19828,43.20014],[-123.21068,43.19944],[-123.20766,43.1947],[-123.2155,43.19683],[-123.21129,43.1936],[-123.21472,43.18915],[-123.21671,43.19136],[-123.22021,43.18724],[-123.22231,43.194],[-123.22867,43.18725],[-123.23299,43.18933],[-123.24406,43.18083],[-123.24046,43.17894],[-123.23108,43.18317],[-123.22535,43.18007],[-123.22138,43.18165],[-123.2231,43.18452],[-123.21431,43.18409],[-123.21136,43.18776],[-123.19853,43.18626],[-123.1955,43.18722],[-123.19682,43.18977],[-123.19298,43.18737],[-123.17403,43.1917],[-123.17526,43.18941],[-123.17092,43.1869],[-123.1879,43.18458],[-123.18806,43.18124],[-123.18191,43.18111],[-123.18166,43.17826],[-123.20058,43.18294],[-123.21294,43.17721],[-123.20407,43.17796],[-123.20684,43.17466],[-123.20449,43.17052],[-123.19725,43.17569],[-123.1981,43.17189],[-123.18983,43.17414],[-123.19936,43.16978],[-123.19783,43.16794],[-123.18401,43.17013],[-123.18872,43.16432],[-123.19498,43.1652],[-123.18918,43.15511],[-123.20221,43.1595],[-123.19778,43.16104],[-123.20013,43.1658],[-123.20964,43.16266],[-123.20629,43.16798],[-123.21177,43.17006],[-123.21569,43.16783],[-123.21628,43.17263],[-123.22888,43.16498],[-123.22467,43.16118],[-123.21698,43.16443],[-123.22017,43.15832],[-123.21385,43.15901],[-123.21249,43.15504],[-123.21847,43.15625],[-123.21455,43.15306],[-123.21739,43.15029],[-123.23139,43.1621],[-123.2356,43.1547],[-123.22854,43.15575],[-123.22967,43.15283],[-123.22581,43.15367],[-123.22694,43.15052],[-123.21984,43.1472],[-123.23235,43.15032],[-123.23287,43.14756],[-123.22717,43.14504],[-123.24058,43.1456],[-123.24093,43.13838],[-123.2463,43.14051],[-123.24701,43.14414],[-123.25748,43.13425],[-123.26657,43.14246],[-123.26852,43.13784],[-123.26201,43.13681],[-123.26573,43.13176],[-123.26206,43.12738],[-123.2709,43.12948],[-123.27758,43.12617],[-123.2692,43.12465],[-123.26827,43.12172],[-123.28079,43.12242],[-123.27771,43.11616],[-123.28922,43.12165],[-123.29183,43.11946],[-123.29143,43.11372],[-123.2812,43.11393],[-123.27878,43.11236],[-123.28068,43.10908],[-123.28773,43.112],[-123.29003,43.10758],[-123.2929,43.11151],[-123.29697,43.10886],[-123.29426,43.11309],[-123.29741,43.11748],[-123.30467,43.11873],[-123.3013,43.12372],[-123.2977,43.12271],[-123.29395,43.12631],[-123.29858,43.12954],[-123.31292,43.12535],[-123.30699,43.12209],[-123.31477,43.11213],[-123.31952,43.11377],[-123.32219,43.11992],[-123.32441,43.1126],[-123.32185,43.10791],[-123.32557,43.10614],[-123.32895,43.10883],[-123.3349,43.10621],[-123.34105,43.10771],[-123.34054,43.11612],[-123.34982,43.10982],[-123.35421,43.1108],[-123.35624,43.10609],[-123.35385,43.10241],[-123.36425,43.10328],[-123.36155,43.0868],[-123.35592,43.09025],[-123.35934,43.08158],[-123.35427,43.08121],[-123.35504,43.07725],[-123.35224,43.07865],[-123.35157,43.08804],[-123.34663,43.0805],[-123.34091,43.0847],[-123.3428,43.08876],[-123.33734,43.08786],[-123.34212,43.09336],[-123.33498,43.09263],[-123.33626,43.09497],[-123.3335,43.09694],[-123.3304,43.09468],[-123.32515,43.10024],[-123.32524,43.09677],[-123.32313,43.09504],[-123.32071,43.09788],[-123.32034,43.09396],[-123.3105,43.09739],[-123.311,43.10199],[-123.30927,43.1034],[-123.30285,43.09709],[-123.2963,43.1003],[-123.29792,43.09676],[-123.2908,43.09842],[-123.29199,43.09516],[-123.29614,43.0951],[-123.29608,43.08893],[-123.29889,43.09464],[-123.30779,43.09532],[-123.3328,43.0872],[-123.32881,43.08817],[-123.32727,43.08384],[-123.31116,43.0872],[-123.31037,43.08311],[-123.30098,43.08192],[-123.3081,43.08013],[-123.30554,43.07704],[-123.31596,43.0819],[-123.32455,43.08124],[-123.34498,43.07196],[-123.31517,43.07649],[-123.31485,43.06588],[-123.32286,43.06913],[-123.32327,43.0659],[-123.33172,43.06335],[-123.32396,43.06092],[-123.32338,43.05541],[-123.3158,43.05479],[-123.32267,43.04891],[-123.3221,43.03682],[-123.31386,43.03522],[-123.30854,43.03821],[-123.30774,43.03427],[-123.29772,43.03792],[-123.29501,43.03003],[-123.2921,43.02964],[-123.28523,43.03411],[-123.28342,43.03964],[-123.27878,43.03875],[-123.28155,43.04239],[-123.27727,43.04135],[-123.27489,43.04476],[-123.2802,43.04972],[-123.2744,43.05134],[-123.26888,43.04537],[-123.26176,43.04695],[-123.2652,43.05052],[-123.26375,43.05608],[-123.26682,43.06105],[-123.26177,43.05817],[-123.26285,43.06116],[-123.25637,43.06352],[-123.26113,43.06787],[-123.2612,43.0706],[-123.25583,43.06713],[-123.25112,43.07722],[-123.2462,43.07926],[-123.24795,43.08226],[-123.24414,43.08115],[-123.237,43.08676],[-123.25826,43.05559],[-123.2545,43.05366],[-123.24797,43.05972],[-123.24644,43.05768],[-123.2402,43.06051],[-123.25432,43.04633],[-123.24277,43.04758],[-123.23664,43.05182],[-123.23752,43.04706],[-123.23448,43.04522],[-123.22606,43.05329],[-123.22645,43.05768],[-123.22956,43.0583],[-123.22627,43.06039],[-123.22907,43.06422],[-123.22632,43.06986],[-123.22608,43.0656],[-123.22125,43.06328],[-123.2226,43.05021],[-123.21459,43.05537],[-123.2116,43.05323],[-123.21222,43.06015],[-123.20738,43.06276],[-123.21457,43.07413],[-123.20579,43.06902],[-123.20408,43.06394],[-123.20005,43.06925],[-123.19847,43.07614],[-123.20508,43.07977],[-123.19834,43.07824],[-123.1954,43.08236],[-123.19991,43.08329],[-123.19852,43.08643],[-123.20502,43.09068],[-123.21204,43.09163],[-123.21369,43.09768],[-123.20545,43.0935],[-123.20229,43.09683],[-123.20293,43.09277],[-123.19841,43.09092],[-123.19404,43.09553],[-123.19464,43.10222],[-123.19005,43.0995],[-123.19095,43.08956],[-123.19326,43.08891],[-123.19131,43.08158],[-123.18508,43.08591],[-123.17882,43.08435],[-123.17735,43.08747],[-123.17591,43.08487],[-123.16879,43.08995],[-123.17276,43.09487],[-123.17289,43.11363],[-123.16796,43.11504],[-123.17192,43.10866],[-123.16757,43.10259],[-123.14845,43.1126],[-123.13927,43.11504],[-123.16821,43.09727],[-123.16396,43.09174],[-123.16556,43.0871],[-123.15203,43.08924],[-123.13454,43.10014],[-123.13931,43.09467],[-123.16432,43.08079],[-123.16434,43.08351],[-123.16848,43.0838],[-123.17392,43.08005],[-123.19312,43.0771],[-123.18974,43.07384],[-123.19153,43.07065],[-123.183,43.07106],[-123.18798,43.06674],[-123.19465,43.0689],[-123.19308,43.0644],[-123.19768,43.05993],[-123.19571,43.05811],[-123.20304,43.05787],[-123.20088,43.05249],[-123.2071,43.04674],[-123.25286,43.03558],[-123.24787,43.03024],[-123.23811,43.03256],[-123.24142,43.02726],[-123.23874,43.02634],[-123.22804,43.03118],[-123.22888,43.03615],[-123.22068,43.03745],[-123.22393,43.03197],[-123.21349,43.03278],[-123.21658,43.02951],[-123.20514,43.02579],[-123.19427,43.03548],[-123.19439,43.04196],[-123.18682,43.03848],[-123.19107,43.04301],[-123.18433,43.05236],[-123.18588,43.0413],[-123.17871,43.04317],[-123.17499,43.03841],[-123.17297,43.04106],[-123.17269,43.03836],[-123.16056,43.03792],[-123.16012,43.03881],[-123.16069,43.03994],[-123.16063,43.04541],[-123.16151,43.04678],[-123.1612,43.04751],[-123.15767,43.03786],[-123.15477,43.03754],[-123.147,43.04237],[-123.14442,43.0468],[-123.14349,43.05281],[-123.14196,43.05487],[-123.14398,43.04198],[-123.14168,43.03956],[-123.13666,43.04099],[-123.12513,43.03348],[-123.11295,43.03466],[-123.11349,43.03239],[-123.10476,43.03152],[-123.10402,43.03073],[-123.1264,43.03068],[-123.14411,43.03445],[-123.15046,43.0308],[-123.17507,43.03065],[-123.1825,43.03533],[-123.18656,43.0324],[-123.18423,43.02898],[-123.19278,43.02471],[-123.18938,43.0222],[-123.20044,43.02028],[-123.20708,43.00957],[-123.21197,43.00984],[-123.20789,43.01488],[-123.20844,43.02007],[-123.21764,43.02213],[-123.22204,43.01756],[-123.22161,43.02408],[-123.23324,43.02251],[-123.23067,43.02021],[-123.2329,43.01929],[-123.25212,43.0247],[-123.25074,43.02003],[-123.24702,43.02052],[-123.23901,43.01342],[-123.23922,43.00979],[-123.23235,43.00956],[-123.24408,43.00487],[-123.24415,43.01073],[-123.25422,43.01708],[-123.2591,43.0128],[-123.25823,43.00783],[-123.26263,43.00857],[-123.26378,43.00514],[-123.259,43.0026],[-123.2613,43.00053],[-123.25331,42.99807],[-123.26249,42.99768],[-123.26227,42.99444],[-123.26736,42.99361],[-123.27002,42.99385],[-123.2653,43.00004],[-123.2688,43.00192],[-123.26896,43.00702],[-123.27209,43.00724],[-123.27355,43.00242],[-123.27514,43.00494],[-123.28176,43.00206],[-123.28298,42.99828],[-123.28468,43.00153],[-123.28093,43.00571],[-123.28312,43.00728],[-123.29381,42.99412],[-123.3105,42.98695],[-123.29166,42.98532],[-123.30007,42.98313],[-123.29605,42.9776],[-123.30281,42.98305],[-123.3182,42.98307],[-123.31344,42.97601],[-123.32689,42.96481],[-123.32202,42.96182],[-123.32653,42.95363],[-123.31037,42.96867],[-123.30322,42.96576],[-123.29931,42.96754],[-123.29846,42.9598],[-123.30235,42.95273],[-123.28845,42.95807],[-123.29138,42.95313],[-123.28667,42.95035],[-123.28011,42.95909],[-123.27264,42.95663],[-123.26093,42.96152],[-123.25823,42.96132],[-123.26072,42.9582],[-123.25772,42.95582],[-123.2488,42.95327],[-123.24277,42.9642],[-123.25004,42.97605],[-123.24145,42.96736],[-123.24044,42.95854],[-123.23144,42.96486],[-123.23629,42.97124],[-123.22935,42.967],[-123.22061,42.9739],[-123.22124,42.98352],[-123.22976,42.98854],[-123.23044,42.99227],[-123.2216,42.98668],[-123.21588,42.99247],[-123.21908,42.9852],[-123.21577,42.97759],[-123.20291,42.98108],[-123.19676,42.9778],[-123.19313,42.99339],[-123.19082,42.9914],[-123.18634,42.99452],[-123.19026,42.98151],[-123.17769,42.98561],[-123.16087,42.98273],[-123.15177,42.98614],[-123.15325,42.99465],[-123.1579,42.99762],[-123.15306,42.99664],[-123.15037,42.99971],[-123.15069,43.00691],[-123.14795,43.00154],[-123.1417,43.00282],[-123.15035,42.99663],[-123.14757,42.98778],[-123.13165,42.99212],[-123.12274,42.99015],[-123.11777,42.98533],[-123.10787,42.98581],[-123.1034,42.99289],[-123.08675,42.99354],[-123.10498,42.9839],[-123.10398,42.98064],[-123.12288,42.9842],[-123.12462,42.98143],[-123.14214,42.97973],[-123.14135,42.97682],[-123.14435,42.9784],[-123.14854,42.97428],[-123.1499,42.97724],[-123.14996,42.97279],[-123.15505,42.97419],[-123.15421,42.97022],[-123.15897,42.97087],[-123.16351,42.95945],[-123.16931,42.95373],[-123.15301,42.95367],[-123.1367,42.95836],[-123.13574,42.95387],[-123.12113,42.95423],[-123.1257,42.9466],[-123.12506,42.94062],[-123.12141,42.93871],[-123.11308,42.93765],[-123.10459,42.9447],[-123.10595,42.94825],[-123.05597,42.93201],[-123.04972,42.93942],[-123.05373,42.9307],[-123.02109,42.94566],[-123.02193,42.94254],[-123.0132,42.93877],[-123.01078,42.94583],[-123.00231,42.9409],[-122.99951,42.94211],[-122.99492,42.94112],[-123.00016,42.93991],[-122.99203,42.93788],[-122.99123,42.93241],[-122.98664,42.93246],[-122.97558,42.92791],[-122.96265,42.92961],[-122.95157,42.92739],[-122.94531,42.9328],[-122.94014,42.93505],[-122.95096,42.92594],[-122.96294,42.92885],[-122.97664,42.92696],[-122.99218,42.93164],[-122.99314,42.93728],[-123.00035,42.93736],[-123.00852,42.94354],[-123.01078,42.93754],[-123.04607,42.9296],[-123.04782,42.9173],[-123.04968,42.91452],[-123.04875,42.92524],[-123.06918,42.9327],[-123.08692,42.93296],[-123.10375,42.93801],[-123.10938,42.93325],[-123.10765,42.92889],[-123.10985,42.93189],[-123.10934,42.92882],[-123.11275,42.93154],[-123.12122,42.9305],[-123.12208,42.91824],[-123.11139,42.91824],[-123.11267,42.75576]]]]}}]}