{"type":"FeatureCollection","features":[{"type":"Feature","properties":{"slug":"the-rocks-district-of-milton-freewater","name":"The Rocks District of Milton-Freewater"},"geometry":{"type":"Polygon","coordinates":[[[-118.46022,45.95922],[-118.4416,45.95809],[-118.44177,45.96193],[-118.43394,45.96727],[-118.42874,45.96932],[-118.40287,45.97302],[-118.38722,45.96928],[-118.37164,45.9585],[-118.38426,45.94484],[-118.39587,45.94017],[-118.40038,45.93921],[-118.44983,45.9514],[-118.46022,45.95922]]]}}]}