{"type":"FeatureCollection","features":[{"type":"Feature","properties":{"slug":"tualatin-hills","name":"Tualatin Hills"},"geometry":{"type":"Polygon","coordinates":[[[-122.92914,45.6658],[-122.92483,45.66506],[-122.92454,45.6674],[-122.92209,45.66912],[-122.92237,45.67049],[-122.9194,45.67129],[-122.91946,45.67317],[-122.91559,45.67657],[-122.91351,45.67452],[-122.91396,45.67224],[-122.91237,45.67126],[-122.91105,45.6691],[-122.91202,45.66732],[-122.91025,45.66333],[-122.90568,45.66584],[-122.90363,45.65842],[-122.89906,45.65619],[-122.89923,45.65333],[-122.89769,45.65111],[-122.89244,45.64728],[-122.89013,45.64681],[-122.88961,45.64556],[-122.8859,45.6439],[-122.8855,45.64321],[-122.88664,45.63933],[-122.88476,45.63339],[-122.8851,45.63249],[-122.88276,45.63078],[-122.8819,45.62735],[-122.88299,45.62581],[-122.88059,45.62455],[-122.87911,45.62272],[-122.87568,45.6213],[-122.87465,45.61924],[-122.87003,45.6149],[-122.86654,45.6145],[-122.8626,45.6109],[-122.86337,45.60881],[-122.86996,45.6053],[-122.87087,45.60301],[-122.86973,45.60147],[-122.86847,45.60033],[-122.86573,45.60033],[-122.86813,45.59896],[-122.87076,45.59878],[-122.87093,45.59656],[-122.87325,45.59196],[-122.89827,45.59202],[-122.89815,45.59693],[-122.9054,45.59541],[-122.91157,45.59524],[-122.94864,45.59838],[-122.96903,45.60106],[-122.9912,45.59735],[-123.02225,45.60019],[-123.06532,45.61625],[-123.1034,45.60862],[-123.11453,45.6091],[-123.11431,45.58306],[-123.10952,45.57518],[-123.109,45.56942],[-123.10586,45.56605],[-123.10609,45.54535],[-123.1078,45.53786],[-123.10689,45.53597],[-123.09826,45.53095],[-123.08542,45.52786],[-123.0841,45.52638],[-123.08404,45.52495],[-123.08427,45.51917],[-123.08507,45.51712],[-123.08833,45.51363],[-123.09146,45.51241],[-123.09141,45.50635],[-123.08856,45.49906],[-123.09158,45.49416],[-123.09224,45.48817],[-123.09485,45.48625],[-123.09866,45.48062],[-123.09871,45.48187],[-123.09981,45.48218],[-123.10891,45.47798],[-123.10904,45.4772],[-123.11052,45.47779],[-123.11476,45.47737],[-123.12311,45.47503],[-123.11831,45.4682],[-123.11293,45.46687],[-123.11311,45.46584],[-123.11106,45.46656],[-123.10808,45.46424],[-123.10928,45.46253],[-123.10476,45.46333],[-123.1061,45.46182],[-123.10372,45.46054],[-123.10153,45.46122],[-123.10234,45.45923],[-123.10061,45.45837],[-123.10425,45.45826],[-123.10718,45.45585],[-123.10604,45.45468],[-123.103,45.45373],[-123.10404,45.45337],[-123.10357,45.45269],[-123.10597,45.45195],[-123.10523,45.45071],[-123.10248,45.4496],[-123.10778,45.45014],[-123.10928,45.44869],[-123.11143,45.44855],[-123.11176,45.44795],[-123.10827,45.44652],[-123.10756,45.44547],[-123.11033,45.44604],[-123.10928,45.44461],[-123.11326,45.4461],[-123.11605,45.44595],[-123.11592,45.44023],[-123.11718,45.43973],[-123.12839,45.44071],[-123.13672,45.43723],[-123.14042,45.43738],[-123.14137,45.43831],[-123.1453,45.43705],[-123.15924,45.43758],[-123.16087,45.43669],[-123.1604,45.43732],[-123.16187,45.43791],[-123.16426,45.43558],[-123.1658,45.43522],[-123.16889,45.4361],[-123.17614,45.43556],[-123.17811,45.43638],[-123.18311,45.43572],[-123.18918,45.43364],[-123.28421,45.4337],[-123.2964,45.43595],[-123.30024,45.43565],[-123.29658,45.43771],[-123.29947,45.43994],[-123.29888,45.44147],[-123.30623,45.44368],[-123.31011,45.44573],[-123.31061,45.44717],[-123.30571,45.44536],[-123.29767,45.44512],[-123.29175,45.44376],[-123.28793,45.44113],[-123.27678,45.43899],[-123.27327,45.43955],[-123.27388,45.44161],[-123.27578,45.44259],[-123.27005,45.44372],[-123.28015,45.44814],[-123.28041,45.45042],[-123.27935,45.45171],[-123.28106,45.4526],[-123.28844,45.44918],[-123.28935,45.45069],[-123.29178,45.45133],[-123.29176,45.45226],[-123.29569,45.45185],[-123.29483,45.45435],[-123.30046,45.45604],[-123.29972,45.45817],[-123.3035,45.45832],[-123.3041,45.45978],[-123.30113,45.46099],[-123.30162,45.46252],[-123.30816,45.46264],[-123.31021,45.46337],[-123.3116,45.46291],[-123.31298,45.4638],[-123.31374,45.46313],[-123.31643,45.46307],[-123.31883,45.4602],[-123.31997,45.46237],[-123.3218,45.46285],[-123.32349,45.46134],[-123.32508,45.46303],[-123.32725,45.46356],[-123.32882,45.46493],[-123.33319,45.46382],[-123.33504,45.4619],[-123.33688,45.46262],[-123.33955,45.462],[-123.34238,45.46322],[-123.34414,45.46218],[-123.34501,45.463],[-123.35004,45.46414],[-123.35202,45.46327],[-123.3552,45.46351],[-123.35715,45.4621],[-123.3629,45.46487],[-123.36528,45.46468],[-123.36724,45.46572],[-123.3688,45.46533],[-123.36988,45.46649],[-123.37354,45.46587],[-123.37501,45.46661],[-123.37335,45.46627],[-123.3701,45.46711],[-123.36609,45.46625],[-123.36619,45.46848],[-123.36738,45.47016],[-123.36655,45.47142],[-123.36699,45.47339],[-123.36638,45.47403],[-123.36488,45.46594],[-123.35752,45.46454],[-123.35112,45.46647],[-123.34536,45.46548],[-123.33929,45.46555],[-123.3354,45.47095],[-123.33839,45.47295],[-123.33875,45.47452],[-123.33769,45.47334],[-123.33601,45.47343],[-123.3336,45.4711],[-123.33511,45.46669],[-123.32744,45.4683],[-123.32367,45.46778],[-123.32161,45.46844],[-123.32195,45.46911],[-123.32057,45.46995],[-123.3192,45.47337],[-123.31101,45.47132],[-123.30984,45.47177],[-123.31068,45.47321],[-123.3061,45.4742],[-123.30411,45.47363],[-123.30216,45.47462],[-123.29909,45.47476],[-123.2963,45.47294],[-123.2915,45.47423],[-123.28549,45.47171],[-123.27462,45.47097],[-123.27453,45.47445],[-123.27686,45.47465],[-123.27828,45.47621],[-123.27776,45.47732],[-123.27949,45.47846],[-123.27973,45.4798],[-123.28464,45.48093],[-123.28954,45.48326],[-123.29589,45.48185],[-123.30486,45.48673],[-123.30369,45.48799],[-123.30559,45.48942],[-123.30522,45.49036],[-123.30224,45.48842],[-123.3028,45.48687],[-123.29802,45.48594],[-123.29083,45.48954],[-123.29301,45.4912],[-123.29291,45.49219],[-123.29165,45.49161],[-123.28779,45.49226],[-123.2864,45.49464],[-123.2882,45.49615],[-123.28451,45.50063],[-123.28434,45.50195],[-123.28008,45.49848],[-123.28018,45.49623],[-123.28114,45.49543],[-123.27874,45.49412],[-123.28181,45.49388],[-123.28329,45.49186],[-123.27446,45.48657],[-123.26819,45.48559],[-123.26645,45.48994],[-123.26352,45.49112],[-123.26198,45.49308],[-123.26312,45.49468],[-123.26691,45.49492],[-123.26855,45.49593],[-123.26832,45.49711],[-123.26678,45.49803],[-123.27002,45.50046],[-123.26987,45.50239],[-123.26671,45.50308],[-123.2662,45.50397],[-123.27038,45.50631],[-123.27596,45.50773],[-123.27236,45.50927],[-123.27433,45.51014],[-123.27538,45.51166],[-123.27484,45.5137],[-123.27584,45.51474],[-123.2744,45.51711],[-123.27501,45.51834],[-123.27655,45.51872],[-123.27654,45.52132],[-123.27832,45.52226],[-123.27794,45.52325],[-123.2787,45.525],[-123.28054,45.52676],[-123.27826,45.52765],[-123.27925,45.52936],[-123.2831,45.5308],[-123.28342,45.53262],[-123.29704,45.53797],[-123.29534,45.53931],[-123.29556,45.53986],[-123.30023,45.5411],[-123.30192,45.54335],[-123.30384,45.54265],[-123.3058,45.54321],[-123.3055,45.54431],[-123.30655,45.54614],[-123.30518,45.54663],[-123.30512,45.54757],[-123.30712,45.54818],[-123.30712,45.54917],[-123.30433,45.54792],[-123.30376,45.54637],[-123.30504,45.54559],[-123.3038,45.54419],[-123.30084,45.54435],[-123.29872,45.54239],[-123.29416,45.54189],[-123.29223,45.53913],[-123.28609,45.53803],[-123.28424,45.53637],[-123.28149,45.53632],[-123.2793,45.53526],[-123.2782,45.53331],[-123.27467,45.53382],[-123.27125,45.52998],[-123.27197,45.52694],[-123.26836,45.52638],[-123.26427,45.52429],[-123.26243,45.52537],[-123.26096,45.52753],[-123.25922,45.52759],[-123.2576,45.52953],[-123.25403,45.53161],[-123.25394,45.53394],[-123.24819,45.53921],[-123.24661,45.53907],[-123.24984,45.53448],[-123.24926,45.53319],[-123.25116,45.53177],[-123.25199,45.52627],[-123.2567,45.51971],[-123.25215,45.51342],[-123.25143,45.51473],[-123.25181,45.51725],[-123.2468,45.51911],[-123.24511,45.51861],[-123.24375,45.52017],[-123.24419,45.52156],[-123.24254,45.52239],[-123.24022,45.51984],[-123.23741,45.52006],[-123.2368,45.51953],[-123.23814,45.51813],[-123.23659,45.51777],[-123.2327,45.51882],[-123.2322,45.51977],[-123.22853,45.5199],[-123.22819,45.521],[-123.22562,45.52173],[-123.22013,45.52107],[-123.22142,45.52659],[-123.21352,45.52223],[-123.21106,45.52169],[-123.20898,45.52312],[-123.20888,45.5254],[-123.20763,45.52762],[-123.20578,45.52195],[-123.20253,45.52394],[-123.20012,45.5231],[-123.20076,45.52154],[-123.20341,45.5203],[-123.20305,45.51688],[-123.201,45.5157],[-123.20013,45.51416],[-123.19988,45.51479],[-123.20212,45.51679],[-123.20215,45.51771],[-123.19915,45.5208],[-123.19736,45.52086],[-123.19473,45.51912],[-123.19406,45.52028],[-123.19218,45.52003],[-123.19207,45.51791],[-123.19336,45.51567],[-123.19064,45.51715],[-123.19093,45.51497],[-123.1888,45.5155],[-123.18873,45.51375],[-123.18604,45.51407],[-123.18495,45.51264],[-123.1822,45.51218],[-123.18056,45.51063],[-123.17836,45.51192],[-123.17873,45.51428],[-123.17739,45.51685],[-123.17806,45.51757],[-123.17982,45.51742],[-123.17931,45.52046],[-123.18083,45.52077],[-123.18263,45.51999],[-123.18447,45.52252],[-123.19177,45.52438],[-123.19144,45.52519],[-123.19217,45.52533],[-123.19224,45.5263],[-123.19585,45.529],[-123.1918,45.52882],[-123.19213,45.52993],[-123.19046,45.53009],[-123.18994,45.53092],[-123.18745,45.53009],[-123.18816,45.5317],[-123.18581,45.53244],[-123.1876,45.53345],[-123.18764,45.53469],[-123.18849,45.5342],[-123.19023,45.53479],[-123.19046,45.5357],[-123.18925,45.53619],[-123.19023,45.53789],[-123.19442,45.53903],[-123.19351,45.53971],[-123.19452,45.54014],[-123.19511,45.54208],[-123.19651,45.54226],[-123.19837,45.54394],[-123.2008,45.54308],[-123.2021,45.54367],[-123.20401,45.5421],[-123.20433,45.54334],[-123.20541,45.54358],[-123.20406,45.54468],[-123.20712,45.54788],[-123.21574,45.55234],[-123.2154,45.55312],[-123.2165,45.55426],[-123.21532,45.55486],[-123.21629,45.55525],[-123.21535,45.55543],[-123.21521,45.55662],[-123.21387,45.55665],[-123.2162,45.55816],[-123.21735,45.56026],[-123.22043,45.55985],[-123.22176,45.5616],[-123.22268,45.56091],[-123.22222,45.55976],[-123.22035,45.55948],[-123.22074,45.55816],[-123.21914,45.55569],[-123.22073,45.55462],[-123.22103,45.55184],[-123.21984,45.55041],[-123.22249,45.55153],[-123.22257,45.55267],[-123.22404,45.55302],[-123.2249,45.55481],[-123.22732,45.55466],[-123.22765,45.55593],[-123.22981,45.55456],[-123.23056,45.55556],[-123.23219,45.5552],[-123.23273,45.55645],[-123.23401,45.55623],[-123.23555,45.55438],[-123.23728,45.55411],[-123.23632,45.5523],[-123.23817,45.55057],[-123.23866,45.5493],[-123.23813,45.54831],[-123.2398,45.54842],[-123.24138,45.54912],[-123.24216,45.5507],[-123.24501,45.55148],[-123.24253,45.5526],[-123.24667,45.55535],[-123.24836,45.55552],[-123.24747,45.5566],[-123.25084,45.55779],[-123.25342,45.56137],[-123.25741,45.56077],[-123.26,45.5589],[-123.26029,45.55746],[-123.26194,45.55714],[-123.26285,45.55542],[-123.26638,45.55361],[-123.26699,45.55672],[-123.26499,45.5588],[-123.26638,45.55996],[-123.26358,45.56002],[-123.26206,45.56106],[-123.26274,45.56411],[-123.26097,45.56513],[-123.26045,45.56657],[-123.264,45.56789],[-123.26846,45.56818],[-123.26936,45.56885],[-123.26701,45.57183],[-123.27196,45.57145],[-123.27246,45.57284],[-123.27396,45.57292],[-123.27339,45.5738],[-123.27713,45.57561],[-123.2789,45.57582],[-123.28324,45.57427],[-123.28191,45.5758],[-123.28314,45.57697],[-123.28199,45.57847],[-123.27872,45.5772],[-123.27361,45.57704],[-123.27325,45.57614],[-123.27023,45.57489],[-123.26958,45.57534],[-123.26529,45.57444],[-123.26442,45.5754],[-123.26314,45.57511],[-123.26203,45.5764],[-123.25987,45.57651],[-123.25934,45.57883],[-123.2615,45.57951],[-123.26121,45.58096],[-123.26299,45.58218],[-123.26684,45.58177],[-123.26672,45.58471],[-123.26923,45.5827],[-123.27091,45.58236],[-123.27096,45.5852],[-123.27792,45.58337],[-123.27859,45.58466],[-123.27674,45.58644],[-123.2801,45.58745],[-123.27465,45.58844],[-123.27557,45.58999],[-123.27536,45.5932],[-123.27668,45.59332],[-123.27796,45.59505],[-123.28365,45.59591],[-123.28626,45.59534],[-123.28516,45.59724],[-123.27594,45.59712],[-123.27403,45.59777],[-123.27367,45.59828],[-123.27786,45.60008],[-123.282,45.60016],[-123.28229,45.60098],[-123.27529,45.6019],[-123.27688,45.60449],[-123.27984,45.6046],[-123.27719,45.60616],[-123.27884,45.60826],[-123.27616,45.60797],[-123.2759,45.6085],[-123.27767,45.61203],[-123.27068,45.60925],[-123.2676,45.6114],[-123.26554,45.61506],[-123.26868,45.6163],[-123.26625,45.61836],[-123.26912,45.62059],[-123.27288,45.61904],[-123.2766,45.61933],[-123.27718,45.61869],[-123.27673,45.61783],[-123.27953,45.61707],[-123.28302,45.61923],[-123.28432,45.62221],[-123.28621,45.62224],[-123.28544,45.62372],[-123.28692,45.62424],[-123.28644,45.62534],[-123.28754,45.62684],[-123.28825,45.63139],[-123.28754,45.63172],[-123.28266,45.62714],[-123.28137,45.62727],[-123.28291,45.62872],[-123.28318,45.63022],[-123.28454,45.63034],[-123.28701,45.6327],[-123.28758,45.63477],[-123.28398,45.6361],[-123.28121,45.63513],[-123.27892,45.63633],[-123.27784,45.63799],[-123.28029,45.63869],[-123.28168,45.64098],[-123.28433,45.64093],[-123.28847,45.64238],[-123.29031,45.64083],[-123.29001,45.6392],[-123.29106,45.63785],[-123.2945,45.63855],[-123.29412,45.63936],[-123.29523,45.64107],[-123.29789,45.64077],[-123.29804,45.6433],[-123.29892,45.64358],[-123.29835,45.64507],[-123.30101,45.64581],[-123.30067,45.648],[-123.30331,45.64893],[-123.30395,45.65128],[-123.30556,45.6505],[-123.30688,45.65122],[-123.30742,45.64874],[-123.30998,45.6487],[-123.31046,45.64789],[-123.31212,45.64762],[-123.31112,45.64564],[-123.31317,45.64472],[-123.316,45.64468],[-123.31771,45.64142],[-123.31721,45.63986],[-123.31771,45.63805],[-123.31547,45.63572],[-123.31658,45.6355],[-123.31664,45.63454],[-123.31527,45.63021],[-123.31719,45.63098],[-123.31823,45.63451],[-123.32016,45.63366],[-123.3188,45.63643],[-123.32116,45.63974],[-123.32064,45.64296],[-123.32402,45.64638],[-123.32703,45.64672],[-123.32934,45.64586],[-123.3334,45.64788],[-123.33588,45.64507],[-123.33723,45.64649],[-123.3425,45.64792],[-123.34446,45.64524],[-123.35065,45.64451],[-123.36171,45.63849],[-123.36216,45.6391],[-123.36081,45.64095],[-123.36088,45.64211],[-123.37006,45.64299],[-123.36968,45.64364],[-123.36055,45.64377],[-123.35221,45.64857],[-123.3542,45.65044],[-123.35394,45.65114],[-123.35004,45.64979],[-123.34251,45.65276],[-123.34269,45.65355],[-123.34566,45.65308],[-123.34676,45.65381],[-123.34405,45.65474],[-123.34416,45.65615],[-123.34589,45.65636],[-123.34465,45.65797],[-123.34618,45.6591],[-123.3433,45.65938],[-123.34211,45.6619],[-123.34346,45.66306],[-123.34222,45.66356],[-123.3413,45.66523],[-123.34048,45.66054],[-123.33927,45.65891],[-123.33968,45.65807],[-123.33827,45.65697],[-123.33714,45.65428],[-123.33589,45.6549],[-123.33654,45.65669],[-123.33466,45.65764],[-123.33399,45.6563],[-123.32953,45.65528],[-123.33164,45.65258],[-123.33027,45.6508],[-123.32821,45.65112],[-123.32639,45.65251],[-123.32563,45.65645],[-123.32808,45.65808],[-123.32941,45.66187],[-123.33137,45.66287],[-123.3309,45.6638],[-123.33186,45.66531],[-123.33058,45.66592],[-123.33115,45.66703],[-123.32975,45.66764],[-123.32864,45.66676],[-123.32782,45.66759],[-123.32604,45.66613],[-123.32423,45.66584],[-123.325,45.66919],[-123.32446,45.67014],[-123.32206,45.66969],[-123.32165,45.67057],[-123.31971,45.67041],[-123.31814,45.6711],[-123.31662,45.67313],[-123.3167,45.67404],[-123.31785,45.67446],[-123.32098,45.67357],[-123.32229,45.67458],[-123.32577,45.67479],[-123.32417,45.67571],[-123.32427,45.67744],[-123.31828,45.6764],[-123.31953,45.67775],[-123.31989,45.68032],[-123.32114,45.68074],[-123.32229,45.68262],[-123.31832,45.68176],[-123.3184,45.68091],[-123.31656,45.67903],[-123.31639,45.67694],[-123.30978,45.6753],[-123.30983,45.67637],[-123.31221,45.67735],[-123.31242,45.67963],[-123.31358,45.68121],[-123.31118,45.68106],[-123.30999,45.68006],[-123.30689,45.68044],[-123.30741,45.6825],[-123.30663,45.68339],[-123.30781,45.68531],[-123.30641,45.68647],[-123.30797,45.68694],[-123.30765,45.68781],[-123.30855,45.68934],[-123.30491,45.68785],[-123.30442,45.68907],[-123.30075,45.68843],[-123.29985,45.68709],[-123.29842,45.68813],[-123.29806,45.68994],[-123.30088,45.68997],[-123.30254,45.69101],[-123.3049,45.69093],[-123.30561,45.69215],[-123.30965,45.69265],[-123.3066,45.69437],[-123.3042,45.69403],[-123.30434,45.69562],[-123.30088,45.69623],[-123.29982,45.69556],[-123.29414,45.69835],[-123.29443,45.6993],[-123.29673,45.70001],[-123.29858,45.69903],[-123.30166,45.69882],[-123.30324,45.70065],[-123.30199,45.70211],[-123.30448,45.70286],[-123.30433,45.70391],[-123.30286,45.70454],[-123.2998,45.70454],[-123.29949,45.70562],[-123.30206,45.70604],[-123.3005,45.70636],[-123.2978,45.70883],[-123.29532,45.70722],[-123.29143,45.7071],[-123.29017,45.70849],[-123.28918,45.7076],[-123.28712,45.70745],[-123.28629,45.70636],[-123.28432,45.7072],[-123.2827,45.70603],[-123.27936,45.70766],[-123.27626,45.70616],[-123.27861,45.7048],[-123.27731,45.70383],[-123.2708,45.70594],[-123.27039,45.70134],[-123.27335,45.70063],[-123.27367,45.69981],[-123.27512,45.69999],[-123.27592,45.69824],[-123.27761,45.69832],[-123.27747,45.69714],[-123.27934,45.69674],[-123.27858,45.69582],[-123.27701,45.69584],[-123.27682,45.69402],[-123.2746,45.69479],[-123.27372,45.6941],[-123.27576,45.69122],[-123.27586,45.68982],[-123.27862,45.68674],[-123.28007,45.68616],[-123.28008,45.68541],[-123.27906,45.68488],[-123.27728,45.68618],[-123.27474,45.6863],[-123.27012,45.68454],[-123.26902,45.68502],[-123.26702,45.68447],[-123.26533,45.68288],[-123.26238,45.6833],[-123.26176,45.68237],[-123.26206,45.67878],[-123.25998,45.67799],[-123.26128,45.67643],[-123.26016,45.67374],[-123.25819,45.67365],[-123.25482,45.67193],[-123.26096,45.67138],[-123.2621,45.67003],[-123.26081,45.66712],[-123.25935,45.66688],[-123.25884,45.66368],[-123.25714,45.66292],[-123.25846,45.6599],[-123.2561,45.65704],[-123.25468,45.6569],[-123.25289,45.65542],[-123.24968,45.65731],[-123.24683,45.65532],[-123.24625,45.65346],[-123.24269,45.654],[-123.24138,45.65165],[-123.23874,45.65197],[-123.23808,45.65308],[-123.23478,45.65088],[-123.2348,45.64982],[-123.23202,45.64768],[-123.22957,45.64746],[-123.22976,45.64655],[-123.22698,45.64537],[-123.22514,45.64328],[-123.22251,45.64384],[-123.22472,45.64164],[-123.22296,45.64091],[-123.22324,45.64006],[-123.22192,45.6387],[-123.22478,45.63893],[-123.22203,45.63647],[-123.22173,45.6349],[-123.22095,45.63515],[-123.22096,45.63702],[-123.21847,45.63919],[-123.21802,45.63805],[-123.21866,45.63652],[-123.21653,45.6358],[-123.21474,45.63628],[-123.2154,45.63776],[-123.21199,45.63806],[-123.21213,45.63955],[-123.20956,45.63881],[-123.21038,45.64182],[-123.20705,45.64019],[-123.20564,45.64026],[-123.20402,45.64249],[-123.20819,45.64338],[-123.20317,45.64592],[-123.2081,45.64662],[-123.20521,45.64833],[-123.20656,45.64927],[-123.20643,45.65059],[-123.21486,45.65196],[-123.20642,45.65229],[-123.20365,45.65637],[-123.20438,45.6575],[-123.20607,45.65737],[-123.2043,45.65874],[-123.20467,45.66024],[-123.20709,45.6619],[-123.20885,45.66124],[-123.21035,45.663],[-123.21215,45.66268],[-123.21132,45.66441],[-123.2128,45.66484],[-123.2135,45.66635],[-123.21628,45.66676],[-123.2167,45.66909],[-123.2183,45.6676],[-123.22103,45.66717],[-123.22214,45.66728],[-123.22236,45.66882],[-123.22341,45.66885],[-123.22633,45.66782],[-123.22685,45.66601],[-123.23056,45.66507],[-123.2296,45.66726],[-123.23232,45.66705],[-123.23233,45.66933],[-123.23382,45.67059],[-123.2333,45.67173],[-123.23568,45.67359],[-123.23455,45.67513],[-123.23109,45.67473],[-123.22928,45.6763],[-123.22958,45.67796],[-123.23496,45.67731],[-123.23233,45.67811],[-123.23191,45.6789],[-123.23276,45.67984],[-123.23238,45.68082],[-123.23581,45.68248],[-123.23971,45.68063],[-123.24115,45.6817],[-123.24487,45.68125],[-123.2444,45.68274],[-123.24625,45.68402],[-123.2463,45.68623],[-123.24712,45.68726],[-123.24517,45.68727],[-123.24646,45.68879],[-123.24472,45.69028],[-123.24922,45.69157],[-123.25031,45.68977],[-123.25363,45.69196],[-123.25684,45.69247],[-123.25904,45.70028],[-123.25773,45.70216],[-123.26039,45.70369],[-123.25868,45.70432],[-123.25744,45.70618],[-123.25609,45.70448],[-123.25504,45.70466],[-123.25411,45.70622],[-123.25046,45.70789],[-123.24826,45.70997],[-123.24509,45.70986],[-123.24632,45.71142],[-123.2446,45.71242],[-123.23898,45.71889],[-123.23836,45.72135],[-123.23386,45.72224],[-123.23123,45.72433],[-123.2333,45.72539],[-123.23929,45.72543],[-123.23488,45.72686],[-123.23078,45.72663],[-123.23153,45.72796],[-123.23616,45.72827],[-123.23776,45.7296],[-123.22902,45.72973],[-123.23036,45.73135],[-123.23455,45.73246],[-123.23158,45.73264],[-123.22674,45.73134],[-123.22519,45.73267],[-123.22278,45.73322],[-123.22172,45.73447],[-123.22302,45.73562],[-123.22171,45.73595],[-123.22405,45.73715],[-123.22013,45.73705],[-123.22209,45.73868],[-123.2171,45.74041],[-123.21731,45.7431],[-123.21282,45.74042],[-123.21014,45.74292],[-123.21006,45.74594],[-123.20445,45.74774],[-123.20361,45.75112],[-123.19615,45.75114],[-123.19458,45.74942],[-123.1906,45.74998],[-123.19058,45.74894],[-123.19183,45.74813],[-123.19162,45.74673],[-123.19072,45.7464],[-123.1927,45.74355],[-123.19045,45.7416],[-123.19303,45.74089],[-123.19328,45.73926],[-123.19049,45.73728],[-123.18728,45.73758],[-123.18618,45.73696],[-123.18788,45.73475],[-123.1874,45.73393],[-123.18441,45.73433],[-123.1817,45.73986],[-123.17979,45.74086],[-123.18107,45.73794],[-123.17729,45.73872],[-123.1814,45.73643],[-123.18041,45.73534],[-123.17955,45.72987],[-123.1769,45.73168],[-123.17642,45.73097],[-123.17703,45.72834],[-123.18309,45.7238],[-123.1834,45.72281],[-123.18191,45.72105],[-123.1802,45.72282],[-123.17874,45.72259],[-123.17506,45.72428],[-123.17558,45.72292],[-123.175,45.72109],[-123.17288,45.7194],[-123.17014,45.71912],[-123.16937,45.71756],[-123.16662,45.7187],[-123.16568,45.72003],[-123.16611,45.71812],[-123.16506,45.71751],[-123.16451,45.71276],[-123.16215,45.71141],[-123.1604,45.71548],[-123.1576,45.71629],[-123.15522,45.7182],[-123.15689,45.72072],[-123.15382,45.71956],[-123.14914,45.72128],[-123.14808,45.72238],[-123.14898,45.72],[-123.15066,45.71992],[-123.15284,45.71783],[-123.15466,45.71299],[-123.15255,45.71328],[-123.15239,45.71219],[-123.15154,45.7121],[-123.15046,45.7145],[-123.14895,45.71419],[-123.14834,45.7131],[-123.14399,45.71394],[-123.14176,45.7137],[-123.14146,45.71216],[-123.13921,45.71284],[-123.13882,45.71221],[-123.14168,45.71078],[-123.14101,45.70796],[-123.14,45.70739],[-123.14105,45.70635],[-123.14451,45.70549],[-123.14989,45.70154],[-123.14848,45.69917],[-123.14867,45.6975],[-123.14693,45.69482],[-123.14694,45.69302],[-123.14235,45.68559],[-123.14172,45.68518],[-123.14054,45.6864],[-123.13954,45.68998],[-123.14192,45.69639],[-123.13756,45.69411],[-123.13686,45.69704],[-123.1338,45.69789],[-123.13375,45.6969],[-123.12954,45.69501],[-123.12867,45.69241],[-123.12695,45.69051],[-123.12446,45.69232],[-123.12302,45.69184],[-123.12296,45.69323],[-123.12155,45.69353],[-123.11789,45.68994],[-123.11829,45.68663],[-123.12093,45.68426],[-123.12409,45.68303],[-123.12459,45.68191],[-123.12317,45.68126],[-123.1205,45.68213],[-123.11895,45.68035],[-123.11819,45.68117],[-123.11601,45.67708],[-123.11621,45.67604],[-123.11401,45.67408],[-123.11495,45.67333],[-123.11347,45.67184],[-123.11157,45.67327],[-123.10823,45.67403],[-123.10398,45.67371],[-123.10238,45.67107],[-123.1043,45.66949],[-123.10006,45.66651],[-123.10036,45.66889],[-123.09541,45.66762],[-123.09422,45.66957],[-123.09072,45.67068],[-123.08871,45.67225],[-123.08789,45.67323],[-123.08908,45.67457],[-123.08813,45.6771],[-123.09184,45.67741],[-123.09296,45.67578],[-123.09545,45.67601],[-123.09632,45.6749],[-123.09758,45.67557],[-123.09904,45.67471],[-123.1011,45.67582],[-123.1027,45.67561],[-123.10611,45.67793],[-123.10232,45.67833],[-123.10045,45.67995],[-123.09768,45.67898],[-123.09308,45.68112],[-123.09377,45.68242],[-123.09327,45.68349],[-123.08974,45.68565],[-123.09416,45.68541],[-123.0918,45.68606],[-123.09033,45.68788],[-123.08703,45.68912],[-123.08918,45.69023],[-123.0915,45.68806],[-123.09677,45.68833],[-123.09823,45.68651],[-123.1,45.68722],[-123.10505,45.68697],[-123.10493,45.68852],[-123.1065,45.68943],[-123.10352,45.68992],[-123.10069,45.69163],[-123.10121,45.6946],[-123.10023,45.69684],[-123.0981,45.69792],[-123.09995,45.70098],[-123.09893,45.70166],[-123.09899,45.70305],[-123.09868,45.70188],[-123.09859,45.70311],[-123.09767,45.70232],[-123.0956,45.7023],[-123.09344,45.70327],[-123.091,45.70278],[-123.08834,45.70397],[-123.08778,45.70582],[-123.08835,45.70929],[-123.08669,45.7123],[-123.08762,45.71315],[-123.08433,45.71541],[-123.0851,45.7173],[-123.08329,45.72122],[-123.0864,45.72535],[-123.08961,45.7261],[-123.08871,45.72656],[-123.09186,45.72912],[-123.09569,45.73075],[-123.09571,45.73136],[-123.10092,45.73254],[-123.10006,45.73388],[-123.10312,45.73663],[-123.09707,45.73364],[-123.0959,45.73445],[-123.09572,45.73699],[-123.09338,45.73748],[-123.09328,45.73635],[-123.09023,45.73596],[-123.08989,45.73694],[-123.08837,45.7357],[-123.0867,45.7356],[-123.08674,45.73451],[-123.08255,45.73241],[-123.08096,45.7344],[-123.08172,45.7356],[-123.07894,45.73588],[-123.07862,45.73524],[-123.08051,45.73291],[-123.07982,45.73162],[-123.07427,45.73484],[-123.07224,45.73823],[-123.07502,45.73694],[-123.07707,45.73715],[-123.07509,45.73751],[-123.0735,45.73932],[-123.07491,45.74048],[-123.07304,45.74438],[-123.07348,45.74654],[-123.07674,45.74879],[-123.07626,45.74971],[-123.07707,45.75117],[-123.08172,45.75272],[-123.08324,45.75252],[-123.08218,45.75318],[-123.07778,45.75292],[-123.0793,45.75489],[-123.07889,45.75596],[-123.08238,45.75668],[-123.08169,45.75751],[-123.0822,45.75857],[-123.08639,45.76102],[-123.08855,45.76408],[-123.07986,45.7592],[-123.078,45.75738],[-123.07744,45.7589],[-123.07498,45.76019],[-123.07522,45.76326],[-123.07314,45.76179],[-123.07147,45.76238],[-123.07067,45.76294],[-123.0713,45.76376],[-123.07093,45.76529],[-123.06948,45.76314],[-123.07136,45.76097],[-123.07018,45.75887],[-123.07177,45.75565],[-123.07434,45.75488],[-123.07485,45.75273],[-123.07361,45.753],[-123.072,45.75021],[-123.06918,45.74845],[-123.06529,45.75074],[-123.06558,45.74901],[-123.06461,45.74795],[-123.05889,45.75003],[-123.0612,45.74806],[-123.06326,45.74461],[-123.06241,45.74283],[-123.06162,45.74268],[-123.06248,45.74159],[-123.06126,45.73915],[-123.063,45.73741],[-123.06241,45.73617],[-123.0572,45.73528],[-123.058,45.73674],[-123.05745,45.73848],[-123.05396,45.74172],[-123.05598,45.73689],[-123.05287,45.7334],[-123.05439,45.73346],[-123.05444,45.73209],[-123.05742,45.72813],[-123.0616,45.72918],[-123.06273,45.73024],[-123.06445,45.72998],[-123.06566,45.72724],[-123.06495,45.72644],[-123.06642,45.72445],[-123.06474,45.72301],[-123.06572,45.72242],[-123.06497,45.72001],[-123.06369,45.71921],[-123.0622,45.71977],[-123.06086,45.71842],[-123.05843,45.72155],[-123.05908,45.72404],[-123.05567,45.7225],[-123.04966,45.72461],[-123.05095,45.7228],[-123.0509,45.72158],[-123.05241,45.72112],[-123.05202,45.71885],[-123.0528,45.71725],[-123.04508,45.71376],[-123.05138,45.71411],[-123.05305,45.71274],[-123.04895,45.70932],[-123.04731,45.70669],[-123.04847,45.7033],[-123.04693,45.70189],[-123.04771,45.70031],[-123.04616,45.69859],[-123.04754,45.69698],[-123.0455,45.69504],[-123.04692,45.69131],[-123.04577,45.68975],[-123.04519,45.6867],[-123.04373,45.6869],[-123.03847,45.68442],[-123.03716,45.68202],[-123.03082,45.68173],[-123.03108,45.68002],[-123.02889,45.67813],[-123.02523,45.67683],[-123.0258,45.67589],[-123.02396,45.67287],[-123.0202,45.6697],[-123.01608,45.66967],[-123.01934,45.67138],[-123.01924,45.67294],[-123.01788,45.67382],[-123.01948,45.67426],[-123.0178,45.67577],[-123.01908,45.67686],[-123.0166,45.67779],[-123.01897,45.67975],[-123.01892,45.68182],[-123.02254,45.68177],[-123.02052,45.68339],[-123.02285,45.6849],[-123.02985,45.68615],[-123.02944,45.68712],[-123.03174,45.68801],[-123.03342,45.69073],[-123.02862,45.68785],[-123.02714,45.6883],[-123.02642,45.68712],[-123.02063,45.68679],[-123.01853,45.68571],[-123.01684,45.68651],[-123.0165,45.68837],[-123.01537,45.68643],[-123.01315,45.68643],[-123.01426,45.68508],[-123.01633,45.68474],[-123.01395,45.68327],[-123.01266,45.68068],[-123.01172,45.68026],[-123.01138,45.67783],[-123.00875,45.67675],[-123.00816,45.67711],[-123.00836,45.67852],[-123.00569,45.67772],[-123.00456,45.67878],[-123.00263,45.67606],[-122.99972,45.67985],[-122.99845,45.67567],[-122.99606,45.67452],[-122.99493,45.67323],[-122.99508,45.67228],[-122.99356,45.67233],[-122.98484,45.67814],[-122.98814,45.6795],[-122.99253,45.67825],[-122.99468,45.67939],[-122.99661,45.68506],[-123.00074,45.68657],[-123.00417,45.68974],[-123.00448,45.69113],[-123.00304,45.69199],[-123.00244,45.6941],[-123.00726,45.69662],[-123.00126,45.69538],[-122.99976,45.69744],[-122.99992,45.69853],[-123.00426,45.7021],[-123.00432,45.70349],[-122.99997,45.70018],[-122.99923,45.70048],[-122.99836,45.70321],[-122.99779,45.69976],[-122.99156,45.69986],[-122.9861,45.69574],[-122.99033,45.69823],[-122.99635,45.69853],[-122.99781,45.69791],[-122.9988,45.6963],[-122.9985,45.69458],[-123.00014,45.69382],[-122.99968,45.69272],[-123.00094,45.69237],[-123.00188,45.6903],[-122.99984,45.68881],[-122.9943,45.6869],[-122.99124,45.68232],[-122.98674,45.6834],[-122.97872,45.68271],[-122.97357,45.68081],[-122.97229,45.67934],[-122.97216,45.67779],[-122.97053,45.67642],[-122.96835,45.6765],[-122.9688,45.67477],[-122.96795,45.67159],[-122.96932,45.66993],[-122.96922,45.66852],[-122.9677,45.66736],[-122.96792,45.66493],[-122.96425,45.66376],[-122.96116,45.66633],[-122.96225,45.66819],[-122.96074,45.66888],[-122.96149,45.67066],[-122.96093,45.67185],[-122.96392,45.67404],[-122.95818,45.6732],[-122.95897,45.67192],[-122.95634,45.67046],[-122.95824,45.67019],[-122.9564,45.66799],[-122.95138,45.66853],[-122.95206,45.66665],[-122.94658,45.66591],[-122.94444,45.66652],[-122.94292,45.66841],[-122.94371,45.66942],[-122.94326,45.67078],[-122.94434,45.67126],[-122.94314,45.67277],[-122.94398,45.67304],[-122.94191,45.67593],[-122.94415,45.67813],[-122.94557,45.67838],[-122.94289,45.67853],[-122.94226,45.68006],[-122.9427,45.68157],[-122.9408,45.68046],[-122.93967,45.67723],[-122.93771,45.6779],[-122.93378,45.67589],[-122.93733,45.67613],[-122.94058,45.67377],[-122.9394,45.67052],[-122.93867,45.67031],[-122.93923,45.66854],[-122.93661,45.66755],[-122.93857,45.66673],[-122.93862,45.66537],[-122.94099,45.66327],[-122.94024,45.66225],[-122.94335,45.66119],[-122.94335,45.66244],[-122.94432,45.66293],[-122.94575,45.66231],[-122.94592,45.66322],[-122.94681,45.66335],[-122.94724,45.66203],[-122.95041,45.65987],[-122.95129,45.6615],[-122.9542,45.66147],[-122.95264,45.66051],[-122.95218,45.65924],[-122.95283,45.65797],[-122.95149,45.65762],[-122.95197,45.65665],[-122.94915,45.65677],[-122.94951,45.65505],[-122.94665,45.65472],[-122.94755,45.65254],[-122.94593,45.65208],[-122.94364,45.65353],[-122.94495,45.6549],[-122.94429,45.65591],[-122.94468,45.65734],[-122.94338,45.65761],[-122.94223,45.65628],[-122.94038,45.65701],[-122.93937,45.65661],[-122.93896,45.65845],[-122.93714,45.65974],[-122.9359,45.65838],[-122.93575,45.65592],[-122.93359,45.65666],[-122.93243,45.65566],[-122.93117,45.65582],[-122.93185,45.65874],[-122.93098,45.6596],[-122.92911,45.65814],[-122.92914,45.6658]]]}}]}