{"type":"FeatureCollection","features":[{"type":"Feature","properties":{"slug":"van-duzer-corridor","name":"Van Duzer Corridor"},"geometry":{"type":"MultiPolygon","coordinates":[[[[-123.16296,44.93308],[-123.16295,44.93308],[-123.16296,44.93307],[-123.16296,44.93308]]],[[[-123.40269,45.008],[-123.40276,45.00972],[-123.40204,45.01037],[-123.40193,45.0384],[-123.40499,45.03843],[-123.40526,45.04197],[-123.40784,45.0423],[-123.40796,45.05161],[-123.41246,45.05162],[-123.41257,45.07757],[-123.41344,45.08474],[-123.40733,45.08651],[-123.1861,45.0864],[-123.18687,45.04327],[-123.18521,45.04553],[-123.1839,45.04417],[-123.18164,45.04506],[-123.18378,45.04143],[-123.18117,45.03941],[-123.18236,45.03852],[-123.18134,45.03774],[-123.18384,45.03667],[-123.17718,45.03536],[-123.17665,45.03352],[-123.1801,45.03376],[-123.17831,45.03203],[-123.17843,45.03114],[-123.18081,45.03102],[-123.18344,45.03205],[-123.18392,45.03122],[-123.1838,45.01368],[-123.18967,45.0137],[-123.18806,45.01201],[-123.19212,45.01144],[-123.19559,45.0127],[-123.19999,45.01213],[-123.20132,45.01622],[-123.20562,45.01487],[-123.2059,45.01354],[-123.20242,45.00815],[-123.2033,45.00556],[-123.20515,45.00517],[-123.20757,45.00188],[-123.20881,44.99466],[-123.20594,44.98609],[-123.19974,44.97788],[-123.19812,44.97378],[-123.19864,44.97126],[-123.19708,44.96744],[-123.19583,44.96716],[-123.19292,44.97144],[-123.19089,44.97199],[-123.18975,44.97497],[-123.18739,44.97579],[-123.18704,44.97141],[-123.18947,44.96385],[-123.18034,44.96346],[-123.18572,44.95945],[-123.18705,44.95436],[-123.18451,44.95356],[-123.17857,44.95412],[-123.17706,44.95094],[-123.17521,44.95047],[-123.18042,44.94754],[-123.18057,44.94592],[-123.17831,44.94385],[-123.17736,44.9442],[-123.17793,44.947],[-123.17636,44.94774],[-123.17384,44.94608],[-123.1701,44.94653],[-123.16736,44.94556],[-123.16547,44.94249],[-123.16352,44.94212],[-123.16265,44.93833],[-123.16088,44.93629],[-123.15968,44.93638],[-123.15988,44.93562],[-123.16339,44.9344],[-123.16296,44.93308],[-123.22855,44.93463],[-123.23908,44.93409],[-123.30044,44.96937],[-123.36888,45.00387],[-123.38158,45.00751],[-123.40269,45.008]]]]}}]}