{"type":"FeatureCollection","features":[{"type":"Feature","properties":{"slug":"walla-walla-valley","name":"Walla Walla Valley"},"geometry":{"type":"Polygon","coordinates":[[[-118.21547,46.00058],[-118.21835,45.99987],[-118.21686,45.99678],[-118.21811,45.99529],[-118.21799,45.99371],[-118.21447,45.99258],[-118.2135,45.99125],[-118.21118,45.99135],[-118.21092,45.99038],[-118.20394,45.98726],[-118.20032,45.98399],[-118.2074,45.98666],[-118.21941,45.98823],[-118.21887,45.98646],[-118.22304,45.98498],[-118.22012,45.98278],[-118.22187,45.9817],[-118.22771,45.9807],[-118.22837,45.97743],[-118.22538,45.9767],[-118.22012,45.97699],[-118.22128,45.97586],[-118.22698,45.97368],[-118.22733,45.97243],[-118.2243,45.96951],[-118.2168,45.97065],[-118.22264,45.96659],[-118.22155,45.96426],[-118.2173,45.9639],[-118.21997,45.96217],[-118.21744,45.95995],[-118.21593,45.95971],[-118.21463,45.95723],[-118.21302,45.95632],[-118.20899,45.95819],[-118.20515,45.9581],[-118.21126,45.95563],[-118.20826,45.9529],[-118.2055,45.94834],[-118.20965,45.95268],[-118.21721,45.95658],[-118.21811,45.95629],[-118.21846,45.95756],[-118.2219,45.95942],[-118.22518,45.95763],[-118.22608,45.95925],[-118.22527,45.96021],[-118.22556,45.96113],[-118.23018,45.96471],[-118.23185,45.96487],[-118.23628,45.96991],[-118.23754,45.96688],[-118.23466,45.96186],[-118.2407,45.96377],[-118.24266,45.96249],[-118.2464,45.96318],[-118.24752,45.96193],[-118.24656,45.95977],[-118.24047,45.95934],[-118.24301,45.95648],[-118.23888,45.95483],[-118.24138,45.95323],[-118.24101,45.95169],[-118.23864,45.95046],[-118.23197,45.94982],[-118.23505,45.94893],[-118.23602,45.94702],[-118.23879,45.94683],[-118.23909,45.94347],[-118.23825,45.94234],[-118.23909,45.93997],[-118.23817,45.93826],[-118.23996,45.93953],[-118.2434,45.94496],[-118.24574,45.94683],[-118.24809,45.94451],[-118.24484,45.93822],[-118.24571,45.9366],[-118.24595,45.93272],[-118.24788,45.93699],[-118.2497,45.93895],[-118.25164,45.93862],[-118.25723,45.94233],[-118.26263,45.94212],[-118.26293,45.94134],[-118.26153,45.93978],[-118.25734,45.93897],[-118.26061,45.93698],[-118.26126,45.93524],[-118.25935,45.93447],[-118.25967,45.93309],[-118.25787,45.9317],[-118.25558,45.92752],[-118.26201,45.92958],[-118.26669,45.92843],[-118.2677,45.92773],[-118.26708,45.92626],[-118.26854,45.925],[-118.26741,45.92129],[-118.27601,45.92797],[-118.27677,45.92738],[-118.27767,45.92119],[-118.27539,45.91906],[-118.27198,45.91948],[-118.27282,45.91744],[-118.27183,45.91585],[-118.2616,45.91084],[-118.2752,45.91364],[-118.27565,45.90906],[-118.27164,45.90872],[-118.27199,45.90733],[-118.27053,45.90626],[-118.27061,45.90497],[-118.26687,45.90512],[-118.2671,45.90759],[-118.26461,45.90774],[-118.26463,45.90674],[-118.26354,45.90616],[-118.26037,45.90667],[-118.26006,45.90582],[-118.26219,45.90341],[-118.26064,45.90359],[-118.25493,45.90776],[-118.25584,45.90479],[-118.25387,45.90455],[-118.2541,45.90362],[-118.25739,45.90095],[-118.25593,45.90038],[-118.25409,45.90058],[-118.253,45.90184],[-118.25137,45.90063],[-118.24925,45.90102],[-118.24836,45.90208],[-118.24648,45.90164],[-118.24532,45.90327],[-118.24385,45.90218],[-118.23249,45.90301],[-118.24325,45.90041],[-118.24742,45.89855],[-118.24791,45.89753],[-118.24286,45.89519],[-118.24026,45.89566],[-118.24002,45.89428],[-118.23741,45.89387],[-118.23562,45.89226],[-118.23318,45.89328],[-118.23298,45.89172],[-118.22864,45.89275],[-118.23067,45.89101],[-118.22704,45.88953],[-118.22341,45.8888],[-118.22197,45.88927],[-118.22194,45.88847],[-118.21333,45.8866],[-118.21269,45.88832],[-118.21163,45.88634],[-118.20668,45.88601],[-118.20614,45.88536],[-118.20208,45.88628],[-118.19949,45.88571],[-118.19521,45.88754],[-118.19136,45.88668],[-118.19521,45.88671],[-118.19922,45.88479],[-118.20396,45.88448],[-118.20522,45.88366],[-118.20793,45.88431],[-118.21545,45.88392],[-118.21813,45.8855],[-118.22044,45.88503],[-118.22328,45.88598],[-118.22425,45.88541],[-118.22616,45.88646],[-118.22792,45.88566],[-118.22843,45.88647],[-118.23252,45.88781],[-118.23448,45.88699],[-118.23515,45.88824],[-118.23717,45.88799],[-118.23779,45.88887],[-118.2403,45.88955],[-118.24127,45.8891],[-118.24223,45.89039],[-118.24496,45.89047],[-118.24554,45.8913],[-118.25017,45.89268],[-118.25341,45.8924],[-118.25446,45.8945],[-118.25774,45.89422],[-118.25826,45.89523],[-118.26711,45.89764],[-118.26828,45.89674],[-118.26692,45.89389],[-118.26892,45.89434],[-118.26989,45.89319],[-118.27118,45.89344],[-118.27215,45.8959],[-118.27503,45.89711],[-118.2832,45.89833],[-118.28502,45.89664],[-118.28445,45.89548],[-118.28101,45.8941],[-118.2817,45.89269],[-118.27955,45.89136],[-118.27618,45.89153],[-118.27605,45.88988],[-118.27439,45.88969],[-118.2741,45.88855],[-118.27244,45.88747],[-118.26995,45.88682],[-118.26581,45.88918],[-118.26527,45.88825],[-118.266,45.88474],[-118.26187,45.88312],[-118.2608,45.88324],[-118.25993,45.88508],[-118.26039,45.88585],[-118.25863,45.88768],[-118.25731,45.88688],[-118.25531,45.88723],[-118.25644,45.88453],[-118.25492,45.88427],[-118.25418,45.885],[-118.25258,45.88356],[-118.25615,45.88221],[-118.25634,45.88119],[-118.25161,45.87789],[-118.24711,45.87935],[-118.24838,45.87632],[-118.24492,45.87439],[-118.24305,45.87441],[-118.24116,45.8758],[-118.24204,45.87262],[-118.23913,45.87039],[-118.23468,45.87069],[-118.23681,45.86925],[-118.2343,45.86825],[-118.23104,45.86555],[-118.22348,45.86956],[-118.21863,45.87058],[-118.22442,45.86747],[-118.2276,45.86429],[-118.22518,45.86304],[-118.22278,45.86302],[-118.22384,45.86212],[-118.22174,45.86118],[-118.21968,45.86108],[-118.22013,45.86029],[-118.21938,45.85919],[-118.21608,45.85696],[-118.21496,45.85476],[-118.21192,45.85346],[-118.20996,45.8541],[-118.21038,45.85266],[-118.20466,45.85084],[-118.20479,45.85027],[-118.20169,45.84794],[-118.19675,45.84751],[-118.1969,45.84664],[-118.19218,45.84334],[-118.19058,45.84336],[-118.19147,45.84267],[-118.19018,45.84175],[-118.18455,45.83935],[-118.18255,45.83733],[-118.17763,45.8347],[-118.18256,45.83544],[-118.18539,45.83752],[-118.19263,45.84073],[-118.19322,45.84195],[-118.19712,45.84412],[-118.19949,45.84471],[-118.20013,45.84566],[-118.20226,45.84573],[-118.20982,45.84965],[-118.21255,45.84845],[-118.21175,45.85078],[-118.21708,45.85229],[-118.21929,45.85492],[-118.22118,45.85456],[-118.22041,45.85593],[-118.22305,45.85777],[-118.22501,45.8575],[-118.22407,45.85862],[-118.22461,45.85928],[-118.23003,45.86038],[-118.23013,45.86122],[-118.23361,45.86242],[-118.23509,45.86224],[-118.23548,45.86344],[-118.23812,45.8653],[-118.24307,45.86677],[-118.2484,45.86199],[-118.24574,45.86862],[-118.24828,45.8701],[-118.24987,45.86975],[-118.25056,45.87106],[-118.25755,45.87422],[-118.25862,45.87444],[-118.25937,45.8727],[-118.25892,45.87172],[-118.25996,45.87157],[-118.26071,45.86987],[-118.26179,45.8698],[-118.26146,45.87148],[-118.2627,45.87546],[-118.26529,45.87631],[-118.2688,45.87029],[-118.26892,45.87314],[-118.26995,45.87343],[-118.26908,45.87468],[-118.26969,45.8777],[-118.27666,45.8798],[-118.27828,45.8768],[-118.27934,45.87865],[-118.28086,45.87862],[-118.28079,45.8809],[-118.28296,45.88084],[-118.28365,45.88166],[-118.28764,45.88018],[-118.28808,45.87936],[-118.28904,45.87966],[-118.287,45.88374],[-118.28864,45.88388],[-118.28961,45.8854],[-118.29632,45.8894],[-118.30471,45.88683],[-118.30539,45.88595],[-118.30504,45.88505],[-118.30281,45.88568],[-118.30449,45.88267],[-118.30585,45.88342],[-118.31197,45.88272],[-118.31645,45.88394],[-118.31842,45.88344],[-118.3173,45.8813],[-118.31327,45.87793],[-118.30634,45.87383],[-118.31625,45.87558],[-118.31738,45.87424],[-118.31411,45.87081],[-118.31909,45.87187],[-118.3207,45.8677],[-118.325,45.87251],[-118.32746,45.87347],[-118.33139,45.87341],[-118.33447,45.87191],[-118.33497,45.87088],[-118.33319,45.86764],[-118.32972,45.86515],[-118.34192,45.86622],[-118.34407,45.86459],[-118.3412,45.86196],[-118.34325,45.86113],[-118.34431,45.85946],[-118.34309,45.85645],[-118.34033,45.85418],[-118.33654,45.85447],[-118.33468,45.85322],[-118.33561,45.85196],[-118.33077,45.85019],[-118.32267,45.85058],[-118.31852,45.8519],[-118.31798,45.85308],[-118.3162,45.85182],[-118.30483,45.85487],[-118.2992,45.85528],[-118.29361,45.85358],[-118.29815,45.85396],[-118.30394,45.8533],[-118.30343,45.85112],[-118.30626,45.8527],[-118.30913,45.85134],[-118.30982,45.84836],[-118.31094,45.85093],[-118.31509,45.84971],[-118.31963,45.84768],[-118.31974,45.8445],[-118.32214,45.84721],[-118.32623,45.84581],[-118.32962,45.84617],[-118.33053,45.84536],[-118.33173,45.84626],[-118.33489,45.84643],[-118.33574,45.84502],[-118.33547,45.84292],[-118.33788,45.84438],[-118.33884,45.84752],[-118.34585,45.85044],[-118.34671,45.85005],[-118.34646,45.84813],[-118.34796,45.84787],[-118.34766,45.8464],[-118.34967,45.84622],[-118.35049,45.84437],[-118.35223,45.84402],[-118.3532,45.84663],[-118.35429,45.84742],[-118.35656,45.8477],[-118.35705,45.84662],[-118.36116,45.84566],[-118.36252,45.84853],[-118.36598,45.84829],[-118.36618,45.84979],[-118.36775,45.85085],[-118.37029,45.8512],[-118.37229,45.85031],[-118.37327,45.84477],[-118.37042,45.84362],[-118.36991,45.84215],[-118.36413,45.83872],[-118.35305,45.83637],[-118.35041,45.83838],[-118.34942,45.83664],[-118.34186,45.83385],[-118.33401,45.82921],[-118.33,45.82893],[-118.32568,45.82744],[-118.32659,45.82724],[-118.33051,45.82838],[-118.33538,45.82865],[-118.34235,45.83279],[-118.34488,45.83344],[-118.3654,45.83634],[-118.36832,45.8387],[-118.37252,45.8398],[-118.37442,45.8417],[-118.38308,45.84585],[-118.3876,45.84673],[-118.39702,45.85162],[-118.40246,45.85687],[-118.40376,45.85974],[-118.40414,45.86295],[-118.40564,45.86579],[-118.40665,45.87276],[-118.40806,45.87384],[-118.40674,45.87566],[-118.40715,45.87687],[-118.41006,45.87686],[-118.40762,45.87954],[-118.40852,45.88316],[-118.40774,45.88472],[-118.41384,45.88426],[-118.41154,45.88578],[-118.4103,45.88826],[-118.4123,45.89082],[-118.41339,45.89106],[-118.41727,45.88942],[-118.41591,45.89143],[-118.41807,45.89209],[-118.41424,45.89387],[-118.41501,45.89679],[-118.41677,45.89782],[-118.41663,45.89929],[-118.41895,45.90022],[-118.41996,45.90282],[-118.42265,45.90282],[-118.42254,45.90528],[-118.42314,45.90575],[-118.42501,45.90557],[-118.42602,45.90673],[-118.4304,45.90793],[-118.43183,45.90805],[-118.43278,45.90719],[-118.4321,45.90362],[-118.43359,45.90401],[-118.4346,45.90318],[-118.43535,45.90528],[-118.43848,45.90585],[-118.43768,45.90743],[-118.43838,45.90796],[-118.43634,45.91099],[-118.43679,45.91164],[-118.4412,45.91081],[-118.44761,45.90498],[-118.44776,45.90651],[-118.44843,45.90672],[-118.44783,45.90906],[-118.44954,45.90976],[-118.4475,45.91117],[-118.4481,45.91276],[-118.45002,45.91363],[-118.44872,45.91567],[-118.44931,45.91632],[-118.45307,45.91631],[-118.45653,45.91463],[-118.45747,45.91506],[-118.45715,45.91655],[-118.4578,45.91703],[-118.4634,45.91698],[-118.46664,45.91822],[-118.46837,45.91793],[-118.46931,45.91635],[-118.47486,45.91365],[-118.47956,45.91528],[-118.47888,45.91188],[-118.47698,45.91115],[-118.4775,45.9097],[-118.47289,45.90865],[-118.47259,45.9068],[-118.46967,45.90703],[-118.47025,45.906],[-118.46861,45.90453],[-118.46674,45.90424],[-118.46432,45.90608],[-118.46283,45.9037],[-118.46468,45.90276],[-118.46296,45.90059],[-118.4642,45.89968],[-118.46052,45.89684],[-118.45754,45.89111],[-118.4634,45.89708],[-118.46536,45.89737],[-118.46754,45.89911],[-118.46698,45.90044],[-118.46771,45.90137],[-118.47001,45.90099],[-118.47035,45.902],[-118.47723,45.90466],[-118.47779,45.90285],[-118.47652,45.90209],[-118.47544,45.89978],[-118.47824,45.89621],[-118.47803,45.89118],[-118.47316,45.88481],[-118.47679,45.87922],[-118.47543,45.87822],[-118.47639,45.87769],[-118.47592,45.87558],[-118.47678,45.87295],[-118.47456,45.87041],[-118.4762,45.86912],[-118.4749,45.86657],[-118.4756,45.86458],[-118.47251,45.85968],[-118.4639,45.85464],[-118.46956,45.85641],[-118.47383,45.85939],[-118.47615,45.85628],[-118.4749,45.86019],[-118.47789,45.86486],[-118.47724,45.86666],[-118.47819,45.86961],[-118.48221,45.86928],[-118.47782,45.87101],[-118.47938,45.87273],[-118.4793,45.87604],[-118.48048,45.87849],[-118.47878,45.88302],[-118.48251,45.88267],[-118.47987,45.88486],[-118.47797,45.88482],[-118.4802,45.88796],[-118.4839,45.89095],[-118.48324,45.89162],[-118.48457,45.89555],[-118.48439,45.89764],[-118.48954,45.8977],[-118.48654,45.90012],[-118.48484,45.8997],[-118.4834,45.90069],[-118.48482,45.90436],[-118.48665,45.9053],[-118.48556,45.90681],[-118.48815,45.90925],[-118.48864,45.91205],[-118.49481,45.90976],[-118.49306,45.91482],[-118.49193,45.91583],[-118.49653,45.91647],[-118.49897,45.91556],[-118.49978,45.9143],[-118.49901,45.91345],[-118.5022,45.91298],[-118.50484,45.91135],[-118.50681,45.90922],[-118.50911,45.90848],[-118.50962,45.90658],[-118.51096,45.90586],[-118.5106,45.91006],[-118.51123,45.91053],[-118.50952,45.91125],[-118.50959,45.9132],[-118.50694,45.91624],[-118.50736,45.91852],[-118.50558,45.91973],[-118.50752,45.92109],[-118.51562,45.91966],[-118.51636,45.91791],[-118.51491,45.9153],[-118.51919,45.91509],[-118.5227,45.91567],[-118.52495,45.91696],[-118.53064,45.91689],[-118.53316,45.91299],[-118.53464,45.9164],[-118.53677,45.91783],[-118.54005,45.91826],[-118.54167,45.91765],[-118.5423,45.91885],[-118.5496,45.92037],[-118.5517,45.91915],[-118.5521,45.91786],[-118.55316,45.91808],[-118.55344,45.92201],[-118.55798,45.92263],[-118.55885,45.92384],[-118.56755,45.92728],[-118.58213,45.92969],[-118.58926,45.93223],[-118.59023,45.93218],[-118.58904,45.93048],[-118.58594,45.92843],[-118.58906,45.92836],[-118.58959,45.92551],[-118.58863,45.92413],[-118.58982,45.92238],[-118.59162,45.92784],[-118.59385,45.93035],[-118.59804,45.9267],[-118.59808,45.92994],[-118.59894,45.93059],[-118.60195,45.92822],[-118.60349,45.92586],[-118.60467,45.92654],[-118.60551,45.92856],[-118.60533,45.93206],[-118.60767,45.93115],[-118.60881,45.93247],[-118.61021,45.93203],[-118.61097,45.93289],[-118.61304,45.93288],[-118.61372,45.92852],[-118.61247,45.92658],[-118.61251,45.92583],[-118.61706,45.93137],[-118.61933,45.92906],[-118.61982,45.93012],[-118.62076,45.92991],[-118.62024,45.93299],[-118.62226,45.93286],[-118.62281,45.9321],[-118.62277,45.93456],[-118.62417,45.93375],[-118.62718,45.93364],[-118.6288,45.93185],[-118.62919,45.93336],[-118.63057,45.9337],[-118.63007,45.93565],[-118.63248,45.93552],[-118.63341,45.93765],[-118.63924,45.93486],[-118.64132,45.93545],[-118.64394,45.93159],[-118.64369,45.9351],[-118.64497,45.93785],[-118.64693,45.93837],[-118.64822,45.93775],[-118.64921,45.93951],[-118.652,45.93968],[-118.65315,45.9411],[-118.6558,45.94213],[-118.65729,45.94059],[-118.65878,45.9437],[-118.66145,45.94303],[-118.66167,45.9462],[-118.66395,45.94563],[-118.66349,45.94688],[-118.66419,45.94802],[-118.66601,45.94833],[-118.66875,45.94719],[-118.66934,45.94924],[-118.67195,45.94924],[-118.67308,45.95177],[-118.67481,45.95306],[-118.67819,45.95245],[-118.67791,45.95531],[-118.67916,45.95662],[-118.68131,45.9565],[-118.68181,45.95387],[-118.68324,45.95636],[-118.68478,45.95559],[-118.68398,45.95843],[-118.68232,45.95948],[-118.68282,45.96001],[-118.68545,45.96029],[-118.68827,45.95888],[-118.68998,45.95925],[-118.68686,45.96321],[-118.68732,45.96525],[-118.68909,45.96547],[-118.69283,45.96896],[-118.69447,45.96898],[-118.69632,45.97065],[-118.69892,45.97118],[-118.70135,45.97419],[-118.70344,45.97367],[-118.70311,45.97065],[-118.70064,45.97031],[-118.70085,45.96873],[-118.69911,45.96801],[-118.69649,45.96391],[-118.69794,45.96473],[-118.69853,45.96359],[-118.6994,45.96458],[-118.70292,45.96474],[-118.70429,45.96406],[-118.70674,45.96515],[-118.7077,45.96452],[-118.70822,45.96589],[-118.71132,45.96637],[-118.712,45.9682],[-118.71382,45.96828],[-118.71478,45.97001],[-118.71637,45.9696],[-118.71619,45.97096],[-118.71748,45.97276],[-118.71854,45.97304],[-118.71968,45.97204],[-118.72035,45.97328],[-118.72225,45.97158],[-118.72214,45.97347],[-118.72317,45.97365],[-118.72235,45.97568],[-118.72306,45.97648],[-118.72992,45.9766],[-118.73298,45.9787],[-118.73472,45.97844],[-118.73468,45.97961],[-118.73646,45.98057],[-118.73759,45.9796],[-118.7401,45.98001],[-118.7393,45.98194],[-118.73975,45.98281],[-118.74783,45.98845],[-118.75191,45.99038],[-118.75196,46.0011],[-118.21547,46.00058]]]}}]}