{"type":"FeatureCollection","features":[{"type":"Feature","properties":{"slug":"willamette-valley","name":"Willamette Valley"},"geometry":{"type":"Polygon","coordinates":[[[-122.35909,44.75832],[-122.33382,44.75551],[-122.36796,44.75628],[-122.37992,44.74976],[-122.39622,44.75064],[-122.3952,44.74706],[-122.4004,44.752],[-122.41647,44.74725],[-122.43842,44.7518],[-122.43378,44.74317],[-122.42972,44.74162],[-122.44171,44.74446],[-122.44327,44.73986],[-122.44734,44.7447],[-122.46704,44.73787],[-122.4743,44.73947],[-122.47678,44.73715],[-122.48396,44.74145],[-122.48724,44.73737],[-122.48862,44.74144],[-122.50058,44.74548],[-122.51827,44.74371],[-122.51726,44.74632],[-122.52714,44.75267],[-122.53024,44.75162],[-122.5258,44.74778],[-122.53409,44.74982],[-122.53018,44.74409],[-122.526,44.7446],[-122.53138,44.74253],[-122.54254,44.74833],[-122.5723,44.75062],[-122.59753,44.75733],[-122.63368,44.76984],[-122.66271,44.76736],[-122.66441,44.76224],[-122.6616,44.75899],[-122.63991,44.75299],[-122.65784,44.75064],[-122.6607,44.74607],[-122.65133,44.74222],[-122.64992,44.74404],[-122.65284,44.74519],[-122.65034,44.74762],[-122.64608,44.74236],[-122.64202,44.74266],[-122.63651,44.73547],[-122.63857,44.73285],[-122.6302,44.73318],[-122.62333,44.72868],[-122.62846,44.72746],[-122.62518,44.72429],[-122.62869,44.72349],[-122.62105,44.72404],[-122.61918,44.72067],[-122.6156,44.72247],[-122.61251,44.72088],[-122.61335,44.718],[-122.60327,44.71392],[-122.57574,44.70775],[-122.57275,44.71026],[-122.57106,44.70486],[-122.55776,44.70387],[-122.55024,44.6967],[-122.54383,44.69615],[-122.535,44.69061],[-122.55022,44.69536],[-122.55862,44.70041],[-122.57618,44.69865],[-122.57727,44.7015],[-122.60077,44.70663],[-122.61679,44.70655],[-122.61829,44.70916],[-122.62061,44.70933],[-122.62034,44.70321],[-122.62236,44.70621],[-122.62397,44.70331],[-122.62902,44.7108],[-122.63664,44.7071],[-122.63277,44.71288],[-122.64202,44.7104],[-122.64402,44.71357],[-122.64641,44.70932],[-122.65198,44.71183],[-122.65224,44.70841],[-122.65938,44.70424],[-122.64884,44.70008],[-122.64983,44.69332],[-122.63738,44.69264],[-122.64268,44.68918],[-122.66314,44.69318],[-122.66713,44.68566],[-122.6579,44.67341],[-122.66337,44.67365],[-122.66578,44.67217],[-122.66425,44.66952],[-122.67029,44.66745],[-122.66934,44.67363],[-122.67247,44.67557],[-122.67551,44.67323],[-122.67651,44.67777],[-122.67932,44.67778],[-122.68074,44.67232],[-122.68629,44.67115],[-122.67903,44.66964],[-122.68278,44.6645],[-122.68636,44.6671],[-122.68573,44.66455],[-122.69214,44.66322],[-122.69962,44.66952],[-122.70348,44.66678],[-122.70724,44.67139],[-122.70078,44.67522],[-122.71023,44.67891],[-122.70738,44.6817],[-122.70891,44.68408],[-122.72095,44.68645],[-122.72113,44.69308],[-122.72483,44.69437],[-122.72654,44.70039],[-122.72918,44.69664],[-122.73874,44.70244],[-122.75237,44.69813],[-122.75628,44.69974],[-122.75742,44.69465],[-122.74882,44.68616],[-122.75765,44.68402],[-122.76094,44.68668],[-122.78069,44.68474],[-122.7842,44.68776],[-122.79226,44.68475],[-122.78545,44.68208],[-122.78321,44.67686],[-122.77048,44.67855],[-122.76734,44.67174],[-122.74944,44.66811],[-122.74461,44.66359],[-122.72878,44.66192],[-122.72334,44.66861],[-122.70894,44.67077],[-122.70511,44.66423],[-122.71406,44.65386],[-122.71123,44.64968],[-122.71336,44.63998],[-122.70798,44.64042],[-122.70357,44.64912],[-122.68631,44.63213],[-122.69101,44.63243],[-122.69489,44.62614],[-122.68466,44.62015],[-122.69196,44.62135],[-122.69274,44.61516],[-122.69671,44.61771],[-122.69868,44.6138],[-122.70538,44.61356],[-122.69842,44.61172],[-122.69052,44.6041],[-122.68866,44.60809],[-122.69182,44.61267],[-122.68941,44.61475],[-122.68008,44.60896],[-122.67515,44.61266],[-122.67724,44.60767],[-122.68284,44.60545],[-122.68199,44.60235],[-122.67699,44.60081],[-122.67198,44.60405],[-122.67087,44.5993],[-122.64681,44.59487],[-122.62828,44.58198],[-122.61984,44.58511],[-122.6134,44.58368],[-122.62257,44.5831],[-122.62853,44.57919],[-122.63881,44.58644],[-122.66024,44.59175],[-122.6623,44.588],[-122.66673,44.58818],[-122.66396,44.59208],[-122.68137,44.594],[-122.68085,44.58845],[-122.68553,44.59008],[-122.68577,44.58743],[-122.67831,44.58503],[-122.68438,44.58377],[-122.67508,44.5795],[-122.68894,44.58306],[-122.6891,44.58056],[-122.67818,44.5729],[-122.67098,44.57484],[-122.67274,44.57117],[-122.67863,44.56775],[-122.68611,44.57193],[-122.697,44.56496],[-122.68393,44.56682],[-122.67865,44.56268],[-122.68548,44.56118],[-122.67712,44.55832],[-122.67859,44.55599],[-122.69103,44.559],[-122.69475,44.55462],[-122.70182,44.55768],[-122.70349,44.55282],[-122.71051,44.55847],[-122.73144,44.55264],[-122.72352,44.55096],[-122.71532,44.55481],[-122.71781,44.55102],[-122.7067,44.54547],[-122.71452,44.54037],[-122.71891,44.54423],[-122.71822,44.53987],[-122.72412,44.53927],[-122.72898,44.5344],[-122.73294,44.53652],[-122.73458,44.52891],[-122.73871,44.52949],[-122.73689,44.52483],[-122.72812,44.53303],[-122.71767,44.53753],[-122.71374,44.53854],[-122.71067,44.53511],[-122.71031,44.53848],[-122.70761,44.53747],[-122.69872,44.54634],[-122.69848,44.55266],[-122.68742,44.5542],[-122.69419,44.54512],[-122.68759,44.5448],[-122.68313,44.54838],[-122.67304,44.54521],[-122.68125,44.54425],[-122.68747,44.53909],[-122.68502,44.53626],[-122.69329,44.53618],[-122.69667,44.532],[-122.68175,44.53134],[-122.69265,44.52774],[-122.69442,44.52399],[-122.68442,44.51418],[-122.702,44.513],[-122.69871,44.51046],[-122.69799,44.50199],[-122.69116,44.49642],[-122.68545,44.49624],[-122.6887,44.49412],[-122.68543,44.49454],[-122.68712,44.49035],[-122.69128,44.49214],[-122.69373,44.48804],[-122.69908,44.49032],[-122.68777,44.48013],[-122.69797,44.47804],[-122.70499,44.48349],[-122.71338,44.48147],[-122.70232,44.47918],[-122.70071,44.47599],[-122.62192,44.47671],[-122.62243,44.3884],[-122.62279,44.37105],[-122.634,44.37089],[-122.63776,44.37598],[-122.63344,44.36597],[-122.62708,44.36442],[-122.63449,44.36326],[-122.63201,44.35931],[-122.63342,44.35707],[-122.63583,44.36511],[-122.64186,44.36915],[-122.64482,44.3679],[-122.64333,44.36347],[-122.64472,44.36171],[-122.64959,44.36579],[-122.64643,44.37442],[-122.65655,44.37049],[-122.65771,44.37418],[-122.66965,44.37492],[-122.6636,44.36999],[-122.66566,44.36682],[-122.66882,44.36993],[-122.67424,44.36869],[-122.67342,44.35861],[-122.67788,44.36243],[-122.68087,44.35912],[-122.6837,44.36456],[-122.68324,44.3556],[-122.68616,44.36034],[-122.69089,44.35924],[-122.68716,44.36267],[-122.68866,44.36553],[-122.69514,44.36194],[-122.69322,44.36517],[-122.70094,44.36329],[-122.70043,44.36638],[-122.70409,44.36295],[-122.70388,44.36663],[-122.70768,44.36565],[-122.70783,44.36798],[-122.72079,44.37157],[-122.7208,44.36795],[-122.71806,44.36951],[-122.71596,44.36612],[-122.72101,44.36271],[-122.71763,44.35872],[-122.72161,44.3583],[-122.71664,44.35554],[-122.72732,44.35028],[-122.72479,44.34735],[-122.73089,44.34769],[-122.72674,44.34415],[-122.73319,44.34017],[-122.72588,44.34016],[-122.73009,44.33528],[-122.72683,44.32968],[-122.71746,44.32079],[-122.70524,44.31521],[-122.69687,44.31573],[-122.69683,44.31171],[-122.6864,44.30722],[-122.68087,44.30883],[-122.67799,44.30476],[-122.66667,44.30478],[-122.65757,44.29776],[-122.64082,44.29433],[-122.63738,44.29623],[-122.62852,44.29058],[-122.62052,44.28994],[-122.61722,44.28433],[-122.61406,44.28676],[-122.59399,44.27694],[-122.6177,44.2829],[-122.63648,44.29309],[-122.65289,44.29351],[-122.65788,44.29009],[-122.66934,44.29525],[-122.67885,44.29465],[-122.68963,44.29886],[-122.69569,44.29705],[-122.7009,44.30178],[-122.70435,44.30063],[-122.70241,44.30311],[-122.70448,44.30552],[-122.70758,44.30384],[-122.71067,44.30694],[-122.7161,44.30433],[-122.7283,44.31237],[-122.74677,44.31336],[-122.74649,44.31828],[-122.75281,44.31597],[-122.7617,44.32148],[-122.76384,44.31694],[-122.76608,44.31776],[-122.76608,44.32209],[-122.77578,44.32889],[-122.78952,44.32862],[-122.79277,44.32431],[-122.79748,44.32582],[-122.80057,44.3234],[-122.8066,44.33581],[-122.81866,44.34074],[-122.81586,44.32738],[-122.8084,44.31986],[-122.8143,44.31584],[-122.81216,44.31096],[-122.79354,44.30994],[-122.79921,44.30816],[-122.79869,44.30436],[-122.78489,44.30113],[-122.79601,44.29729],[-122.81139,44.30424],[-122.81593,44.29181],[-122.80992,44.28888],[-122.81692,44.2886],[-122.81798,44.28214],[-122.82328,44.29005],[-122.8223,44.29579],[-122.82617,44.29738],[-122.82316,44.30398],[-122.82622,44.31299],[-122.83017,44.3143],[-122.83484,44.29745],[-122.83951,44.29571],[-122.83897,44.29901],[-122.84357,44.30127],[-122.84001,44.30232],[-122.84016,44.3078],[-122.85012,44.30771],[-122.84247,44.31278],[-122.84609,44.31641],[-122.86165,44.31202],[-122.85515,44.31843],[-122.8653,44.32283],[-122.85701,44.32471],[-122.86426,44.33031],[-122.87062,44.33099],[-122.87102,44.33624],[-122.86031,44.33498],[-122.85763,44.33801],[-122.85917,44.34097],[-122.8634,44.34434],[-122.87291,44.33711],[-122.87854,44.33873],[-122.89112,44.34666],[-122.88851,44.35763],[-122.89895,44.35154],[-122.90172,44.35388],[-122.90821,44.35239],[-122.90958,44.34694],[-122.89725,44.34428],[-122.89521,44.33569],[-122.89104,44.33333],[-122.88891,44.33359],[-122.88923,44.34072],[-122.88381,44.33561],[-122.87896,44.33747],[-122.87506,44.3278],[-122.87961,44.32848],[-122.87883,44.32432],[-122.88302,44.32726],[-122.88839,44.32566],[-122.8895,44.322],[-122.89618,44.32857],[-122.90056,44.32752],[-122.90006,44.31881],[-122.90497,44.31975],[-122.90804,44.31267],[-122.9116,44.31569],[-122.91176,44.321],[-122.9264,44.32441],[-122.93094,44.32224],[-122.93123,44.32986],[-122.94171,44.32928],[-122.93559,44.33492],[-122.93773,44.33691],[-122.94921,44.33507],[-122.9531,44.33887],[-122.96008,44.33843],[-122.9568,44.34281],[-122.95989,44.34736],[-122.96091,44.34139],[-122.97388,44.34013],[-122.9608,44.33213],[-122.97262,44.33228],[-122.97026,44.32144],[-122.97902,44.32474],[-122.98652,44.32301],[-122.9724,44.3158],[-122.97668,44.31498],[-122.97444,44.31162],[-122.98168,44.30081],[-122.97275,44.30385],[-122.9569,44.30355],[-122.95886,44.29638],[-122.95426,44.28907],[-122.9484,44.28848],[-122.94461,44.29376],[-122.94055,44.29157],[-122.94664,44.28667],[-122.94371,44.28439],[-122.94646,44.28174],[-122.96426,44.27692],[-122.96323,44.26679],[-122.96757,44.26826],[-122.97102,44.26553],[-122.97684,44.25816],[-122.97542,44.25597],[-122.98682,44.2528],[-122.98688,44.24761],[-122.99488,44.24177],[-122.98801,44.23535],[-123.01192,44.22942],[-123.01452,44.22587],[-123.01159,44.21086],[-123.02189,44.20297],[-123.01952,44.19756],[-123.02347,44.19689],[-123.02405,44.19322],[-123.02014,44.19089],[-123.0233,44.18776],[-123.02022,44.18093],[-123.0268,44.17747],[-123.01865,44.17375],[-123.02218,44.17004],[-123.01652,44.16429],[-123.01445,44.15338],[-123.00485,44.1502],[-122.99747,44.13844],[-123.01363,44.13044],[-123.01437,44.12657],[-123.02391,44.12534],[-123.01873,44.12384],[-123.01803,44.11725],[-123.02778,44.11315],[-123.01703,44.10428],[-123.02112,44.10298],[-123.02303,44.10047],[-123.01146,44.10273],[-122.99976,44.09438],[-122.99078,44.09472],[-122.98871,44.09981],[-122.98692,44.09475],[-122.97963,44.09253],[-122.97753,44.09357],[-122.98309,44.09748],[-122.97484,44.09789],[-122.97135,44.09456],[-122.96349,44.10038],[-122.97666,44.10464],[-122.97564,44.10782],[-122.98,44.11417],[-122.97731,44.11522],[-122.96861,44.10789],[-122.96278,44.10822],[-122.95876,44.11596],[-122.95186,44.11692],[-122.95798,44.1181],[-122.95736,44.12424],[-122.94976,44.12475],[-122.94772,44.12983],[-122.94029,44.13001],[-122.93985,44.13627],[-122.93693,44.13807],[-122.93991,44.13848],[-122.93907,44.14121],[-122.95774,44.14426],[-122.95114,44.14742],[-122.95647,44.14944],[-122.95532,44.15418],[-122.9603,44.15269],[-122.9586,44.15547],[-122.96307,44.15985],[-122.95595,44.15729],[-122.95396,44.15957],[-122.94482,44.15465],[-122.93875,44.15888],[-122.93217,44.1579],[-122.92877,44.16173],[-122.92404,44.15823],[-122.90897,44.165],[-122.9181,44.17425],[-122.90929,44.17614],[-122.90686,44.18039],[-122.91598,44.18243],[-122.91321,44.18647],[-122.92514,44.19557],[-122.89689,44.19558],[-122.89528,44.19888],[-122.87985,44.19395],[-122.88051,44.1908],[-122.87178,44.18321],[-122.86169,44.18919],[-122.8629,44.19566],[-122.84965,44.20454],[-122.85289,44.20607],[-122.85259,44.20964],[-122.86419,44.21399],[-122.85719,44.21917],[-122.86439,44.22335],[-122.85368,44.22155],[-122.84778,44.21548],[-122.8484,44.22512],[-122.85175,44.22886],[-122.85942,44.22778],[-122.85946,44.23336],[-122.86197,44.23405],[-122.85762,44.2384],[-122.86609,44.23883],[-122.86121,44.24068],[-122.86354,44.24369],[-122.88868,44.25242],[-122.86736,44.25028],[-122.8807,44.2643],[-122.87676,44.26596],[-122.86365,44.25448],[-122.85218,44.26418],[-122.85969,44.24883],[-122.85514,44.24684],[-122.84612,44.24899],[-122.85059,44.23927],[-122.84282,44.23507],[-122.83953,44.22364],[-122.83342,44.22013],[-122.82595,44.22622],[-122.82786,44.22842],[-122.82267,44.23056],[-122.82877,44.23286],[-122.82716,44.23847],[-122.83207,44.23933],[-122.83257,44.24422],[-122.82942,44.24642],[-122.83792,44.25438],[-122.83328,44.26105],[-122.83468,44.25526],[-122.8262,44.2498],[-122.81747,44.25153],[-122.81665,44.25444],[-122.81176,44.24872],[-122.79956,44.24846],[-122.8061,44.25401],[-122.80295,44.25589],[-122.8094,44.26316],[-122.80584,44.26554],[-122.81485,44.26906],[-122.80391,44.2736],[-122.79275,44.27017],[-122.79683,44.26527],[-122.79008,44.2651],[-122.78904,44.26297],[-122.79318,44.26047],[-122.78906,44.25588],[-122.78918,44.26012],[-122.78537,44.25903],[-122.78528,44.26624],[-122.78078,44.26001],[-122.77522,44.25865],[-122.77516,44.26237],[-122.76807,44.25808],[-122.76616,44.25868],[-122.77065,44.26613],[-122.76513,44.2613],[-122.76093,44.26203],[-122.76152,44.26625],[-122.75749,44.26125],[-122.75309,44.26424],[-122.7469,44.26094],[-122.74566,44.26645],[-122.74251,44.26709],[-122.74204,44.26298],[-122.7323,44.26553],[-122.73348,44.26228],[-122.72713,44.26211],[-122.70787,44.24987],[-122.72728,44.25796],[-122.75325,44.25332],[-122.75504,44.24805],[-122.76393,44.24767],[-122.76527,44.24092],[-122.77413,44.24181],[-122.77824,44.2368],[-122.776,44.23372],[-122.7844,44.23382],[-122.77919,44.22917],[-122.78648,44.22832],[-122.78371,44.22599],[-122.7867,44.22336],[-122.79164,44.22854],[-122.80744,44.22589],[-122.81099,44.21432],[-122.80282,44.21182],[-122.80144,44.2054],[-122.80521,44.20018],[-122.81017,44.20064],[-122.81658,44.19605],[-122.80047,44.19803],[-122.79869,44.20077],[-122.80101,44.20387],[-122.79753,44.20889],[-122.79013,44.20812],[-122.78812,44.20468],[-122.76997,44.21258],[-122.76714,44.21215],[-122.7791,44.20414],[-122.77931,44.19897],[-122.78369,44.19574],[-122.77177,44.19538],[-122.7707,44.19897],[-122.73658,44.19065],[-122.73338,44.19722],[-122.73376,44.18844],[-122.71809,44.18595],[-122.70358,44.18858],[-122.70384,44.18549],[-122.71276,44.18291],[-122.71397,44.18511],[-122.73002,44.18421],[-122.72902,44.17978],[-122.73158,44.17855],[-122.73424,44.18309],[-122.74688,44.18609],[-122.76065,44.18366],[-122.76186,44.18682],[-122.779,44.18769],[-122.78574,44.18593],[-122.78633,44.18033],[-122.78979,44.17808],[-122.7873,44.1747],[-122.79891,44.17761],[-122.81472,44.17502],[-122.81311,44.17206],[-122.80193,44.17176],[-122.78856,44.16442],[-122.80329,44.16292],[-122.80795,44.16823],[-122.81125,44.16462],[-122.80917,44.16237],[-122.81772,44.15985],[-122.82192,44.16439],[-122.82131,44.16863],[-122.82372,44.16776],[-122.8228,44.15824],[-122.82636,44.15303],[-122.82955,44.15697],[-122.82819,44.16051],[-122.83536,44.16044],[-122.83904,44.15688],[-122.85274,44.16072],[-122.85942,44.153],[-122.86496,44.15578],[-122.86479,44.15112],[-122.87308,44.15678],[-122.87777,44.15624],[-122.86895,44.14798],[-122.86226,44.146],[-122.8799,44.1405],[-122.88233,44.13647],[-122.87643,44.13031],[-122.88362,44.13032],[-122.88982,44.12493],[-122.89106,44.11717],[-122.89987,44.12074],[-122.90935,44.11645],[-122.90726,44.11031],[-122.91757,44.10522],[-122.90872,44.09995],[-122.91807,44.09912],[-122.919,44.09444],[-122.94656,44.08477],[-122.94945,44.0755],[-122.9435,44.07673],[-122.94214,44.08163],[-122.92916,44.08133],[-122.92366,44.08605],[-122.91973,44.08293],[-122.91626,44.08488],[-122.91519,44.0792],[-122.91333,44.08177],[-122.8963,44.07958],[-122.8932,44.08059],[-122.89227,44.08755],[-122.88589,44.08521],[-122.88543,44.08786],[-122.8794,44.0887],[-122.87447,44.09281],[-122.87673,44.09771],[-122.87138,44.09792],[-122.87508,44.10133],[-122.86904,44.10513],[-122.85984,44.10457],[-122.8584,44.11124],[-122.8544,44.11405],[-122.85604,44.11643],[-122.8532,44.11699],[-122.85564,44.11902],[-122.85444,44.12563],[-122.86168,44.1309],[-122.85089,44.13528],[-122.85134,44.13298],[-122.84437,44.13344],[-122.8379,44.12844],[-122.83318,44.1354],[-122.83024,44.1316],[-122.82428,44.13556],[-122.82222,44.13102],[-122.81171,44.13076],[-122.80178,44.12606],[-122.79796,44.12819],[-122.7962,44.12212],[-122.78514,44.12337],[-122.79134,44.11666],[-122.80424,44.11636],[-122.82475,44.10314],[-122.82802,44.09751],[-122.82092,44.09246],[-122.83922,44.09157],[-122.83887,44.08412],[-122.84659,44.0825],[-122.85126,44.08696],[-122.8513,44.0841],[-122.85742,44.081],[-122.84692,44.08198],[-122.84119,44.07737],[-122.82334,44.07808],[-122.8169,44.0791],[-122.81415,44.08332],[-122.80778,44.07811],[-122.80218,44.07798],[-122.8029,44.08247],[-122.78236,44.08249],[-122.76174,44.09245],[-122.75714,44.09019],[-122.73723,44.09502],[-122.73504,44.09861],[-122.73129,44.09646],[-122.71476,44.09864],[-122.70925,44.112],[-122.70106,44.1034],[-122.6753,44.11281],[-122.67685,44.11887],[-122.68702,44.1297],[-122.67905,44.12511],[-122.67694,44.12698],[-122.67261,44.11957],[-122.65782,44.11393],[-122.6454,44.12088],[-122.65289,44.13182],[-122.64696,44.12715],[-122.63747,44.12565],[-122.63287,44.13093],[-122.61875,44.13452],[-122.60816,44.14436],[-122.61567,44.1475],[-122.60093,44.14619],[-122.60867,44.15691],[-122.59573,44.14755],[-122.59052,44.14749],[-122.58499,44.15323],[-122.58561,44.15978],[-122.58056,44.15176],[-122.57213,44.14916],[-122.55829,44.15263],[-122.54422,44.14745],[-122.5393,44.15059],[-122.53984,44.16411],[-122.5268,44.16427],[-122.52545,44.16783],[-122.52541,44.16488],[-122.52757,44.16328],[-122.53678,44.16174],[-122.5385,44.15628],[-122.53613,44.15105],[-122.51606,44.1579],[-122.52926,44.1519],[-122.53574,44.14411],[-122.56746,44.14641],[-122.53614,44.13246],[-122.51216,44.13534],[-122.49928,44.13302],[-122.49697,44.1358],[-122.48832,44.13361],[-122.4812,44.13641],[-122.47647,44.13651],[-122.48144,44.13351],[-122.46721,44.125],[-122.45864,44.1155],[-122.43844,44.11672],[-122.4292,44.10971],[-122.42339,44.11158],[-122.42101,44.11881],[-122.41679,44.12133],[-122.40392,44.12436],[-122.38698,44.12177],[-122.41278,44.12017],[-122.41815,44.11056],[-122.42515,44.10644],[-122.44262,44.11445],[-122.45477,44.11039],[-122.44609,44.10789],[-122.4457,44.1066],[-122.46022,44.11067],[-122.46991,44.12204],[-122.48224,44.12909],[-122.51704,44.12921],[-122.52846,44.12366],[-122.51332,44.11541],[-122.51015,44.11229],[-122.52797,44.11982],[-122.5355,44.11307],[-122.5317,44.12054],[-122.53758,44.12571],[-122.55612,44.13294],[-122.56085,44.12902],[-122.55966,44.1341],[-122.5849,44.14036],[-122.59985,44.13386],[-122.5995,44.12941],[-122.60836,44.12579],[-122.59634,44.11566],[-122.60575,44.11745],[-122.61474,44.12366],[-122.61822,44.12007],[-122.61373,44.11292],[-122.62165,44.11425],[-122.64235,44.10512],[-122.65796,44.1061],[-122.64764,44.09653],[-122.64484,44.09655],[-122.64225,44.09525],[-122.653,44.09512],[-122.65411,44.09851],[-122.66362,44.1017],[-122.67325,44.09466],[-122.70162,44.08987],[-122.70552,44.08391],[-122.7129,44.0836],[-122.71374,44.07914],[-122.71709,44.08246],[-122.72976,44.07557],[-122.73052,44.07152],[-122.73541,44.07538],[-122.7467,44.07093],[-122.74939,44.06302],[-122.75554,44.06587],[-122.76979,44.06169],[-122.76958,44.05341],[-122.77432,44.0509],[-122.77258,44.04766],[-122.78279,44.04863],[-122.79312,44.04197],[-122.79491,44.05],[-122.8,44.0527],[-122.81512,44.04934],[-122.82592,44.05213],[-122.82607,44.04784],[-122.82132,44.04592],[-122.82484,44.0342],[-122.82927,44.0375],[-122.83226,44.03525],[-122.84547,44.03669],[-122.84643,44.04176],[-122.84342,44.04425],[-122.84761,44.04644],[-122.87121,44.04622],[-122.8782,44.04456],[-122.88294,44.03916],[-122.89275,44.03961],[-122.90262,44.03223],[-122.91203,44.03422],[-122.91224,44.02938],[-122.90193,44.02725],[-122.89352,44.01677],[-122.88591,44.01797],[-122.87886,44.01511],[-122.88902,44.00681],[-122.87831,43.9984],[-122.87111,43.9976],[-122.87357,44.00015],[-122.86406,44.00262],[-122.86538,44.00733],[-122.86179,44.00869],[-122.85775,44.00656],[-122.85817,43.99962],[-122.84546,43.99666],[-122.8393,44.00315],[-122.84073,44.00799],[-122.83369,44.00666],[-122.84096,43.99438],[-122.8351,43.98917],[-122.82417,43.98885],[-122.81003,43.99312],[-122.82675,43.98214],[-122.84085,43.98484],[-122.84844,43.99004],[-122.86778,43.98964],[-122.86928,43.99281],[-122.87348,43.99012],[-122.87055,43.98659],[-122.8825,43.98442],[-122.85568,43.97493],[-122.84192,43.97184],[-122.84481,43.97473],[-122.82631,43.97523],[-122.82624,43.97015],[-122.82208,43.9724],[-122.82111,43.96972],[-122.81177,43.97029],[-122.80837,43.96401],[-122.80462,43.96554],[-122.80426,43.97562],[-122.79224,43.96933],[-122.79281,43.97285],[-122.78621,43.97739],[-122.76312,43.97826],[-122.74495,43.98433],[-122.745,43.90618],[-122.75921,43.90791],[-122.76964,43.90474],[-122.77243,43.90086],[-122.78182,43.90065],[-122.80172,43.908],[-122.80697,43.90663],[-122.8025,43.90007],[-122.80264,43.89278],[-122.80639,43.88929],[-122.80241,43.88187],[-122.80976,43.87773],[-122.79724,43.86045],[-122.79057,43.85971],[-122.79427,43.8567],[-122.79286,43.85292],[-122.78572,43.8508],[-122.77874,43.84296],[-122.78466,43.84209],[-122.79109,43.84828],[-122.79532,43.84775],[-122.79747,43.84614],[-122.79579,43.84014],[-122.80474,43.85275],[-122.81296,43.84579],[-122.81424,43.85241],[-122.80752,43.85657],[-122.82144,43.85687],[-122.8211,43.86229],[-122.82716,43.86416],[-122.82229,43.87212],[-122.82809,43.87823],[-122.83295,43.87769],[-122.83281,43.8844],[-122.83728,43.87953],[-122.85718,43.87576],[-122.85283,43.87989],[-122.85957,43.88254],[-122.85066,43.88145],[-122.84352,43.88851],[-122.85297,43.89439],[-122.86372,43.89615],[-122.87083,43.89286],[-122.8711,43.89533],[-122.85174,43.90122],[-122.85155,43.90667],[-122.87532,43.89992],[-122.87329,43.90615],[-122.87827,43.90461],[-122.88224,43.90827],[-122.89206,43.90864],[-122.87841,43.91144],[-122.88276,43.91321],[-122.88071,43.91621],[-122.88368,43.91898],[-122.87936,43.9179],[-122.88011,43.92372],[-122.88792,43.92435],[-122.88727,43.92907],[-122.88542,43.93356],[-122.87269,43.93745],[-122.88713,43.94037],[-122.88698,43.94416],[-122.90749,43.93872],[-122.89505,43.93844],[-122.89714,43.93434],[-122.88993,43.93353],[-122.89984,43.93347],[-122.89912,43.93088],[-122.90287,43.92888],[-122.89921,43.92396],[-122.89271,43.92524],[-122.89842,43.92094],[-122.89513,43.91682],[-122.89705,43.91335],[-122.90041,43.91912],[-122.90066,43.91408],[-122.90616,43.91725],[-122.90785,43.92228],[-122.91262,43.91503],[-122.91488,43.92367],[-122.92164,43.91986],[-122.92888,43.92207],[-122.93791,43.9169],[-122.93706,43.91168],[-122.93544,43.91602],[-122.93292,43.91134],[-122.92632,43.9092],[-122.93344,43.90225],[-122.9372,43.9032],[-122.93732,43.89658],[-122.93242,43.89838],[-122.93187,43.89473],[-122.94037,43.89196],[-122.932,43.89001],[-122.93294,43.88462],[-122.9468,43.89024],[-122.94802,43.88639],[-122.96222,43.89852],[-122.96511,43.89393],[-122.9722,43.89591],[-122.98063,43.90141],[-122.97925,43.9074],[-122.98619,43.90312],[-122.98707,43.89273],[-122.99698,43.89207],[-123.00066,43.88646],[-123.00086,43.88204],[-122.99437,43.87842],[-123.00919,43.86993],[-123.00371,43.86466],[-123.00838,43.84875],[-123.00517,43.84447],[-122.98343,43.83905],[-122.9914,43.83256],[-122.98086,43.82754],[-122.99471,43.82713],[-122.99164,43.82142],[-122.99575,43.8248],[-123.00345,43.82434],[-123.00065,43.8195],[-123.01103,43.82431],[-123.01279,43.82047],[-123.00921,43.81651],[-123.0135,43.81482],[-123.00937,43.81076],[-123.0247,43.80429],[-123.01491,43.80092],[-123.0137,43.80675],[-123.00865,43.81032],[-123.00442,43.80635],[-122.99522,43.8072],[-122.99235,43.81022],[-122.98574,43.80316],[-122.97872,43.80423],[-122.98106,43.79811],[-122.96804,43.79787],[-122.95785,43.78912],[-122.93753,43.79414],[-122.92766,43.78605],[-122.92127,43.79],[-122.92071,43.79795],[-122.91759,43.80105],[-122.91546,43.7968],[-122.91826,43.79211],[-122.91478,43.78785],[-122.9208,43.78168],[-122.92068,43.77778],[-122.91478,43.77898],[-122.90092,43.77132],[-122.89315,43.7708],[-122.8852,43.77343],[-122.88261,43.77775],[-122.87282,43.77818],[-122.88068,43.77581],[-122.88705,43.76802],[-122.8717,43.75709],[-122.89134,43.76602],[-122.89862,43.76448],[-122.89826,43.76152],[-122.88542,43.75069],[-122.88619,43.74692],[-122.87853,43.74642],[-122.87656,43.73848],[-122.85575,43.73218],[-122.86114,43.72621],[-122.85881,43.71611],[-122.85213,43.70641],[-122.84062,43.69976],[-122.83255,43.69987],[-122.83107,43.69638],[-122.82294,43.7006],[-122.8208,43.70022],[-122.83584,43.69421],[-122.83562,43.68834],[-122.83996,43.68468],[-122.83763,43.68247],[-122.8405,43.68455],[-122.84008,43.69524],[-122.85052,43.69892],[-122.85133,43.70247],[-122.86641,43.71338],[-122.86834,43.73262],[-122.88116,43.7348],[-122.88634,43.73161],[-122.88483,43.7351],[-122.89006,43.73778],[-122.89623,43.73405],[-122.89361,43.73964],[-122.90259,43.73884],[-122.89717,43.7423],[-122.90033,43.74555],[-122.9107,43.74393],[-122.90739,43.74664],[-122.91312,43.74685],[-122.90643,43.74969],[-122.91761,43.75803],[-122.92449,43.7561],[-122.92811,43.75133],[-122.92836,43.75738],[-122.92195,43.76189],[-122.92844,43.76518],[-122.9331,43.76293],[-122.93029,43.76684],[-122.93231,43.76779],[-122.94366,43.76743],[-122.94266,43.772],[-122.94844,43.77854],[-122.95204,43.77912],[-122.95066,43.77517],[-122.9557,43.77437],[-122.95375,43.77067],[-122.95712,43.76778],[-122.96424,43.77425],[-122.97014,43.77241],[-122.9744,43.77631],[-122.97246,43.77958],[-122.97498,43.78456],[-122.98238,43.78488],[-122.98405,43.78944],[-122.98904,43.79091],[-122.98767,43.78246],[-122.98258,43.77779],[-122.98612,43.77483],[-122.98244,43.7751],[-122.98364,43.77259],[-122.97907,43.76748],[-122.96834,43.76773],[-122.97387,43.76417],[-122.96485,43.76222],[-122.97801,43.75838],[-122.98696,43.76087],[-122.97837,43.75496],[-122.97838,43.75038],[-122.96596,43.7517],[-122.95883,43.75797],[-122.96106,43.75093],[-122.94856,43.75112],[-122.95166,43.74835],[-122.94979,43.74489],[-122.96178,43.74707],[-122.96963,43.74516],[-122.9698,43.74203],[-122.97519,43.74222],[-122.9771,43.73394],[-122.96744,43.73039],[-122.94994,43.73183],[-122.95824,43.73039],[-122.9556,43.72718],[-122.96305,43.72766],[-122.97199,43.72355],[-122.97017,43.71536],[-122.97332,43.7123],[-122.96957,43.70674],[-122.96093,43.70805],[-122.97141,43.70215],[-122.96198,43.6975],[-122.95934,43.6905],[-122.95512,43.69024],[-122.95724,43.68668],[-122.9531,43.68163],[-122.94404,43.67767],[-122.93969,43.67934],[-122.9422,43.67724],[-122.94246,43.6732],[-122.94737,43.66707],[-122.94416,43.66486],[-122.94434,43.66365],[-122.94535,43.66305],[-122.94849,43.66538],[-122.94617,43.67331],[-122.95725,43.68295],[-122.96271,43.68341],[-122.95901,43.68794],[-122.96615,43.69466],[-122.98191,43.70468],[-122.99155,43.70083],[-122.99578,43.70381],[-122.98711,43.70659],[-122.98802,43.7108],[-122.98279,43.71345],[-122.98606,43.72427],[-123.00283,43.71926],[-122.99442,43.72527],[-122.99808,43.72713],[-122.99283,43.72741],[-122.98899,43.73146],[-122.99258,43.73236],[-122.99071,43.73786],[-122.99467,43.73888],[-122.99701,43.74622],[-123.00407,43.74725],[-123.02204,43.74194],[-123.01729,43.74663],[-123.01922,43.7488],[-123.01258,43.74834],[-123.00414,43.75343],[-123.00994,43.75953],[-123.00701,43.76592],[-123.01117,43.76893],[-123.01481,43.7659],[-123.02279,43.76857],[-123.02803,43.76253],[-123.02652,43.77253],[-123.0421,43.78118],[-123.04394,43.78476],[-123.03768,43.79188],[-123.04392,43.79304],[-123.04805,43.78545],[-123.04632,43.78266],[-123.05379,43.77751],[-123.05042,43.77305],[-123.03897,43.76978],[-123.04976,43.76668],[-123.05323,43.75753],[-123.04778,43.75607],[-123.04857,43.75122],[-123.04409,43.75103],[-123.0447,43.74804],[-123.0398,43.74827],[-123.04456,43.74222],[-123.03765,43.73748],[-123.04312,43.73783],[-123.04152,43.73502],[-123.04868,43.73232],[-123.04866,43.72775],[-123.0386,43.73118],[-123.0416,43.7264],[-123.03064,43.72602],[-123.04112,43.72428],[-123.04194,43.72142],[-123.03318,43.72107],[-123.03783,43.71892],[-123.03187,43.71679],[-123.04737,43.71892],[-123.0484,43.71381],[-123.03594,43.70976],[-123.04308,43.70834],[-123.03207,43.70155],[-123.03656,43.69898],[-123.04526,43.70188],[-123.0495,43.6977],[-123.04773,43.69524],[-123.0548,43.69407],[-123.05412,43.68911],[-123.04309,43.68337],[-123.04953,43.68391],[-123.0514,43.6783],[-123.05569,43.68542],[-123.06597,43.68632],[-123.06902,43.66608],[-123.07357,43.66507],[-123.07734,43.65832],[-123.07573,43.65582],[-123.07967,43.6501],[-123.07326,43.64653],[-123.08115,43.64163],[-123.0838,43.62133],[-123.07445,43.60255],[-123.06336,43.59516],[-123.06851,43.59399],[-123.07829,43.59965],[-123.0846,43.60803],[-123.08709,43.60712],[-123.08624,43.61143],[-123.09471,43.62545],[-123.09866,43.62595],[-123.09443,43.62804],[-123.09485,43.63105],[-123.10136,43.63345],[-123.09174,43.6381],[-123.1007,43.64573],[-123.08898,43.64589],[-123.09463,43.65528],[-123.08752,43.6582],[-123.09094,43.65951],[-123.08483,43.6644],[-123.08885,43.66847],[-123.08153,43.67028],[-123.0791,43.68107],[-123.10673,43.68648],[-123.09012,43.6876],[-123.09327,43.69191],[-123.08565,43.6934],[-123.08145,43.69802],[-123.08755,43.70128],[-123.08335,43.7043],[-123.08681,43.70562],[-123.08533,43.70887],[-123.09068,43.7149],[-123.08558,43.71593],[-123.07507,43.71076],[-123.07545,43.71611],[-123.07064,43.71408],[-123.06935,43.71749],[-123.06062,43.72029],[-123.07495,43.72163],[-123.06722,43.72516],[-123.07211,43.72874],[-123.06686,43.73371],[-123.07107,43.7383],[-123.0677,43.74472],[-123.08115,43.7427],[-123.09055,43.74476],[-123.08592,43.7543],[-123.09093,43.75425],[-123.09404,43.74211],[-123.09916,43.74266],[-123.10296,43.73844],[-123.1064,43.74055],[-123.10351,43.73092],[-123.11274,43.72665],[-123.1165,43.72863],[-123.11823,43.72489],[-123.1218,43.72706],[-123.13246,43.71834],[-123.13197,43.72414],[-123.13676,43.7303],[-123.13096,43.72966],[-123.11441,43.73729],[-123.11618,43.73968],[-123.12384,43.73416],[-123.12496,43.73587],[-123.11655,43.74447],[-123.11726,43.74728],[-123.1249,43.74295],[-123.13618,43.74834],[-123.13778,43.74142],[-123.13799,43.76008],[-123.12451,43.75432],[-123.12594,43.7577],[-123.11517,43.75868],[-123.11597,43.76132],[-123.11893,43.76055],[-123.1182,43.76469],[-123.12196,43.76597],[-123.12289,43.77033],[-123.11255,43.76924],[-123.10804,43.77446],[-123.09605,43.76676],[-123.08761,43.77786],[-123.09033,43.7862],[-123.10109,43.78267],[-123.09869,43.79074],[-123.10164,43.79353],[-123.10435,43.79405],[-123.10763,43.78803],[-123.1103,43.79042],[-123.11759,43.78898],[-123.11403,43.7938],[-123.11941,43.79658],[-123.1147,43.79747],[-123.11846,43.80149],[-123.11221,43.80511],[-123.11325,43.81232],[-123.12351,43.81584],[-123.1227,43.80989],[-123.1323,43.80475],[-123.1365,43.80675],[-123.14129,43.80029],[-123.13995,43.81025],[-123.14682,43.81144],[-123.14192,43.8146],[-123.14214,43.8208],[-123.133,43.82077],[-123.13723,43.82257],[-123.13644,43.82586],[-123.14162,43.82531],[-123.14254,43.8295],[-123.14923,43.8304],[-123.14634,43.83441],[-123.15321,43.83862],[-123.14454,43.84206],[-123.14473,43.84588],[-123.13272,43.83851],[-123.13,43.84252],[-123.13442,43.85066],[-123.12588,43.84641],[-123.12082,43.85751],[-123.11953,43.85092],[-123.11494,43.84926],[-123.12156,43.84438],[-123.11759,43.84108],[-123.12159,43.83986],[-123.11972,43.83722],[-123.11457,43.8362],[-123.11723,43.82919],[-123.10534,43.82754],[-123.10922,43.82086],[-123.09611,43.82065],[-123.0965,43.81159],[-123.09026,43.81524],[-123.09064,43.82125],[-123.08336,43.81771],[-123.09195,43.83453],[-123.07942,43.82414],[-123.07885,43.81849],[-123.06606,43.81832],[-123.06504,43.814],[-123.06081,43.8141],[-123.06048,43.81892],[-123.05352,43.8155],[-123.05542,43.8198],[-123.05254,43.82447],[-123.06538,43.83189],[-123.07039,43.83094],[-123.07296,43.83476],[-123.06929,43.83789],[-123.05909,43.83482],[-123.0542,43.83681],[-123.06426,43.84293],[-123.05857,43.84726],[-123.06355,43.84841],[-123.05801,43.85366],[-123.06773,43.85504],[-123.08046,43.8449],[-123.08802,43.84492],[-123.08995,43.846],[-123.08335,43.84888],[-123.08689,43.85241],[-123.08002,43.85346],[-123.08066,43.85732],[-123.08928,43.85573],[-123.09325,43.86014],[-123.1017,43.85379],[-123.1022,43.85692],[-123.11257,43.86215],[-123.10723,43.86277],[-123.10381,43.86891],[-123.09814,43.87064],[-123.11366,43.87183],[-123.11237,43.87441],[-123.11651,43.87712],[-123.11028,43.87878],[-123.11516,43.88224],[-123.10938,43.88324],[-123.11145,43.8868],[-123.10706,43.88823],[-123.09486,43.88289],[-123.0909,43.87696],[-123.08746,43.87706],[-123.08769,43.8805],[-123.08346,43.88296],[-123.07768,43.88278],[-123.07794,43.88002],[-123.07216,43.87739],[-123.06824,43.88183],[-123.06984,43.88407],[-123.06133,43.88104],[-123.06469,43.88593],[-123.06254,43.8904],[-123.0726,43.89077],[-123.06781,43.90064],[-123.08236,43.91575],[-123.08907,43.91106],[-123.09269,43.90304],[-123.09674,43.90397],[-123.09637,43.90836],[-123.10107,43.91331],[-123.1091,43.90538],[-123.11196,43.90944],[-123.11486,43.90704],[-123.11881,43.91096],[-123.12765,43.90866],[-123.13524,43.91425],[-123.13693,43.91197],[-123.13149,43.90834],[-123.13874,43.9087],[-123.1327,43.90702],[-123.13283,43.90333],[-123.14064,43.90321],[-123.14187,43.89639],[-123.12848,43.89802],[-123.12782,43.90097],[-123.11941,43.90272],[-123.11885,43.89728],[-123.13087,43.89085],[-123.11679,43.89344],[-123.12483,43.88183],[-123.13217,43.886],[-123.13167,43.88137],[-123.12809,43.87987],[-123.1404,43.87659],[-123.14241,43.87742],[-123.14018,43.88427],[-123.14888,43.88277],[-123.14899,43.88704],[-123.15667,43.88234],[-123.15748,43.88534],[-123.16198,43.88585],[-123.15938,43.88832],[-123.16212,43.89378],[-123.15425,43.90518],[-123.16636,43.91383],[-123.16307,43.91781],[-123.16541,43.92178],[-123.15505,43.92741],[-123.15971,43.93088],[-123.15197,43.93945],[-123.14715,43.93788],[-123.14681,43.93268],[-123.14354,43.93194],[-123.14095,43.93738],[-123.14341,43.93928],[-123.13005,43.94149],[-123.1287,43.94638],[-123.12035,43.94172],[-123.10723,43.94335],[-123.0987,43.9407],[-123.09796,43.94376],[-123.10292,43.94643],[-123.09989,43.94952],[-123.10647,43.9564],[-123.1013,43.96393],[-123.10334,43.96816],[-123.08457,43.97694],[-123.07714,43.98616],[-123.09083,43.98953],[-123.09689,43.99326],[-123.09764,43.99708],[-123.10585,43.98428],[-123.11947,43.98472],[-123.12119,43.98172],[-123.11646,43.97511],[-123.11106,43.97488],[-123.11415,43.9701],[-123.11206,43.96584],[-123.12876,43.97266],[-123.12816,43.96748],[-123.14543,43.96083],[-123.1487,43.96419],[-123.149,43.95905],[-123.15894,43.96278],[-123.15971,43.96871],[-123.1665,43.96678],[-123.16177,43.96385],[-123.16327,43.95922],[-123.1769,43.95692],[-123.17796,43.95394],[-123.15896,43.95611],[-123.14306,43.95094],[-123.1424,43.94807],[-123.15638,43.9496],[-123.15809,43.9483],[-123.15512,43.94642],[-123.15856,43.9447],[-123.1648,43.94765],[-123.16856,43.94569],[-123.16898,43.94232],[-123.1609,43.93946],[-123.16059,43.93606],[-123.16988,43.93631],[-123.16868,43.92472],[-123.17221,43.91968],[-123.1749,43.9257],[-123.18062,43.92863],[-123.18211,43.93766],[-123.1882,43.93519],[-123.18449,43.93095],[-123.18968,43.92871],[-123.19094,43.92422],[-123.19631,43.93092],[-123.19775,43.92432],[-123.21502,43.93278],[-123.2192,43.92894],[-123.22527,43.92871],[-123.22068,43.92532],[-123.21389,43.92611],[-123.21292,43.92325],[-123.21852,43.91822],[-123.22439,43.91927],[-123.22384,43.9109],[-123.22884,43.90909],[-123.2269,43.9076],[-123.22029,43.91212],[-123.21397,43.9106],[-123.21194,43.91756],[-123.20694,43.916],[-123.20757,43.92021],[-123.20126,43.91939],[-123.20187,43.9215],[-123.18487,43.9204],[-123.1804,43.91605],[-123.20333,43.90837],[-123.20402,43.90255],[-123.20774,43.90473],[-123.20742,43.90151],[-123.21036,43.90132],[-123.20829,43.8981],[-123.21854,43.89748],[-123.21723,43.89286],[-123.22211,43.8936],[-123.22509,43.88969],[-123.21816,43.88538],[-123.21305,43.89334],[-123.20961,43.89041],[-123.20735,43.89414],[-123.20218,43.89275],[-123.19329,43.89872],[-123.19752,43.90112],[-123.19604,43.90285],[-123.18724,43.90447],[-123.18679,43.9073],[-123.18015,43.90543],[-123.17596,43.913],[-123.16761,43.90582],[-123.17416,43.90244],[-123.16823,43.90058],[-123.16967,43.89379],[-123.18147,43.89643],[-123.18682,43.89311],[-123.18038,43.88856],[-123.18623,43.88238],[-123.19577,43.88699],[-123.20546,43.88304],[-123.20832,43.87733],[-123.21131,43.87796],[-123.21068,43.87455],[-123.20469,43.87171],[-123.20018,43.87742],[-123.19597,43.87611],[-123.20073,43.86716],[-123.2063,43.86554],[-123.21696,43.86904],[-123.21658,43.86424],[-123.2033,43.85734],[-123.20356,43.86137],[-123.18384,43.86835],[-123.18145,43.87652],[-123.17705,43.87623],[-123.16676,43.88613],[-123.16689,43.87818],[-123.16012,43.87406],[-123.17036,43.87477],[-123.17279,43.8689],[-123.177,43.8696],[-123.18113,43.86488],[-123.16357,43.86351],[-123.1601,43.86076],[-123.1529,43.86494],[-123.15008,43.86528],[-123.15502,43.8613],[-123.15099,43.86048],[-123.15807,43.85947],[-123.15638,43.85549],[-123.15906,43.85452],[-123.16233,43.85972],[-123.17819,43.85895],[-123.18601,43.86214],[-123.19194,43.86009],[-123.19212,43.85435],[-123.2023,43.85184],[-123.20352,43.8483],[-123.19829,43.84606],[-123.18244,43.8485],[-123.18728,43.84334],[-123.20175,43.83979],[-123.21286,43.84244],[-123.21358,43.83976],[-123.21054,43.84064],[-123.20584,43.83428],[-123.19318,43.83542],[-123.19777,43.83157],[-123.19792,43.8268],[-123.22019,43.82915],[-123.22011,43.83451],[-123.22378,43.83546],[-123.22803,43.82592],[-123.21477,43.82554],[-123.20609,43.82179],[-123.22114,43.81968],[-123.2123,43.81544],[-123.22228,43.81204],[-123.22604,43.81408],[-123.22435,43.80476],[-123.22048,43.80113],[-123.21677,43.80331],[-123.21864,43.80818],[-123.21475,43.81056],[-123.21189,43.81088],[-123.21167,43.80624],[-123.20503,43.80839],[-123.2053,43.81636],[-123.19746,43.81117],[-123.17213,43.83852],[-123.1721,43.83269],[-123.16733,43.83274],[-123.17702,43.82292],[-123.17111,43.82278],[-123.19148,43.8078],[-123.19161,43.80066],[-123.19702,43.80166],[-123.20012,43.79651],[-123.21047,43.79402],[-123.2016,43.79219],[-123.1993,43.78867],[-123.19934,43.79218],[-123.19411,43.79489],[-123.19341,43.7885],[-123.18532,43.78827],[-123.17349,43.8122],[-123.16572,43.81349],[-123.15756,43.82187],[-123.15495,43.81912],[-123.15661,43.81501],[-123.17245,43.8033],[-123.1557,43.80268],[-123.17298,43.79707],[-123.17643,43.78766],[-123.1724,43.78635],[-123.15682,43.79346],[-123.15729,43.78964],[-123.16282,43.78676],[-123.15927,43.78401],[-123.15078,43.78918],[-123.15563,43.78245],[-123.15315,43.77964],[-123.24489,43.7796],[-123.24783,43.78227],[-123.2606,43.78006],[-123.26369,43.78077],[-123.25782,43.78297],[-123.25948,43.78785],[-123.25302,43.78489],[-123.24412,43.78895],[-123.25505,43.79499],[-123.24137,43.79527],[-123.24789,43.7994],[-123.24889,43.80532],[-123.25473,43.81048],[-123.25777,43.80128],[-123.2559,43.79945],[-123.2631,43.79657],[-123.26263,43.8009],[-123.26617,43.80188],[-123.26249,43.81074],[-123.26574,43.81428],[-123.26389,43.8191],[-123.26759,43.82293],[-123.26806,43.83215],[-123.26121,43.83526],[-123.25601,43.83131],[-123.25755,43.83756],[-123.26231,43.84076],[-123.25698,43.84188],[-123.25733,43.84578],[-123.2631,43.84448],[-123.26419,43.84801],[-123.26114,43.85294],[-123.25501,43.85085],[-123.26109,43.85691],[-123.26707,43.85565],[-123.26414,43.86055],[-123.26971,43.86295],[-123.26498,43.86704],[-123.27218,43.87196],[-123.26752,43.87525],[-123.26404,43.87105],[-123.26059,43.87648],[-123.27165,43.88464],[-123.26392,43.88804],[-123.26154,43.88221],[-123.25469,43.88434],[-123.24938,43.88225],[-123.25692,43.88713],[-123.25839,43.89212],[-123.25421,43.89467],[-123.26424,43.89729],[-123.26423,43.89227],[-123.2781,43.88906],[-123.2833,43.89097],[-123.28193,43.88521],[-123.28652,43.88501],[-123.28692,43.8895],[-123.29113,43.89195],[-123.29912,43.88925],[-123.29429,43.89598],[-123.29563,43.89813],[-123.29937,43.8952],[-123.31576,43.89482],[-123.31705,43.89727],[-123.3077,43.89849],[-123.30854,43.90494],[-123.30006,43.90137],[-123.29443,43.90962],[-123.28845,43.90833],[-123.28924,43.91201],[-123.2958,43.91292],[-123.29587,43.91847],[-123.3023,43.9151],[-123.30348,43.91091],[-123.30781,43.91312],[-123.32594,43.90685],[-123.34201,43.91103],[-123.34675,43.9079],[-123.34839,43.91882],[-123.34577,43.91401],[-123.32036,43.91108],[-123.31609,43.91262],[-123.31587,43.91595],[-123.3079,43.91466],[-123.30728,43.91815],[-123.31067,43.92514],[-123.31805,43.9257],[-123.31474,43.93154],[-123.32319,43.93271],[-123.32358,43.93879],[-123.31885,43.94155],[-123.32503,43.94323],[-123.33347,43.94062],[-123.34377,43.94841],[-123.34134,43.95156],[-123.34731,43.95005],[-123.36049,43.95561],[-123.36094,43.9638],[-123.35788,43.96882],[-123.35359,43.96793],[-123.34132,43.97383],[-123.35279,43.97354],[-123.36178,43.97824],[-123.36084,43.97335],[-123.36509,43.97242],[-123.37093,43.97878],[-123.37473,43.97794],[-123.37289,43.98126],[-123.38002,43.98247],[-123.37954,43.98516],[-123.38264,43.97974],[-123.39498,43.97966],[-123.39775,43.98324],[-123.39318,43.98844],[-123.39398,43.99042],[-123.40302,43.98272],[-123.3989,43.9796],[-123.40439,43.97658],[-123.40846,43.9799],[-123.41176,43.97739],[-123.41363,43.98296],[-123.41886,43.98364],[-123.4217,43.98953],[-123.41508,43.99081],[-123.42955,43.99509],[-123.42253,43.99818],[-123.42203,44.00296],[-123.43346,43.99858],[-123.43767,44.00107],[-123.43648,43.99727],[-123.44759,43.9984],[-123.44868,44.00081],[-123.44084,44.00526],[-123.45498,44.00615],[-123.44984,44.00758],[-123.4527,44.00864],[-123.44986,44.01008],[-123.45192,44.01253],[-123.46044,44.01071],[-123.45797,44.00667],[-123.46604,44.00847],[-123.46596,44.00484],[-123.45879,44.00088],[-123.46751,44.00073],[-123.47016,44.00352],[-123.4719,44.00125],[-123.46572,43.99863],[-123.47101,43.99724],[-123.47133,43.99586],[-123.46298,43.99699],[-123.46568,43.99221],[-123.47076,43.99083],[-123.4594,43.9889],[-123.46365,43.99179],[-123.46258,43.99547],[-123.46048,43.99668],[-123.45689,43.99157],[-123.45754,43.99554],[-123.45371,43.99329],[-123.45291,43.99648],[-123.43794,43.99311],[-123.43112,43.98826],[-123.44239,43.98902],[-123.4478,43.98587],[-123.44675,43.98339],[-123.45307,43.98714],[-123.45059,43.98369],[-123.45282,43.9791],[-123.45962,43.98198],[-123.4666,43.98071],[-123.47224,43.98276],[-123.47224,44.04213],[-123.56379,44.0421],[-123.55507,44.04348],[-123.53929,44.05725],[-123.53855,44.0612],[-123.54414,44.06184],[-123.53788,44.06715],[-123.54748,44.0645],[-123.54979,44.06706],[-123.54447,44.07062],[-123.55417,44.07625],[-123.55036,44.07794],[-123.55172,44.0817],[-123.53842,44.07714],[-123.54457,44.08277],[-123.53625,44.0856],[-123.5504,44.08711],[-123.54655,44.09105],[-123.53752,44.091],[-123.54429,44.09626],[-123.53656,44.09536],[-123.53595,44.09832],[-123.52963,44.09627],[-123.53215,44.09311],[-123.52852,44.08792],[-123.52271,44.09636],[-123.51644,44.0961],[-123.51845,44.09387],[-123.51324,44.0938],[-123.5162,44.09218],[-123.50415,44.08571],[-123.50602,44.08216],[-123.49496,44.07809],[-123.49004,44.07783],[-123.49129,44.084],[-123.48717,44.08578],[-123.49536,44.08911],[-123.4956,44.08562],[-123.4982,44.08734],[-123.4997,44.0851],[-123.50452,44.09353],[-123.51047,44.09522],[-123.50932,44.09704],[-123.52341,44.09913],[-123.53211,44.10312],[-123.51805,44.10153],[-123.51693,44.10504],[-123.4974,44.09844],[-123.49985,44.10057],[-123.49738,44.10195],[-123.50729,44.10473],[-123.50853,44.11138],[-123.5132,44.11224],[-123.50714,44.11637],[-123.52501,44.1172],[-123.52364,44.11358],[-123.52857,44.11488],[-123.52603,44.11066],[-123.5421,44.11528],[-123.54266,44.11737],[-123.53247,44.11589],[-123.52836,44.11899],[-123.53993,44.12102],[-123.52644,44.1214],[-123.53355,44.1252],[-123.54131,44.1249],[-123.53995,44.12833],[-123.53092,44.12881],[-123.52189,44.12278],[-123.51921,44.12272],[-123.51975,44.12544],[-123.50833,44.12208],[-123.51596,44.12646],[-123.51051,44.12636],[-123.5162,44.13219],[-123.52145,44.13345],[-123.5178,44.13407],[-123.51885,44.13669],[-123.50824,44.13051],[-123.50755,44.13364],[-123.51182,44.13615],[-123.5077,44.13598],[-123.51018,44.14038],[-123.50726,44.14268],[-123.50069,44.13408],[-123.50111,44.12234],[-123.49763,44.12783],[-123.4944,44.1278],[-123.49748,44.13434],[-123.4885,44.13366],[-123.49844,44.14189],[-123.48893,44.14144],[-123.49684,44.14548],[-123.4895,44.14504],[-123.49708,44.15033],[-123.49547,44.15302],[-123.48943,44.14848],[-123.48754,44.1533],[-123.48348,44.14858],[-123.47707,44.14929],[-123.48074,44.14636],[-123.47615,44.14676],[-123.47551,44.14229],[-123.47165,44.14051],[-123.47116,44.14583],[-123.47394,44.14746],[-123.46936,44.15312],[-123.46095,44.14523],[-123.45771,44.14639],[-123.4644,44.15433],[-123.45763,44.15255],[-123.4542,44.1561],[-123.44756,44.15088],[-123.4457,44.15516],[-123.42852,44.15592],[-123.45533,44.16119],[-123.47238,44.15719],[-123.47232,44.16096],[-123.47721,44.16131],[-123.47566,44.17022],[-123.48179,44.17385],[-123.47559,44.17169],[-123.47512,44.1649],[-123.46875,44.16147],[-123.4615,44.1648],[-123.46483,44.16701],[-123.45871,44.16739],[-123.46346,44.1727],[-123.4487,44.16925],[-123.4524,44.17447],[-123.46688,44.17744],[-123.47004,44.17398],[-123.47839,44.18163],[-123.47397,44.18489],[-123.46578,44.18246],[-123.46234,44.18635],[-123.46728,44.18693],[-123.46488,44.18987],[-123.47032,44.18986],[-123.46857,44.19392],[-123.47544,44.19157],[-123.47354,44.18863],[-123.48093,44.19046],[-123.47369,44.19625],[-123.47801,44.20226],[-123.48358,44.2017],[-123.48121,44.20961],[-123.47747,44.20571],[-123.47506,44.20903],[-123.47431,44.20673],[-123.46993,44.20832],[-123.47333,44.20483],[-123.46606,44.19768],[-123.4666,44.20241],[-123.46256,44.20423],[-123.46068,44.19696],[-123.45542,44.1939],[-123.45326,44.20018],[-123.45798,44.20649],[-123.4533,44.20595],[-123.45201,44.21296],[-123.44456,44.20141],[-123.44277,44.20454],[-123.43008,44.2068],[-123.42758,44.20482],[-123.43195,44.20135],[-123.43079,44.19754],[-123.44545,44.19105],[-123.43692,44.19184],[-123.43962,44.18622],[-123.43535,44.18498],[-123.43674,44.1775],[-123.42904,44.16945],[-123.42655,44.17142],[-123.43232,44.17999],[-123.43003,44.18392],[-123.43422,44.18666],[-123.4295,44.18853],[-123.42997,44.19387],[-123.42421,44.19211],[-123.427,44.19561],[-123.42483,44.19916],[-123.42006,44.20103],[-123.41855,44.19364],[-123.41315,44.19549],[-123.41959,44.18364],[-123.41595,44.17857],[-123.40964,44.19153],[-123.40368,44.19192],[-123.40022,44.18684],[-123.39603,44.18652],[-123.40244,44.19253],[-123.39673,44.19735],[-123.407,44.19699],[-123.4123,44.20416],[-123.39217,44.20279],[-123.38411,44.20709],[-123.38878,44.20958],[-123.40048,44.20625],[-123.41853,44.2071],[-123.42195,44.21328],[-123.41844,44.21556],[-123.4275,44.22009],[-123.42195,44.22072],[-123.41975,44.22414],[-123.41652,44.2207],[-123.41066,44.22318],[-123.41336,44.22731],[-123.40387,44.22936],[-123.41394,44.22886],[-123.41517,44.23278],[-123.409,44.23608],[-123.41152,44.23992],[-123.40531,44.24359],[-123.41348,44.24353],[-123.40995,44.24894],[-123.41857,44.25126],[-123.41274,44.25527],[-123.42214,44.25408],[-123.42696,44.2582],[-123.41922,44.25923],[-123.42124,44.26126],[-123.419,44.26281],[-123.40565,44.26128],[-123.413,44.2639],[-123.40473,44.26808],[-123.4113,44.26994],[-123.42528,44.26562],[-123.4265,44.2693],[-123.43573,44.27306],[-123.42954,44.27372],[-123.4304,44.27609],[-123.42481,44.27246],[-123.41834,44.27375],[-123.41551,44.27541],[-123.42188,44.27671],[-123.41688,44.28162],[-123.40675,44.27857],[-123.38852,44.28085],[-123.37971,44.28579],[-123.39956,44.28417],[-123.40481,44.28761],[-123.40878,44.28419],[-123.41668,44.28472],[-123.42239,44.29281],[-123.42244,44.28819],[-123.42969,44.29251],[-123.43504,44.29161],[-123.42857,44.30175],[-123.4337,44.30252],[-123.43294,44.30767],[-123.43799,44.31002],[-123.43512,44.31425],[-123.44101,44.31585],[-123.42832,44.3242],[-123.4296,44.3296],[-123.43503,44.33165],[-123.42536,44.33448],[-123.42806,44.34192],[-123.40687,44.34893],[-123.42499,44.35166],[-123.42962,44.34741],[-123.44055,44.34771],[-123.44028,44.35331],[-123.43159,44.36042],[-123.43791,44.35815],[-123.43617,44.36405],[-123.43937,44.36925],[-123.43018,44.36933],[-123.43106,44.37315],[-123.42845,44.37449],[-123.44679,44.38179],[-123.45096,44.38086],[-123.44955,44.38484],[-123.45918,44.39711],[-123.44986,44.39338],[-123.44886,44.3873],[-123.44018,44.3844],[-123.44182,44.38777],[-123.43753,44.38689],[-123.43726,44.391],[-123.44409,44.39284],[-123.44653,44.4028],[-123.43639,44.39787],[-123.43236,44.40225],[-123.43728,44.40559],[-123.43528,44.41364],[-123.42535,44.41804],[-123.41335,44.41584],[-123.41513,44.41829],[-123.41218,44.42015],[-123.4176,44.41929],[-123.42093,44.42433],[-123.43402,44.41788],[-123.43531,44.42484],[-123.43948,44.42548],[-123.43884,44.42966],[-123.44275,44.43377],[-123.4357,44.43589],[-123.43638,44.43985],[-123.44789,44.43961],[-123.46357,44.44357],[-123.46454,44.44611],[-123.45748,44.44859],[-123.45928,44.45105],[-123.45116,44.4515],[-123.45365,44.45315],[-123.44331,44.45728],[-123.43922,44.46286],[-123.42903,44.46421],[-123.4381,44.46707],[-123.44792,44.46494],[-123.44604,44.47387],[-123.45967,44.45645],[-123.46512,44.45411],[-123.47315,44.45338],[-123.47979,44.46557],[-123.48319,44.46463],[-123.4772,44.4545],[-123.48002,44.45572],[-123.48055,44.45327],[-123.48743,44.4593],[-123.48692,44.46673],[-123.49235,44.46244],[-123.48972,44.46866],[-123.49711,44.46793],[-123.49141,44.47034],[-123.49165,44.47717],[-123.47664,44.47716],[-123.47585,44.56385],[-123.5969,44.56465],[-123.59694,44.65114],[-123.60283,44.65116],[-123.60072,44.72611],[-123.59274,44.71509],[-123.58809,44.72164],[-123.59016,44.71273],[-123.58538,44.71075],[-123.58701,44.70656],[-123.58383,44.70368],[-123.58188,44.71256],[-123.57809,44.71512],[-123.57587,44.70981],[-123.57834,44.70236],[-123.56852,44.70815],[-123.56692,44.70569],[-123.57125,44.70146],[-123.56464,44.70378],[-123.56595,44.6979],[-123.55892,44.69754],[-123.55793,44.69039],[-123.54948,44.69873],[-123.55242,44.70026],[-123.55007,44.705],[-123.54718,44.70056],[-123.53778,44.70077],[-123.54744,44.69596],[-123.54586,44.69308],[-123.54058,44.69422],[-123.5424,44.69133],[-123.5362,44.6937],[-123.53669,44.69063],[-123.52924,44.69049],[-123.52943,44.68764],[-123.53982,44.68574],[-123.53173,44.68374],[-123.53994,44.6767],[-123.53754,44.6734],[-123.53459,44.67546],[-123.53426,44.67165],[-123.52462,44.67304],[-123.53006,44.67591],[-123.53108,44.68077],[-123.5204,44.67974],[-123.52304,44.68155],[-123.52092,44.68359],[-123.52594,44.68432],[-123.52666,44.69116],[-123.52418,44.69472],[-123.51648,44.69356],[-123.51948,44.69912],[-123.51664,44.70043],[-123.51101,44.70078],[-123.5094,44.69813],[-123.51301,44.6938],[-123.51051,44.69182],[-123.51368,44.68556],[-123.50761,44.68707],[-123.50482,44.69678],[-123.50239,44.69052],[-123.49868,44.69046],[-123.5011,44.68567],[-123.49828,44.68331],[-123.49248,44.68817],[-123.48072,44.68818],[-123.48063,44.69077],[-123.48916,44.69226],[-123.48492,44.69492],[-123.49588,44.69438],[-123.49466,44.69704],[-123.49908,44.70034],[-123.52167,44.70815],[-123.51952,44.71177],[-123.53105,44.71361],[-123.5276,44.71903],[-123.53389,44.71706],[-123.5343,44.72057],[-123.53853,44.72209],[-123.55049,44.72127],[-123.5493,44.7242],[-123.5532,44.72741],[-123.54456,44.72857],[-123.55283,44.73182],[-123.54658,44.73515],[-123.55032,44.73689],[-123.5445,44.7368],[-123.53707,44.74237],[-123.55318,44.74922],[-123.56125,44.74554],[-123.56392,44.74746],[-123.56307,44.75206],[-123.5662,44.74426],[-123.5699,44.74865],[-123.56825,44.75366],[-123.57312,44.7492],[-123.57447,44.75201],[-123.58001,44.75037],[-123.57587,44.75382],[-123.57824,44.75592],[-123.57269,44.75638],[-123.57376,44.76816],[-123.59518,44.77399],[-123.59792,44.7705],[-123.60148,44.77549],[-123.60467,44.76677],[-123.60879,44.76565],[-123.60703,44.77092],[-123.61304,44.76873],[-123.6091,44.77246],[-123.61176,44.77413],[-123.61821,44.77164],[-123.61638,44.77531],[-123.62044,44.7787],[-123.60985,44.7769],[-123.61847,44.782],[-123.61293,44.78515],[-123.62205,44.78868],[-123.62092,44.78322],[-123.62433,44.78372],[-123.62494,44.78023],[-123.62992,44.78419],[-123.62505,44.78617],[-123.62757,44.78718],[-123.62537,44.78908],[-123.63353,44.78656],[-123.64187,44.7881],[-123.64098,44.79049],[-123.63189,44.7913],[-123.63561,44.79434],[-123.63191,44.79423],[-123.63426,44.79958],[-123.62787,44.79461],[-123.62699,44.79942],[-123.63246,44.8084],[-123.62888,44.80933],[-123.62591,44.80235],[-123.62385,44.80859],[-123.61994,44.8043],[-123.62379,44.79574],[-123.62223,44.79386],[-123.61903,44.7963],[-123.61871,44.79251],[-123.6119,44.80633],[-123.61404,44.79192],[-123.60986,44.79295],[-123.61263,44.78951],[-123.60687,44.78984],[-123.60476,44.78657],[-123.60744,44.78162],[-123.59742,44.77956],[-123.60438,44.79367],[-123.60413,44.81144],[-123.59731,44.79333],[-123.59793,44.80835],[-123.58231,44.81188],[-123.59291,44.80226],[-123.59192,44.79735],[-123.58488,44.80662],[-123.58183,44.80693],[-123.58423,44.80081],[-123.57836,44.80213],[-123.58072,44.79874],[-123.57804,44.79677],[-123.58548,44.7974],[-123.5878,44.79446],[-123.58403,44.79262],[-123.59103,44.79021],[-123.59198,44.78702],[-123.58722,44.78699],[-123.59027,44.7807],[-123.58682,44.7806],[-123.58119,44.79066],[-123.57525,44.79316],[-123.57332,44.79056],[-123.57895,44.78809],[-123.57895,44.78293],[-123.5862,44.77504],[-123.57468,44.78322],[-123.57367,44.77849],[-123.58144,44.77277],[-123.57113,44.77405],[-123.56075,44.76815],[-123.5612,44.76516],[-123.54679,44.76247],[-123.54473,44.75845],[-123.54234,44.75949],[-123.53653,44.75285],[-123.52422,44.74671],[-123.5225,44.7512],[-123.53578,44.75652],[-123.53251,44.7584],[-123.53524,44.7625],[-123.52761,44.76132],[-123.52792,44.76677],[-123.52005,44.76277],[-123.52131,44.76736],[-123.51826,44.76803],[-123.51062,44.76194],[-123.50617,44.76802],[-123.5086,44.77121],[-123.50001,44.76761],[-123.49389,44.76962],[-123.49887,44.77104],[-123.49661,44.77442],[-123.5003,44.77698],[-123.4805,44.78415],[-123.48988,44.78676],[-123.48738,44.79254],[-123.48653,44.78725],[-123.47965,44.78783],[-123.48338,44.79016],[-123.48112,44.79454],[-123.47345,44.79228],[-123.471,44.78731],[-123.46649,44.79034],[-123.48321,44.799],[-123.48779,44.79626],[-123.48744,44.79891],[-123.49436,44.79811],[-123.49609,44.79995],[-123.48909,44.80062],[-123.48868,44.80393],[-123.48141,44.8027],[-123.48732,44.80752],[-123.48295,44.80763],[-123.48276,44.81341],[-123.48018,44.80785],[-123.47501,44.81309],[-123.46829,44.80574],[-123.46343,44.80719],[-123.45649,44.80169],[-123.44888,44.80706],[-123.45088,44.81032],[-123.44604,44.80953],[-123.44496,44.81294],[-123.4388,44.80441],[-123.44011,44.79513],[-123.42673,44.7995],[-123.43725,44.80211],[-123.43289,44.80664],[-123.42283,44.80686],[-123.42084,44.81056],[-123.41204,44.80992],[-123.41864,44.81288],[-123.41868,44.81648],[-123.42536,44.81598],[-123.43739,44.82149],[-123.43842,44.83023],[-123.45391,44.82698],[-123.467,44.82992],[-123.46505,44.83265],[-123.46804,44.8361],[-123.47174,44.83583],[-123.47398,44.83682],[-123.46063,44.83731],[-123.45159,44.84299],[-123.45849,44.85126],[-123.45912,44.86161],[-123.46532,44.86324],[-123.46764,44.85629],[-123.4696,44.86174],[-123.47272,44.86078],[-123.47029,44.86531],[-123.4759,44.86698],[-123.47016,44.86929],[-123.4822,44.86945],[-123.48864,44.86472],[-123.49651,44.86576],[-123.5013,44.86133],[-123.50877,44.86442],[-123.51257,44.85845],[-123.51963,44.85507],[-123.53696,44.85419],[-123.52,44.86133],[-123.52101,44.864],[-123.51725,44.86621],[-123.52329,44.87007],[-123.5226,44.87271],[-123.50413,44.87324],[-123.50322,44.87805],[-123.50793,44.88556],[-123.49487,44.87902],[-123.46453,44.87439],[-123.45503,44.88116],[-123.46465,44.88381],[-123.46184,44.88724],[-123.45432,44.88832],[-123.44693,44.88522],[-123.4477,44.88145],[-123.44389,44.88257],[-123.44296,44.87909],[-123.43911,44.87924],[-123.43674,44.88328],[-123.43041,44.88396],[-123.4317,44.89086],[-123.42305,44.89169],[-123.41853,44.89738],[-123.41258,44.89467],[-123.40984,44.8981],[-123.40151,44.89816],[-123.38557,44.90757],[-123.42166,44.90414],[-123.43064,44.89789],[-123.42586,44.89725],[-123.42732,44.89447],[-123.4328,44.89389],[-123.43615,44.89778],[-123.44151,44.89271],[-123.44272,44.89577],[-123.44662,44.89375],[-123.4506,44.89645],[-123.46699,44.89681],[-123.47419,44.90246],[-123.48,44.89993],[-123.47981,44.90405],[-123.48727,44.90092],[-123.49027,44.90265],[-123.49036,44.89882],[-123.4975,44.89925],[-123.50247,44.89538],[-123.50639,44.9008],[-123.52436,44.90418],[-123.52902,44.8975],[-123.52861,44.9043],[-123.5239,44.9079],[-123.51858,44.90424],[-123.50942,44.90656],[-123.49709,44.90231],[-123.50116,44.90646],[-123.48807,44.90692],[-123.48727,44.90918],[-123.50298,44.91611],[-123.4952,44.91406],[-123.49315,44.91729],[-123.49287,44.91346],[-123.48606,44.91147],[-123.48095,44.914],[-123.48387,44.91074],[-123.48229,44.90749],[-123.47846,44.90916],[-123.47382,44.90597],[-123.47177,44.91009],[-123.46288,44.90204],[-123.45898,44.90205],[-123.45818,44.90489],[-123.46139,44.91031],[-123.45386,44.9087],[-123.45402,44.90204],[-123.44674,44.90141],[-123.43932,44.90716],[-123.4352,44.90478],[-123.43213,44.90721],[-123.44061,44.91615],[-123.42485,44.90989],[-123.42194,44.9156],[-123.42693,44.92249],[-123.42162,44.92435],[-123.41868,44.93072],[-123.41708,44.92686],[-123.42057,44.92143],[-123.41629,44.91246],[-123.39995,44.92054],[-123.39932,44.92959],[-123.39415,44.92959],[-123.39016,44.93705],[-123.38389,44.9386],[-123.39355,44.94102],[-123.39578,44.95221],[-123.38405,44.95705],[-123.39397,44.96243],[-123.39172,44.96597],[-123.39368,44.96778],[-123.40653,44.96498],[-123.40914,44.96004],[-123.41042,44.96385],[-123.41682,44.96608],[-123.41103,44.96658],[-123.41053,44.97038],[-123.40333,44.97256],[-123.40991,44.97769],[-123.40488,44.9811],[-123.40957,44.98473],[-123.42315,44.98054],[-123.42461,44.97704],[-123.42915,44.97725],[-123.42907,44.9804],[-123.43801,44.9788],[-123.43623,44.97374],[-123.4409,44.97267],[-123.4435,44.96084],[-123.44924,44.96729],[-123.45855,44.96416],[-123.46246,44.9597],[-123.45303,44.95054],[-123.46199,44.94437],[-123.45751,44.95092],[-123.46689,44.9591],[-123.49946,44.96321],[-123.50821,44.96921],[-123.50869,44.96238],[-123.50596,44.96023],[-123.50933,44.96038],[-123.51209,44.97096],[-123.53067,44.97162],[-123.53832,44.96708],[-123.547,44.96643],[-123.52809,44.97324],[-123.52672,44.97654],[-123.51593,44.97291],[-123.51178,44.98176],[-123.51123,44.97435],[-123.49762,44.96686],[-123.47889,44.96638],[-123.47556,44.96905],[-123.48035,44.97338],[-123.472,44.96901],[-123.47053,44.97157],[-123.46171,44.97122],[-123.46358,44.97954],[-123.45486,44.97238],[-123.45421,44.9761],[-123.45059,44.97494],[-123.4489,44.9776],[-123.45098,44.98244],[-123.44557,44.98207],[-123.44462,44.9866],[-123.42975,44.98975],[-123.44414,44.99455],[-123.45173,44.98933],[-123.45254,44.99382],[-123.45957,44.99203],[-123.46838,44.99494],[-123.47503,44.99406],[-123.47511,44.99127],[-123.48418,44.9941],[-123.48423,44.99088],[-123.49089,44.99262],[-123.49777,44.98948],[-123.48996,44.99476],[-123.50647,44.99835],[-123.51061,44.99499],[-123.51134,44.99796],[-123.5161,44.99872],[-123.52417,44.99702],[-123.51405,45.0046],[-123.5195,45.00485],[-123.51578,45.00777],[-123.52558,45.01122],[-123.5255,45.00711],[-123.52992,45.00814],[-123.53288,45.00201],[-123.53439,45.00747],[-123.54134,45.00008],[-123.5465,45.00735],[-123.55293,44.99773],[-123.55314,45.00435],[-123.56123,45.0002],[-123.56344,45.00303],[-123.57165,45.00082],[-123.57752,45.00294],[-123.58494,44.99674],[-123.5821,44.98564],[-123.59057,44.99523],[-123.584,45.00352],[-123.5867,45.00162],[-123.59599,45.00009],[-123.5908,45.00232],[-123.59551,45.00365],[-123.59121,45.00508],[-123.5952,45.00693],[-123.59246,45.00834],[-123.59485,45.01033],[-123.59182,45.01122],[-123.58758,45.00533],[-123.58687,45.00938],[-123.57649,45.01171],[-123.57785,45.01889],[-123.5809,45.01584],[-123.58612,45.01989],[-123.59766,45.01655],[-123.60116,45.01828],[-123.60423,45.0149],[-123.60545,45.01492],[-123.60166,45.01859],[-123.59817,45.01731],[-123.58389,45.02269],[-123.58636,45.02504],[-123.59571,45.02298],[-123.59406,45.02555],[-123.6013,45.02806],[-123.58973,45.03161],[-123.58935,45.03564],[-123.59363,45.03797],[-123.61231,45.02861],[-123.61281,45.02398],[-123.6184,45.02146],[-123.62931,45.02359],[-123.61764,45.01717],[-123.61876,45.01432],[-123.6246,45.01485],[-123.6207,45.01156],[-123.62765,45.01094],[-123.63218,45.01483],[-123.63044,45.00631],[-123.6354,45.00313],[-123.6398,45.00431],[-123.6406,45.00324],[-123.64003,45.00203],[-123.64077,45.00061],[-123.6417,45.00363],[-123.64376,44.99995],[-123.64586,45.00052],[-123.64271,45.0046],[-123.6367,45.00653],[-123.6384,45.01032],[-123.64609,45.0112],[-123.64135,45.01404],[-123.64723,45.01638],[-123.63871,45.01966],[-123.64439,45.02951],[-123.65803,45.03042],[-123.6606,45.03684],[-123.66871,45.03567],[-123.66994,45.03288],[-123.67374,45.0356],[-123.68442,45.03174],[-123.69234,45.03427],[-123.70268,45.0292],[-123.71348,45.03189],[-123.7229,45.03715],[-123.72473,45.04207],[-123.72972,45.12773],[-123.71551,45.12493],[-123.71593,45.12954],[-123.70019,45.12758],[-123.69705,45.12934],[-123.70576,45.1365],[-123.7006,45.13621],[-123.69051,45.12934],[-123.67827,45.12646],[-123.6734,45.12055],[-123.66891,45.12238],[-123.67691,45.1334],[-123.68623,45.1356],[-123.69158,45.14111],[-123.69402,45.14492],[-123.68999,45.14637],[-123.6902,45.14936],[-123.69788,45.1484],[-123.69963,45.14937],[-123.69512,45.1521],[-123.70876,45.15601],[-123.71178,45.15979],[-123.70554,45.15812],[-123.70446,45.16247],[-123.70054,45.15636],[-123.69564,45.1583],[-123.68997,45.15516],[-123.68895,45.15984],[-123.68572,45.16041],[-123.68917,45.16282],[-123.68554,45.16677],[-123.69329,45.17332],[-123.68615,45.16944],[-123.6814,45.17247],[-123.68504,45.16355],[-123.67787,45.16486],[-123.68224,45.14204],[-123.67381,45.14061],[-123.67461,45.14443],[-123.66778,45.13717],[-123.65951,45.14068],[-123.67408,45.14856],[-123.67224,45.15415],[-123.66753,45.15003],[-123.66445,45.15281],[-123.66972,45.15678],[-123.6624,45.15654],[-123.65824,45.16124],[-123.66243,45.16708],[-123.66235,45.16994],[-123.6557,45.16361],[-123.65667,45.16139],[-123.64642,45.16443],[-123.6558,45.16036],[-123.65869,45.15576],[-123.65537,45.1548],[-123.65758,45.15211],[-123.65451,45.14874],[-123.65232,45.15128],[-123.64928,45.14809],[-123.64717,45.15098],[-123.64497,45.14365],[-123.64065,45.14706],[-123.64314,45.15174],[-123.64027,45.15239],[-123.64749,45.15614],[-123.63622,45.16056],[-123.63388,45.15215],[-123.62872,45.14861],[-123.63311,45.1463],[-123.63197,45.1403],[-123.62818,45.14441],[-123.61902,45.14361],[-123.62217,45.14932],[-123.6201,45.15052],[-123.62522,45.15246],[-123.6256,45.15579],[-123.61926,45.15188],[-123.61556,45.15332],[-123.61703,45.14962],[-123.60963,45.14622],[-123.61161,45.14307],[-123.609,45.1401],[-123.60201,45.13985],[-123.60544,45.14645],[-123.59391,45.1446],[-123.58559,45.13984],[-123.58677,45.13049],[-123.58141,45.13612],[-123.58043,45.12863],[-123.58346,45.12651],[-123.57661,45.1256],[-123.57924,45.13111],[-123.57559,45.1338],[-123.57644,45.1376],[-123.56459,45.14199],[-123.57345,45.14469],[-123.57414,45.14123],[-123.5823,45.13965],[-123.60075,45.14809],[-123.60976,45.15921],[-123.61021,45.16913],[-123.61586,45.17189],[-123.60894,45.17203],[-123.60787,45.16064],[-123.60209,45.15483],[-123.59106,45.15202],[-123.58685,45.15544],[-123.58205,45.15274],[-123.57786,45.15565],[-123.57289,45.15086],[-123.56485,45.14982],[-123.56705,45.15311],[-123.5648,45.15698],[-123.57181,45.15596],[-123.56994,45.15916],[-123.5827,45.16086],[-123.57997,45.16289],[-123.58194,45.16548],[-123.59075,45.16925],[-123.58613,45.16898],[-123.58314,45.17292],[-123.5834,45.16924],[-123.57667,45.16896],[-123.57552,45.16404],[-123.56776,45.16266],[-123.56495,45.17017],[-123.56109,45.16108],[-123.55898,45.1625],[-123.55429,45.15857],[-123.54953,45.1623],[-123.56492,45.1784],[-123.58074,45.17967],[-123.57699,45.18253],[-123.58356,45.18726],[-123.58604,45.19814],[-123.59382,45.20026],[-123.58297,45.20103],[-123.58073,45.19097],[-123.57106,45.18266],[-123.56678,45.18382],[-123.56765,45.18798],[-123.56534,45.1881],[-123.55805,45.18226],[-123.54211,45.18073],[-123.53482,45.18894],[-123.53014,45.18493],[-123.53082,45.17944],[-123.5253,45.17374],[-123.52521,45.16688],[-123.52056,45.16822],[-123.51497,45.1647],[-123.51265,45.17053],[-123.51688,45.17173],[-123.51268,45.17484],[-123.51078,45.18359],[-123.5184,45.18405],[-123.5204,45.18758],[-123.51631,45.18751],[-123.51667,45.19208],[-123.51129,45.1952],[-123.51213,45.20113],[-123.50473,45.20399],[-123.51058,45.20971],[-123.48942,45.2068],[-123.48647,45.21347],[-123.48956,45.21558],[-123.48185,45.21883],[-123.48548,45.22813],[-123.47404,45.23544],[-123.47869,45.23153],[-123.47866,45.2273],[-123.47115,45.2186],[-123.48121,45.21435],[-123.4791,45.21214],[-123.4859,45.2059],[-123.48401,45.20258],[-123.49761,45.20364],[-123.4986,45.19852],[-123.50563,45.19727],[-123.50593,45.19094],[-123.50031,45.18721],[-123.4924,45.19168],[-123.49197,45.18833],[-123.48871,45.18886],[-123.49718,45.18393],[-123.48789,45.18257],[-123.48587,45.1796],[-123.4672,45.18558],[-123.46688,45.1914],[-123.47069,45.19304],[-123.46843,45.19681],[-123.46473,45.1957],[-123.46361,45.20646],[-123.44861,45.19903],[-123.45111,45.19408],[-123.4488,45.19208],[-123.45517,45.18574],[-123.45131,45.1796],[-123.4457,45.18686],[-123.4379,45.18992],[-123.44146,45.19355],[-123.44108,45.20237],[-123.43755,45.2025],[-123.4392,45.20683],[-123.42999,45.20494],[-123.4263,45.2072],[-123.42553,45.20056],[-123.42004,45.20107],[-123.41778,45.20329],[-123.41958,45.20799],[-123.40393,45.21393],[-123.40552,45.21679],[-123.40263,45.21816],[-123.4052,45.22044],[-123.40112,45.22215],[-123.39774,45.22147],[-123.3986,45.21385],[-123.40886,45.20563],[-123.40882,45.20244],[-123.40265,45.19984],[-123.39979,45.20271],[-123.40207,45.20476],[-123.39129,45.20822],[-123.3917,45.21034],[-123.37988,45.20601],[-123.38342,45.20998],[-123.38159,45.21654],[-123.39026,45.21637],[-123.38985,45.22117],[-123.39549,45.22518],[-123.39252,45.23037],[-123.39403,45.23438],[-123.37899,45.22388],[-123.37729,45.23241],[-123.37008,45.23468],[-123.36828,45.22406],[-123.35731,45.22422],[-123.35648,45.22787],[-123.3489,45.22229],[-123.35175,45.21094],[-123.3614,45.21322],[-123.36162,45.20978],[-123.35541,45.2062],[-123.35868,45.2016],[-123.35619,45.19969],[-123.34897,45.2014],[-123.3408,45.21632],[-123.33557,45.21866],[-123.331,45.21654],[-123.33441,45.21287],[-123.3282,45.21035],[-123.32973,45.20758],[-123.32425,45.20761],[-123.3225,45.21353],[-123.32869,45.21327],[-123.3303,45.21822],[-123.32714,45.22068],[-123.34048,45.22358],[-123.33575,45.22511],[-123.33808,45.22675],[-123.33606,45.23133],[-123.32889,45.23162],[-123.33857,45.23744],[-123.337,45.24653],[-123.35127,45.25452],[-123.3539,45.26058],[-123.36316,45.26404],[-123.34698,45.25966],[-123.3451,45.26454],[-123.34135,45.25785],[-123.34036,45.2626],[-123.33458,45.26262],[-123.32479,45.25509],[-123.323,45.25827],[-123.32227,45.25459],[-123.31799,45.25593],[-123.31954,45.2491],[-123.31472,45.24628],[-123.31693,45.2431],[-123.30854,45.24103],[-123.30151,45.2491],[-123.28998,45.24376],[-123.29024,45.24671],[-123.2939,45.24709],[-123.29186,45.25001],[-123.30075,45.25742],[-123.29338,45.26073],[-123.28837,45.26743],[-123.29501,45.26696],[-123.2973,45.27312],[-123.30398,45.27662],[-123.31355,45.2748],[-123.32018,45.28387],[-123.33421,45.2876],[-123.35046,45.28621],[-123.34735,45.29245],[-123.35095,45.29325],[-123.34954,45.29562],[-123.352,45.29607],[-123.34828,45.29747],[-123.3522,45.29949],[-123.36873,45.2932],[-123.36283,45.30218],[-123.37136,45.30769],[-123.36369,45.30733],[-123.35957,45.31036],[-123.3775,45.31364],[-123.38032,45.31528],[-123.37006,45.31468],[-123.38362,45.32236],[-123.36297,45.31397],[-123.36009,45.31807],[-123.35575,45.31521],[-123.34971,45.31815],[-123.35868,45.32488],[-123.35878,45.32608],[-123.3401,45.32838],[-123.33237,45.33339],[-123.3344,45.33709],[-123.34043,45.33809],[-123.35656,45.35046],[-123.36895,45.34497],[-123.36561,45.35211],[-123.38598,45.36179],[-123.39308,45.35813],[-123.39103,45.36345],[-123.41025,45.3668],[-123.41781,45.36975],[-123.41075,45.36934],[-123.41439,45.37263],[-123.40434,45.36974],[-123.37998,45.37393],[-123.37305,45.37226],[-123.37088,45.37408],[-123.37421,45.37783],[-123.37063,45.37891],[-123.36211,45.37661],[-123.36192,45.37409],[-123.35204,45.3762],[-123.35724,45.38042],[-123.3553,45.38534],[-123.36436,45.38546],[-123.35995,45.38749],[-123.36568,45.38952],[-123.36543,45.39358],[-123.37433,45.39817],[-123.3793,45.39725],[-123.37883,45.4002],[-123.36683,45.39783],[-123.37055,45.40449],[-123.36066,45.39775],[-123.36014,45.39294],[-123.34894,45.39139],[-123.3503,45.38836],[-123.3434,45.38212],[-123.33952,45.38351],[-123.34062,45.38813],[-123.33559,45.3889],[-123.33877,45.39401],[-123.33557,45.39695],[-123.33063,45.38525],[-123.32277,45.38632],[-123.31842,45.38207],[-123.3092,45.38603],[-123.30808,45.38006],[-123.2942,45.37971],[-123.31256,45.39473],[-123.3048,45.39623],[-123.30235,45.40269],[-123.2982,45.40405],[-123.30669,45.40905],[-123.30598,45.41283],[-123.31498,45.41475],[-123.31437,45.42047],[-123.32272,45.42168],[-123.32735,45.42444],[-123.29628,45.42253],[-123.29631,45.4186],[-123.2867,45.417],[-123.27782,45.418],[-123.27921,45.42278],[-123.26605,45.4193],[-123.27106,45.42858],[-123.27968,45.42782],[-123.28045,45.43223],[-123.28476,45.4341],[-123.30024,45.43565],[-123.29658,45.43771],[-123.29891,45.4415],[-123.31033,45.44593],[-123.27656,45.43897],[-123.27327,45.43955],[-123.27578,45.44259],[-123.27003,45.44358],[-123.28015,45.44814],[-123.28106,45.4526],[-123.28844,45.44918],[-123.29569,45.45185],[-123.29483,45.45435],[-123.3035,45.45832],[-123.30162,45.46252],[-123.31298,45.4638],[-123.31883,45.4602],[-123.32882,45.46493],[-123.33504,45.4619],[-123.35004,45.46414],[-123.35715,45.4621],[-123.37501,45.46661],[-123.36609,45.46625],[-123.36738,45.47016],[-123.36655,45.47142],[-123.36699,45.47339],[-123.36638,45.47403],[-123.36488,45.46594],[-123.35752,45.46454],[-123.33929,45.46555],[-123.3354,45.47095],[-123.33839,45.47295],[-123.33875,45.47452],[-123.3336,45.4711],[-123.33511,45.46669],[-123.32161,45.46844],[-123.3192,45.47337],[-123.31101,45.47132],[-123.30216,45.47462],[-123.27462,45.47097],[-123.27973,45.4798],[-123.28954,45.48326],[-123.29589,45.48185],[-123.30486,45.48673],[-123.30522,45.49036],[-123.29802,45.48594],[-123.29083,45.48954],[-123.29291,45.49219],[-123.28779,45.49226],[-123.28434,45.50195],[-123.27874,45.49412],[-123.28329,45.49186],[-123.27446,45.48657],[-123.26819,45.48559],[-123.26198,45.49308],[-123.26855,45.49593],[-123.26678,45.49803],[-123.26987,45.50239],[-123.2662,45.50397],[-123.27596,45.50773],[-123.27236,45.50927],[-123.27538,45.51166],[-123.2744,45.51711],[-123.28054,45.52676],[-123.27925,45.52936],[-123.3058,45.54321],[-123.30712,45.54917],[-123.3038,45.54419],[-123.27467,45.53382],[-123.27197,45.52694],[-123.26427,45.52429],[-123.24819,45.53921],[-123.24661,45.53907],[-123.2567,45.51971],[-123.25215,45.51342],[-123.25181,45.51725],[-123.24511,45.51861],[-123.24254,45.52239],[-123.23659,45.51777],[-123.22013,45.52107],[-123.22142,45.52659],[-123.21106,45.52169],[-123.20763,45.52762],[-123.20578,45.52195],[-123.20012,45.5231],[-123.20341,45.5203],[-123.20305,45.51688],[-123.20013,45.51416],[-123.20215,45.51771],[-123.19736,45.52086],[-123.19218,45.52003],[-123.19336,45.51567],[-123.19064,45.51715],[-123.18873,45.51375],[-123.17834,45.51197],[-123.17931,45.52046],[-123.19177,45.52438],[-123.19585,45.529],[-123.18581,45.53244],[-123.19511,45.54208],[-123.20401,45.5421],[-123.20712,45.54788],[-123.21574,45.55234],[-123.21387,45.55665],[-123.21735,45.56026],[-123.22268,45.56091],[-123.21914,45.55569],[-123.21984,45.55041],[-123.23273,45.55645],[-123.2398,45.54842],[-123.25342,45.56137],[-123.26638,45.55361],[-123.26638,45.55996],[-123.26206,45.56106],[-123.26045,45.56657],[-123.26846,45.56818],[-123.26701,45.57183],[-123.27196,45.57145],[-123.27713,45.57561],[-123.28324,45.57427],[-123.28199,45.57847],[-123.26529,45.57444],[-123.25934,45.57883],[-123.26684,45.58177],[-123.26672,45.58471],[-123.27792,45.58337],[-123.27674,45.58644],[-123.2801,45.58745],[-123.27465,45.58844],[-123.27536,45.5932],[-123.28626,45.59534],[-123.27403,45.59777],[-123.28229,45.60098],[-123.27529,45.6019],[-123.27984,45.6046],[-123.2759,45.6085],[-123.27767,45.61203],[-123.27068,45.60925],[-123.26554,45.61506],[-123.26912,45.62059],[-123.27953,45.61707],[-123.28621,45.62224],[-123.28825,45.63139],[-123.28137,45.62727],[-123.28758,45.63477],[-123.27784,45.63799],[-123.28168,45.64098],[-123.28847,45.64238],[-123.29106,45.63785],[-123.2945,45.63855],[-123.30067,45.648],[-123.30688,45.65122],[-123.31771,45.64142],[-123.31527,45.63021],[-123.32016,45.63366],[-123.32064,45.64296],[-123.32402,45.64638],[-123.3334,45.64788],[-123.33588,45.64507],[-123.3425,45.64792],[-123.36171,45.63849],[-123.36088,45.64211],[-123.37006,45.64299],[-123.36055,45.64377],[-123.35221,45.64857],[-123.35394,45.65114],[-123.34251,45.65276],[-123.34676,45.65381],[-123.34405,45.65474],[-123.34618,45.6591],[-123.3433,45.65938],[-123.3413,45.66523],[-123.33714,45.65428],[-123.33466,45.65764],[-123.32953,45.65528],[-123.33027,45.6508],[-123.32639,45.65251],[-123.33115,45.66703],[-123.32423,45.66584],[-123.32446,45.67014],[-123.31662,45.67313],[-123.32577,45.67479],[-123.32427,45.67744],[-123.31828,45.6764],[-123.32229,45.68262],[-123.30978,45.6753],[-123.31358,45.68121],[-123.30689,45.68044],[-123.30855,45.68934],[-123.29842,45.68813],[-123.30965,45.69265],[-123.29414,45.69835],[-123.30166,45.69882],[-123.30448,45.70286],[-123.29791,45.70882],[-123.27936,45.70766],[-123.27626,45.70616],[-123.27731,45.70383],[-123.2708,45.70594],[-123.27039,45.70134],[-123.27934,45.69674],[-123.27372,45.6941],[-123.27989,45.6851],[-123.26238,45.6833],[-123.26016,45.67374],[-123.25482,45.67193],[-123.2621,45.67003],[-123.25714,45.66292],[-123.25836,45.65935],[-123.24138,45.65165],[-123.23808,45.65308],[-123.22247,45.64382],[-123.22472,45.64164],[-123.22192,45.6387],[-123.22478,45.63893],[-123.22141,45.63486],[-123.21847,45.63919],[-123.21545,45.63599],[-123.20947,45.63891],[-123.21038,45.64182],[-123.20401,45.64217],[-123.2082,45.64333],[-123.20321,45.64557],[-123.2081,45.64662],[-123.20521,45.64833],[-123.20652,45.65069],[-123.21486,45.65196],[-123.20646,45.65225],[-123.20446,45.65995],[-123.21215,45.66268],[-123.2167,45.66909],[-123.23056,45.66507],[-123.23568,45.67359],[-123.22958,45.67796],[-123.23496,45.67731],[-123.23191,45.6789],[-123.23581,45.68248],[-123.24487,45.68125],[-123.24712,45.68726],[-123.24472,45.69028],[-123.25684,45.69247],[-123.25773,45.70216],[-123.26039,45.70369],[-123.24509,45.70986],[-123.23836,45.72135],[-123.23123,45.72433],[-123.23929,45.72543],[-123.23078,45.72663],[-123.23776,45.7296],[-123.22902,45.72973],[-123.23455,45.73246],[-123.22278,45.73322],[-123.22405,45.73715],[-123.22013,45.73705],[-123.22209,45.73868],[-123.2171,45.74041],[-123.21731,45.7431],[-123.21282,45.74042],[-123.20361,45.75112],[-123.1906,45.74998],[-123.1927,45.74355],[-123.19045,45.7416],[-123.19328,45.73926],[-123.18618,45.73696],[-123.1874,45.73393],[-123.17979,45.74086],[-123.18107,45.73794],[-123.17729,45.73872],[-123.1814,45.73643],[-123.17955,45.72987],[-123.17642,45.73097],[-123.18309,45.7238],[-123.18191,45.72105],[-123.17506,45.72428],[-123.175,45.72109],[-123.16937,45.71756],[-123.16568,45.72003],[-123.16215,45.71141],[-123.15522,45.7182],[-123.15689,45.72072],[-123.14808,45.72238],[-123.15466,45.71299],[-123.13882,45.71221],[-123.14168,45.71078],[-123.14105,45.70635],[-123.14989,45.70154],[-123.14235,45.68559],[-123.13954,45.68998],[-123.14192,45.69639],[-123.13756,45.69411],[-123.1338,45.69789],[-123.12695,45.69051],[-123.12155,45.69353],[-123.11829,45.68663],[-123.12459,45.68191],[-123.11819,45.68117],[-123.11347,45.67184],[-123.10398,45.67371],[-123.1043,45.66949],[-123.10006,45.66651],[-123.10036,45.66889],[-123.09541,45.66762],[-123.08871,45.67225],[-123.08813,45.6771],[-123.09904,45.67471],[-123.10611,45.67793],[-123.09308,45.68112],[-123.08974,45.68565],[-123.09416,45.68541],[-123.08703,45.68912],[-123.09823,45.68651],[-123.1065,45.68943],[-123.10069,45.69163],[-123.09899,45.70305],[-123.08834,45.70397],[-123.08329,45.72122],[-123.10312,45.73663],[-123.09707,45.73364],[-123.09572,45.73699],[-123.08989,45.73694],[-123.08255,45.73241],[-123.07894,45.73588],[-123.07982,45.73162],[-123.07427,45.73484],[-123.07224,45.73823],[-123.07502,45.73694],[-123.07707,45.73715],[-123.0735,45.73932],[-123.07348,45.74654],[-123.07707,45.75117],[-123.08324,45.75252],[-123.07778,45.75292],[-123.08855,45.76408],[-123.078,45.75738],[-123.07093,45.76529],[-123.07018,45.75887],[-123.07485,45.75273],[-123.06918,45.74845],[-123.05889,45.75003],[-123.06326,45.74461],[-123.06241,45.73617],[-123.0572,45.73528],[-123.05745,45.73848],[-123.05396,45.74172],[-123.05598,45.73689],[-123.05287,45.7334],[-123.05742,45.72813],[-123.06445,45.72998],[-123.06642,45.72445],[-123.06086,45.71842],[-123.05908,45.72404],[-123.04966,45.72461],[-123.0528,45.71725],[-123.04508,45.71376],[-123.05305,45.71274],[-123.04731,45.70669],[-123.04524,45.68673],[-123.03082,45.68173],[-123.0202,45.6697],[-123.01608,45.66967],[-123.01934,45.67138],[-123.0166,45.67779],[-123.01892,45.68182],[-123.02985,45.68615],[-123.03342,45.69073],[-123.01853,45.68571],[-123.0165,45.68837],[-123.01315,45.68643],[-123.01633,45.68474],[-123.01138,45.67783],[-123.00456,45.67878],[-123.00263,45.67606],[-122.99972,45.67985],[-122.99356,45.67233],[-122.98484,45.67814],[-122.99468,45.67939],[-122.99661,45.68506],[-123.00417,45.68974],[-123.00244,45.6941],[-123.00726,45.69662],[-123.00126,45.69538],[-122.99992,45.69853],[-123.00426,45.7021],[-123.00432,45.70349],[-122.99997,45.70018],[-122.99836,45.70321],[-122.99779,45.69976],[-122.99156,45.69986],[-122.9861,45.69574],[-122.99635,45.69853],[-123.00188,45.6903],[-122.99124,45.68232],[-122.97357,45.68081],[-122.96835,45.6765],[-122.96792,45.66493],[-122.96116,45.66633],[-122.96093,45.67185],[-122.96392,45.67404],[-122.95818,45.6732],[-122.9564,45.66799],[-122.94444,45.66652],[-122.94191,45.67593],[-122.94557,45.67838],[-122.9427,45.68157],[-122.93967,45.67723],[-122.93378,45.67589],[-122.94058,45.67377],[-122.93661,45.66755],[-122.94024,45.66225],[-122.9542,45.66147],[-122.94608,45.65207],[-122.94464,45.65736],[-122.93937,45.65661],[-122.93714,45.65974],[-122.93585,45.65598],[-122.93187,45.65558],[-122.93104,45.65958],[-122.92911,45.65814],[-122.92916,45.72149],[-122.78475,45.72095],[-122.78468,45.72866],[-122.76245,45.72867],[-122.77253,45.69964],[-122.77452,45.68044],[-122.76382,45.65714],[-122.73812,45.64414],[-122.71332,45.63744],[-122.67485,45.61798],[-122.64392,45.60974],[-122.60262,45.60764],[-122.55034,45.59727],[-122.47933,45.57977],[-122.45391,45.56732],[-122.43869,45.56359],[-122.38032,45.57595],[-122.35282,45.56945],[-122.33152,45.54825],[-122.29492,45.54355],[-122.26672,45.54385],[-122.24901,45.54775],[-122.24934,45.5003],[-122.22259,45.50516],[-122.24337,45.49882],[-122.228,45.49936],[-122.23039,45.4971],[-122.21422,45.49562],[-122.2063,45.49912],[-122.19431,45.49981],[-122.20812,45.4967],[-122.21315,45.49163],[-122.22524,45.49119],[-122.22137,45.48872],[-122.22359,45.48721],[-122.21592,45.48522],[-122.21794,45.48384],[-122.23314,45.48514],[-122.21747,45.47824],[-122.23385,45.47734],[-122.23528,45.47394],[-122.22074,45.4747],[-122.22765,45.4718],[-122.21649,45.46606],[-122.23918,45.46755],[-122.23027,45.46335],[-122.23192,45.46081],[-122.22752,45.4577],[-122.22578,45.45925],[-122.21679,45.45898],[-122.22368,45.45506],[-122.21172,45.45093],[-122.22245,45.45168],[-122.22728,45.44905],[-122.22504,45.44571],[-122.22689,45.4417],[-122.21894,45.44403],[-122.22232,45.44098],[-122.21763,45.43975],[-122.22438,45.43588],[-122.2223,45.4335],[-122.21589,45.43151],[-122.20983,45.43432],[-122.21319,45.42885],[-122.19866,45.43573],[-122.19897,45.41794],[-122.12711,45.41787],[-122.12746,45.25857],[-122.25035,45.25894],[-122.25023,45.17166],[-122.37318,45.17164],[-122.49826,45.08538],[-122.49834,44.99811],[-122.62066,44.99862],[-122.62136,44.80078],[-122.60918,44.80878],[-122.61087,44.80475],[-122.60833,44.79978],[-122.56313,44.80073],[-122.55028,44.79679],[-122.5459,44.80084],[-122.54532,44.79699],[-122.52667,44.80075],[-122.52731,44.79825],[-122.50616,44.80034],[-122.49571,44.79548],[-122.48386,44.79633],[-122.48214,44.80435],[-122.45812,44.7992],[-122.45154,44.80255],[-122.42469,44.80759],[-122.41787,44.80388],[-122.42884,44.79942],[-122.43504,44.80264],[-122.45025,44.80133],[-122.45803,44.79674],[-122.47632,44.80001],[-122.48383,44.79037],[-122.49534,44.7904],[-122.50966,44.79659],[-122.53542,44.79178],[-122.53984,44.79414],[-122.55076,44.79223],[-122.56796,44.78569],[-122.54953,44.77146],[-122.53507,44.7712],[-122.51778,44.76374],[-122.49725,44.76418],[-122.49305,44.76045],[-122.47554,44.75728],[-122.41706,44.75994],[-122.39711,44.75476],[-122.39102,44.75742],[-122.38148,44.75538],[-122.35909,44.75832]]]}}]}