{"type":"FeatureCollection","features":[{"type":"Feature","properties":{"slug":"yamhill-carlton","name":"Yamhill-Carlton"},"geometry":{"type":"Polygon","coordinates":[[[-123.29471,45.29174],[-123.29402,45.41769],[-123.28741,45.41844],[-123.28666,45.417],[-123.28401,45.41846],[-123.28063,45.41758],[-123.2779,45.41796],[-123.27974,45.42099],[-123.27921,45.42278],[-123.27602,45.42268],[-123.27305,45.42121],[-123.27032,45.41868],[-123.26709,45.41859],[-123.26605,45.4193],[-123.26706,45.42149],[-123.26922,45.4234],[-123.26835,45.42497],[-123.2688,45.42625],[-123.27099,45.42608],[-123.27092,45.42849],[-123.27596,45.42981],[-123.2797,45.42783],[-123.28072,45.4285],[-123.28045,45.43223],[-123.28422,45.43384],[-123.18918,45.43364],[-123.18311,45.43572],[-123.17811,45.43638],[-123.17614,45.43556],[-123.16889,45.4361],[-123.16585,45.43521],[-123.16426,45.43558],[-123.16187,45.43791],[-123.1604,45.43732],[-123.16085,45.43669],[-123.15924,45.43758],[-123.1453,45.43705],[-123.1407,45.43826],[-123.1398,45.43465],[-123.14029,45.43324],[-123.14562,45.43132],[-123.14503,45.43067],[-123.1395,45.43097],[-123.1403,45.42472],[-123.13685,45.4227],[-123.13583,45.41983],[-123.13866,45.41774],[-123.14098,45.41708],[-123.14499,45.41749],[-123.14639,45.41695],[-123.1464,45.41616],[-123.14267,45.41572],[-123.14209,45.41478],[-123.14296,45.41382],[-123.14154,45.41262],[-123.13939,45.41483],[-123.13568,45.41486],[-123.13468,45.4157],[-123.12868,45.41396],[-123.12559,45.40991],[-123.12536,45.408],[-123.12439,45.4079],[-123.1235,45.40537],[-123.12431,45.40494],[-123.12345,45.40363],[-123.12413,45.40114],[-123.1273,45.39816],[-123.12428,45.39929],[-123.11956,45.40266],[-123.11693,45.40213],[-123.10502,45.39307],[-123.10228,45.38626],[-123.10206,45.38256],[-123.10064,45.38302],[-123.0997,45.38198],[-123.10007,45.38318],[-123.09658,45.38416],[-123.09636,45.38727],[-123.09502,45.38117],[-123.09624,45.37903],[-123.09954,45.37614],[-123.10082,45.37077],[-123.10045,45.37254],[-123.10108,45.37331],[-123.10021,45.37483],[-123.10167,45.37538],[-123.10316,45.37972],[-123.10645,45.37651],[-123.10612,45.37482],[-123.10723,45.37384],[-123.10728,45.37204],[-123.10677,45.36987],[-123.10475,45.36751],[-123.10579,45.36542],[-123.10457,45.36518],[-123.10409,45.36387],[-123.10559,45.36251],[-123.1036,45.35995],[-123.1031,45.35446],[-123.09976,45.34868],[-123.09868,45.34807],[-123.09422,45.33744],[-123.08862,45.33184],[-123.08077,45.32639],[-123.08513,45.32523],[-123.08773,45.32279],[-123.08887,45.32108],[-123.08848,45.32059],[-123.09133,45.32029],[-123.08929,45.31148],[-123.09433,45.30542],[-123.09991,45.30067],[-123.10236,45.29614],[-123.09779,45.28974],[-123.09742,45.28358],[-123.09828,45.27603],[-123.09998,45.27458],[-123.10209,45.27408],[-123.10376,45.27182],[-123.11123,45.27077],[-123.11138,45.26941],[-123.11377,45.26822],[-123.11338,45.26711],[-123.11484,45.26431],[-123.12007,45.26346],[-123.11976,45.26196],[-123.12264,45.26083],[-123.12321,45.2593],[-123.12437,45.25929],[-123.12527,45.25672],[-123.12878,45.25454],[-123.13091,45.25458],[-123.13148,45.25577],[-123.1289,45.25863],[-123.13142,45.26063],[-123.13138,45.26848],[-123.13024,45.27214],[-123.12834,45.2729],[-123.1308,45.27686],[-123.12751,45.27713],[-123.12385,45.28312],[-123.11924,45.28456],[-123.1264,45.28677],[-123.12774,45.28482],[-123.1298,45.28488],[-123.13111,45.28657],[-123.13086,45.28844],[-123.13499,45.28833],[-123.13529,45.29105],[-123.13908,45.29285],[-123.14154,45.2954],[-123.13996,45.29864],[-123.13624,45.30034],[-123.1265,45.29949],[-123.132,45.30084],[-123.13184,45.30157],[-123.13318,45.30226],[-123.14294,45.30382],[-123.14592,45.30205],[-123.15092,45.30191],[-123.15131,45.30302],[-123.14974,45.30352],[-123.14777,45.30644],[-123.15044,45.30684],[-123.15266,45.30599],[-123.15281,45.30689],[-123.15127,45.30775],[-123.15139,45.3085],[-123.15474,45.3082],[-123.15522,45.3113],[-123.1564,45.31183],[-123.15827,45.30735],[-123.15746,45.30409],[-123.15836,45.30274],[-123.16219,45.30311],[-123.16244,45.30403],[-123.16157,45.30513],[-123.16225,45.30593],[-123.16395,45.3059],[-123.16532,45.30436],[-123.16663,45.30464],[-123.1662,45.30766],[-123.16282,45.31093],[-123.16338,45.31107],[-123.1675,45.31064],[-123.16858,45.30903],[-123.17044,45.30933],[-123.17039,45.30616],[-123.1733,45.30629],[-123.17707,45.30442],[-123.17839,45.30507],[-123.17837,45.30757],[-123.1796,45.3084],[-123.18076,45.3065],[-123.18311,45.30644],[-123.17984,45.30274],[-123.18272,45.30126],[-123.18637,45.30405],[-123.18816,45.30261],[-123.18973,45.3029],[-123.19025,45.3046],[-123.19368,45.30307],[-123.19504,45.30457],[-123.19425,45.30856],[-123.19347,45.30896],[-123.19114,45.30773],[-123.19053,45.30826],[-123.1914,45.30946],[-123.19019,45.31032],[-123.19232,45.31172],[-123.19027,45.31261],[-123.18707,45.31159],[-123.18758,45.31325],[-123.18209,45.31371],[-123.1868,45.31449],[-123.1869,45.31525],[-123.18911,45.31569],[-123.18946,45.31757],[-123.1887,45.3201],[-123.1867,45.3229],[-123.18261,45.32524],[-123.17974,45.32478],[-123.17856,45.32843],[-123.17428,45.32652],[-123.17282,45.32303],[-123.17203,45.32363],[-123.17124,45.32578],[-123.17209,45.32885],[-123.17111,45.32995],[-123.17715,45.33089],[-123.17862,45.33176],[-123.178,45.33312],[-123.17596,45.3338],[-123.1724,45.33332],[-123.17064,45.33482],[-123.16846,45.33396],[-123.16625,45.33541],[-123.16856,45.33644],[-123.16745,45.33787],[-123.16435,45.33905],[-123.15957,45.33925],[-123.16011,45.34048],[-123.158,45.3413],[-123.15299,45.3414],[-123.14396,45.338],[-123.13988,45.33813],[-123.1424,45.3383],[-123.14461,45.34046],[-123.14561,45.34264],[-123.14494,45.34361],[-123.1485,45.3433],[-123.15853,45.34503],[-123.1604,45.34587],[-123.16029,45.34861],[-123.16343,45.34537],[-123.16849,45.34527],[-123.17056,45.3464],[-123.17094,45.34983],[-123.16954,45.35087],[-123.17038,45.35175],[-123.16757,45.35498],[-123.16926,45.35494],[-123.16801,45.3581],[-123.16803,45.36022],[-123.1703,45.35575],[-123.17342,45.35278],[-123.17469,45.35278],[-123.1755,45.3506],[-123.17676,45.34966],[-123.17658,45.3479],[-123.17854,45.34642],[-123.1837,45.34638],[-123.18474,45.349],[-123.18382,45.35067],[-123.18503,45.35155],[-123.18643,45.34934],[-123.18664,45.34696],[-123.18453,45.34265],[-123.18551,45.3412],[-123.1867,45.34108],[-123.1913,45.352],[-123.18418,45.35604],[-123.1818,45.35903],[-123.1873,45.35647],[-123.19179,45.35678],[-123.19221,45.35567],[-123.19598,45.35414],[-123.19706,45.35778],[-123.19869,45.3582],[-123.19883,45.35936],[-123.20041,45.36063],[-123.20004,45.36295],[-123.19846,45.36468],[-123.20166,45.36335],[-123.20365,45.36053],[-123.20312,45.35716],[-123.20143,45.3551],[-123.20119,45.35338],[-123.20388,45.35376],[-123.20729,45.35262],[-123.20471,45.352],[-123.20423,45.35093],[-123.20168,45.35089],[-123.20111,45.34918],[-123.19882,45.34934],[-123.19754,45.34753],[-123.19863,45.34628],[-123.19632,45.34476],[-123.19658,45.34373],[-123.19574,45.34284],[-123.19622,45.34185],[-123.19956,45.34081],[-123.20238,45.34145],[-123.20643,45.34074],[-123.2098,45.34203],[-123.21171,45.34418],[-123.21414,45.3409],[-123.21659,45.34156],[-123.21774,45.34307],[-123.21844,45.34287],[-123.21832,45.34123],[-123.21905,45.34066],[-123.22072,45.3425],[-123.22467,45.34186],[-123.22521,45.34329],[-123.22309,45.34469],[-123.22379,45.3457],[-123.22296,45.34785],[-123.22068,45.34947],[-123.21868,45.35383],[-123.22219,45.35104],[-123.22438,45.34656],[-123.22767,45.34587],[-123.22931,45.34793],[-123.22915,45.3495],[-123.23067,45.35075],[-123.2289,45.352],[-123.23083,45.36104],[-123.23578,45.36125],[-123.23592,45.36278],[-123.23497,45.36389],[-123.23846,45.36854],[-123.2401,45.36563],[-123.24109,45.36534],[-123.243,45.36785],[-123.24624,45.36775],[-123.24626,45.36864],[-123.24955,45.37043],[-123.25293,45.36905],[-123.24935,45.36864],[-123.24746,45.36753],[-123.24742,45.36612],[-123.24922,45.36479],[-123.2488,45.3626],[-123.24596,45.35967],[-123.24622,45.35894],[-123.2445,45.35858],[-123.24205,45.35572],[-123.24112,45.35196],[-123.24164,45.34936],[-123.24333,45.34841],[-123.24193,45.3478],[-123.2398,45.34207],[-123.24134,45.3397],[-123.23929,45.341],[-123.23627,45.33814],[-123.23232,45.33726],[-123.23372,45.33569],[-123.23156,45.33636],[-123.23035,45.33387],[-123.22775,45.33391],[-123.22628,45.33312],[-123.22727,45.33036],[-123.23105,45.32881],[-123.23381,45.32509],[-123.2364,45.3233],[-123.22768,45.32654],[-123.22592,45.32631],[-123.22574,45.32717],[-123.22408,45.32788],[-123.22037,45.32816],[-123.21334,45.3277],[-123.2077,45.32282],[-123.20861,45.32144],[-123.21339,45.32388],[-123.21826,45.3245],[-123.2154,45.32315],[-123.21538,45.32225],[-123.21392,45.32191],[-123.21273,45.32007],[-123.21804,45.31861],[-123.21888,45.31676],[-123.21238,45.31725],[-123.21069,45.3188],[-123.20962,45.31858],[-123.20944,45.31727],[-123.20718,45.31832],[-123.20686,45.3168],[-123.20523,45.31624],[-123.20697,45.31276],[-123.20584,45.31164],[-123.21077,45.3108],[-123.21184,45.31232],[-123.21481,45.31364],[-123.21634,45.31245],[-123.21687,45.31085],[-123.21435,45.30981],[-123.21416,45.3089],[-123.21861,45.3089],[-123.21996,45.30772],[-123.2196,45.30619],[-123.22136,45.30603],[-123.22518,45.30192],[-123.22169,45.30114],[-123.21975,45.303],[-123.21625,45.30306],[-123.21678,45.30104],[-123.21462,45.30051],[-123.21543,45.29923],[-123.21168,45.29905],[-123.21064,45.2976],[-123.21149,45.29494],[-123.20879,45.29582],[-123.20736,45.29506],[-123.20849,45.29361],[-123.20761,45.29282],[-123.2087,45.29256],[-123.20825,45.29199],[-123.20881,45.29136],[-123.20709,45.29142],[-123.20559,45.29036],[-123.20427,45.28783],[-123.2086,45.28619],[-123.21878,45.2862],[-123.22689,45.28479],[-123.22751,45.28552],[-123.2258,45.28727],[-123.22838,45.28779],[-123.22902,45.28875],[-123.23173,45.28824],[-123.23048,45.29009],[-123.23186,45.29109],[-123.23384,45.29109],[-123.23397,45.29239],[-123.23516,45.29299],[-123.23894,45.29223],[-123.24149,45.2968],[-123.24334,45.29723],[-123.24413,45.29865],[-123.24588,45.29937],[-123.24659,45.29928],[-123.24658,45.29767],[-123.24868,45.29588],[-123.24618,45.29168],[-123.23975,45.28745],[-123.24086,45.2854],[-123.24628,45.28472],[-123.2501,45.28756],[-123.25185,45.28728],[-123.25366,45.28826],[-123.25428,45.28719],[-123.25634,45.2868],[-123.25707,45.28894],[-123.25987,45.28916],[-123.26024,45.29064],[-123.26199,45.29077],[-123.26395,45.29419],[-123.26584,45.29363],[-123.26776,45.29443],[-123.27197,45.29459],[-123.26517,45.28986],[-123.26637,45.28741],[-123.27086,45.28531],[-123.27563,45.28595],[-123.27706,45.28796],[-123.28812,45.28895],[-123.28973,45.29026],[-123.29434,45.29171],[-123.29429,45.29029],[-123.29003,45.28925],[-123.28703,45.2864],[-123.28194,45.28569],[-123.27911,45.28252],[-123.27606,45.28293],[-123.26529,45.28178],[-123.26423,45.28554],[-123.26344,45.28571],[-123.2613,45.28503],[-123.26144,45.28356],[-123.25727,45.28321],[-123.25664,45.28172],[-123.25309,45.28022],[-123.25346,45.2783],[-123.25169,45.27921],[-123.24641,45.27875],[-123.2422,45.27609],[-123.24008,45.27574],[-123.24036,45.27451],[-123.24501,45.27426],[-123.24703,45.27271],[-123.24192,45.27154],[-123.2451,45.26742],[-123.24179,45.2683],[-123.24024,45.26976],[-123.23628,45.26996],[-123.2367,45.26697],[-123.23993,45.26448],[-123.23966,45.26089],[-123.23802,45.26259],[-123.23806,45.26396],[-123.23427,45.26337],[-123.23367,45.26597],[-123.23176,45.26702],[-123.23015,45.26647],[-123.22858,45.26462],[-123.22951,45.2605],[-123.22528,45.25983],[-123.22159,45.25726],[-123.22243,45.25609],[-123.22867,45.2557],[-123.22573,45.25424],[-123.22567,45.25159],[-123.22191,45.25031],[-123.2192,45.24669],[-123.22111,45.24486],[-123.22733,45.24475],[-123.22539,45.2425],[-123.22791,45.23961],[-123.23088,45.23889],[-123.23392,45.24027],[-123.23591,45.24268],[-123.23634,45.24168],[-123.23738,45.24233],[-123.23883,45.24069],[-123.2473,45.23803],[-123.2494,45.23914],[-123.25098,45.23846],[-123.25598,45.23978],[-123.25812,45.23907],[-123.26231,45.2398],[-123.26563,45.2426],[-123.26352,45.23905],[-123.26144,45.23752],[-123.25942,45.23739],[-123.25521,45.23506],[-123.25311,45.23137],[-123.25347,45.23036],[-123.25603,45.22888],[-123.25841,45.22845],[-123.25868,45.22642],[-123.26012,45.22498],[-123.26302,45.22576],[-123.26458,45.22724],[-123.26611,45.22632],[-123.27099,45.22725],[-123.27816,45.23064],[-123.27773,45.22978],[-123.28728,45.22824],[-123.2939,45.22617],[-123.29471,45.29174]]]}}]}