{"type":"FeatureCollection","features":[{"type":"Feature","properties":{"ava_id":"ribbon_ridge","name":"Ribbon Ridge","aka":null,"created":"2005-06-01","removed":null,"county":"Yamhill","state":"OR","within":"Chehalem Mountains|Willamette Valley","contains":null,"petitioner":null,"cfr_author":null,"cfr_index":"9.182","cfr_revision_history":"[T.D. TTB-27, 70 FR 31344, June 1, 2005]","approved_maps":"(1) Laurelwood Quadrangle, Oregon, 1956, photorevised 1978; and (2) Dundee Quadrangle, Oregon, 1956, revised 1993.","boundary_description":"(1) The beginning point is on the Laurelwood Quadrangle map at the intersection of a light-duty road known locally as Albertson Road and Dopp Road (named on the Dundee map), just east of the Lake View School, section 58, T2S, R3W. From the beginning point, the boundary line\u2014 (2) Continues south on Dopp Road for about 4.9 miles, crossing onto the Dundee map, to the road&#39;s intersection with North Valley Road, near the Erwin Young School, section 39, T3S, R3W (Dundee Quadrangle); then (3) Continues west then north on North Valley Road for about 5 miles, crossing over to the Laurelwood map, to the road&#39;s intersection with Laughlin and Albertson Roads, just west of the Lake View School, section 58, T2S, R3W (Laurelwood Quadrangle); then (4) Continues east on Albertson Road for about 0.2 miles and returns to the beginning point.","used_maps":"(1) Laurelwood Quadrangle, Oregon, 1956, photorevised 1970; and (2) Dundee Quadrangle, Oregon, 1956, revised 1993.","valid_start":null,"valid_end":null,"lcsh":null,"sameas":null,"ttb_name":"Ribbon Ridge","cfr_section":"27 CFR 9.182","counties":"Yamhill","boundary_source":"TTB AVA Map Explorer (AVAs_Production feature service)","boundary_retrieved":"2026-09-30"},"geometry":{"type":"MultiPolygon","coordinates":[[[[-123.091243,45.381727],[-123.091235,45.381552],[-123.091352,45.381269],[-123.09164,45.380738],[-123.091792,45.380582],[-123.091786,45.380489],[-123.091857,45.380273],[-123.091757,45.380123],[-123.090857,45.379739],[-123.0899,45.379543],[-123.088505,45.37907],[-123.088322,45.378916],[-123.087095,45.37868],[-123.086772,45.378575],[-123.086189,45.378282],[-123.085634,45.378156],[-123.082701,45.377972],[-123.081676,45.378242],[-123.079831,45.378573],[-123.079083,45.378817],[-123.077823,45.379118],[-123.07763,45.379063],[-123.077181,45.379173],[-123.076553,45.379169],[-123.075952,45.379073],[-123.075557,45.379062],[-123.073806,45.379228],[-123.073387,45.379237],[-123.072181,45.379034],[-123.071327,45.379049],[-123.070804,45.378994],[-123.06934,45.3785],[-123.06836,45.378318],[-123.067994,45.378216],[-123.066884,45.377644],[-123.06663,45.377445],[-123.066418,45.377209],[-123.065877,45.37637],[-123.065371,45.375173],[-123.065177,45.374421],[-123.065088,45.374202],[-123.064486,45.373121],[-123.064166,45.372617],[-123.063853,45.372265],[-123.063006,45.371647],[-123.062506,45.371194],[-123.062467,45.370708],[-123.062417,45.370595],[-123.062331,45.370112],[-123.062342,45.369813],[-123.06274,45.36906],[-123.062928,45.368138],[-123.063101,45.36766],[-123.063399,45.367098],[-123.064189,45.365781],[-123.064303,45.365446],[-123.06428,45.365021],[-123.06405,45.363499],[-123.064057,45.363328],[-123.063777,45.361657],[-123.063686,45.361311],[-123.063457,45.360778],[-123.062067,45.358008],[-123.061446,45.356872],[-123.061329,45.356372],[-123.061324,45.355901],[-123.061362,45.355654],[-123.061308,45.355326],[-123.057176,45.346175],[-123.057079,45.345808],[-123.057098,45.343711],[-123.057036,45.343368],[-123.056918,45.343041],[-123.056882,45.342729],[-123.057017,45.341629],[-123.0571,45.341381],[-123.057235,45.34124],[-123.057468,45.341086],[-123.057943,45.340862],[-123.058221,45.340663],[-123.05839,45.340396],[-123.058427,45.340246],[-123.058497,45.331204],[-123.058482,45.330931],[-123.058407,45.330599],[-123.058992,45.330708],[-123.072428,45.332347],[-123.073729,45.332428],[-123.078403,45.332601],[-123.078908,45.33268],[-123.07911,45.332867],[-123.083597,45.336166],[-123.084587,45.336849],[-123.087855,45.338966],[-123.089049,45.339796],[-123.089585,45.34025],[-123.090273,45.341077],[-123.090559,45.34157],[-123.090906,45.342429],[-123.091251,45.343445],[-123.091601,45.344178],[-123.094166,45.348143],[-123.095029,45.349379],[-123.096378,45.351753],[-123.096609,45.352107],[-123.096913,45.352434],[-123.098472,45.353584],[-123.098962,45.354074],[-123.09916,45.354451],[-123.09998,45.356522],[-123.100008,45.356919],[-123.099858,45.357507],[-123.099799,45.357898],[-123.09984,45.358286],[-123.099941,45.358674],[-123.100206,45.359449],[-123.10066,45.360177],[-123.100842,45.360556],[-123.101201,45.361916],[-123.101382,45.36248],[-123.101397,45.3627],[-123.101517,45.363075],[-123.101641,45.363865],[-123.101657,45.364259],[-123.101608,45.365243],[-123.101805,45.366218],[-123.101731,45.366811],[-123.101469,45.367977],[-123.101292,45.368567],[-123.101189,45.36956],[-123.100407,45.372236],[-123.100297,45.37304],[-123.100161,45.373428],[-123.099999,45.374401],[-123.099698,45.37575],[-123.09954,45.376138],[-123.099324,45.376509],[-123.098902,45.37702],[-123.098544,45.377315],[-123.097376,45.37815],[-123.09727,45.37826],[-123.096953,45.378423],[-123.09657,45.378711],[-123.096238,45.379034],[-123.09598,45.379385],[-123.095231,45.380638],[-123.095015,45.381173],[-123.09493,45.381612],[-123.094191,45.381586],[-123.092434,45.381693],[-123.091243,45.381727]]]]}}]}