{"type":"FeatureCollection","features":[{"type":"Feature","properties":{"ava_id":"dundee_hills","name":"Dundee Hills","aka":null,"created":"2005-01-31","removed":null,"county":"Yamhill","state":"OR","within":"Willamette Valley","contains":null,"petitioner":"Alex Sokol Blosser, secretary of the North Willamette Valley AVA Group","cfr_author":null,"cfr_index":"9.180","cfr_revision_history":"[T.D. TTB-18, 69 FR 69527, Nov. 30, 2004]","approved_maps":"(1) Dundee Quadrangle, Oregon, 1956, revised 1993; (2) Newberg Quadrangle, Oregon, 1961, photorevised 1985; and (3) Dayton Quadrangle, Oregon, 1957, revised 1992.","boundary_description":"(1) The beginning point is on the Dundee map at the intersection of the 200-foot contour line with Kuehne Road at the common boundary line of sections 47 and 48, T3S, R3W; (2) From the beginning point, proceed east then south along the meandering 200-foot contour line, crossing over to and back off the Newberg map, and then cutting diagonally southwest through the town of Dundee to the 200-foot contour line&#39;s intersection with Hess Creek, section 34, T3S, R3W (Dundee Quadrangle); then (3) Proceed south, then west, and then northeast, along the meandering 200-foot contour line, twice crossing over to and back off the Dayton map, to the contour line&#39;s intersection with Abbey Road after the line passes a quarry and crosses the two forks of Millican Creek in section 52, T3S, R3W (Dundee Quadrangle); then (4) Proceed generally north on Abbey Road to Kuehne Road and then follow Kuehne Road northeasterly to the beginning point.","used_maps":"(1) Dundee Quadrangle, Oregon, 1956, revised 1993; (2) Newberg Quadrangle, Oregon, 1961, photorevised 1985; and (3) Dayton Quadrangle, Oregon, 1957, revised 1992.","valid_start":null,"valid_end":null,"lcsh":null,"sameas":null,"ttb_name":"Dundee Hills","cfr_section":"27 CFR 9.180","counties":"Yamhill","boundary_source":"TTB AVA Map Explorer (AVAs_Production feature service)","boundary_retrieved":"2026-09-30"},"geometry":{"type":"MultiPolygon","coordinates":[[[[-123.0906,45.316963],[-123.09021,45.316979],[-123.088835,45.317475],[-123.088453,45.317418],[-123.088003,45.317401],[-123.087436,45.317499],[-123.08717,45.31758],[-123.087009,45.317702],[-123.086766,45.318084],[-123.086246,45.318198],[-123.08613,45.318263],[-123.086038,45.318474],[-123.085529,45.319254],[-123.085356,45.319384],[-123.085113,45.319498],[-123.084443,45.319661],[-123.084154,45.319986],[-123.083206,45.32014],[-123.083056,45.320238],[-123.082628,45.321034],[-123.082363,45.321237],[-123.080629,45.322066],[-123.080282,45.322156],[-123.080097,45.322147],[-123.07975,45.321798],[-123.0796,45.321928],[-123.079508,45.322099],[-123.079334,45.322156],[-123.078803,45.322221],[-123.078421,45.322123],[-123.078132,45.321871],[-123.077647,45.32166],[-123.077185,45.321335],[-123.076907,45.321205],[-123.076318,45.321131],[-123.076098,45.321018],[-123.075983,45.320847],[-123.075763,45.320709],[-123.074746,45.320619],[-123.074214,45.320473],[-123.073694,45.320189],[-123.073371,45.31988],[-123.07322,45.318962],[-123.073301,45.318604],[-123.073521,45.31806],[-123.073764,45.317832],[-123.07366,45.317694],[-123.073498,45.317653],[-123.072989,45.318092],[-123.072885,45.318564],[-123.072851,45.319084],[-123.072874,45.319336],[-123.072816,45.319726],[-123.072874,45.319994],[-123.073244,45.320506],[-123.073336,45.320685],[-123.073336,45.320904],[-123.073278,45.321002],[-123.073174,45.321099],[-123.073059,45.321148],[-123.07277,45.321099],[-123.072446,45.320928],[-123.07114,45.32049],[-123.071059,45.320425],[-123.071036,45.320303],[-123.070851,45.320205],[-123.066945,45.319311],[-123.066494,45.319165],[-123.066101,45.318929],[-123.065835,45.318945],[-123.065315,45.318824],[-123.06409,45.318458],[-123.062957,45.318198],[-123.062021,45.317921],[-123.06164,45.317759],[-123.061559,45.317621],[-123.06157,45.317475],[-123.061778,45.317279],[-123.061674,45.317125],[-123.061281,45.316954],[-123.060807,45.316808],[-123.060576,45.316865],[-123.060334,45.317117],[-123.060079,45.317279],[-123.059698,45.317312],[-123.058195,45.317198],[-123.057721,45.31706],[-123.056889,45.316979],[-123.055352,45.316954],[-123.054289,45.316824],[-123.054081,45.316637],[-123.053503,45.316792],[-123.052058,45.3168],[-123.047516,45.316532],[-123.04643,45.316442],[-123.046094,45.316377],[-123.045447,45.31641],[-123.044777,45.316491],[-123.043436,45.316459],[-123.042685,45.316377],[-123.04213,45.316369],[-123.042038,45.316239],[-123.042038,45.31589],[-123.042281,45.315296],[-123.042304,45.314971],[-123.042304,45.314752],[-123.042188,45.314532],[-123.042234,45.314142],[-123.042188,45.314028],[-123.042084,45.31402],[-123.041911,45.314134],[-123.041668,45.314727],[-123.04146,45.314996],[-123.041275,45.315004],[-123.041171,45.314809],[-123.041078,45.314264],[-123.040963,45.314093],[-123.04087,45.31415],[-123.040686,45.314776],[-123.040697,45.315069],[-123.040813,45.315264],[-123.040951,45.315394],[-123.041067,45.31563],[-123.041032,45.315833],[-123.040917,45.315995],[-123.040743,45.316069],[-123.040339,45.316142],[-123.039264,45.316085],[-123.038929,45.316125],[-123.037415,45.315995],[-123.036848,45.315865],[-123.035508,45.315873],[-123.035265,45.315841],[-123.03508,45.31576],[-123.035103,45.315621],[-123.035184,45.315524],[-123.035184,45.315435],[-123.03508,45.315353],[-123.034895,45.315345],[-123.034664,45.315402],[-123.033855,45.315483],[-123.032584,45.315524],[-123.031694,45.315345],[-123.031243,45.315085],[-123.031058,45.315109],[-123.030838,45.315231],[-123.030596,45.315264],[-123.03033,45.315199],[-123.030122,45.315044],[-123.027521,45.314654],[-123.026574,45.314679],[-123.026146,45.314557],[-123.025973,45.314386],[-123.026042,45.314264],[-123.025973,45.314102],[-123.025256,45.314028],[-123.024678,45.31411],[-123.024251,45.314028],[-123.023453,45.313809],[-123.02306,45.313785],[-123.022008,45.313614],[-123.021743,45.313606],[-123.021396,45.313468],[-123.021292,45.31333],[-123.021303,45.313151],[-123.021708,45.312744],[-123.022101,45.312452],[-123.022598,45.3122],[-123.022852,45.311923],[-123.023095,45.311493],[-123.023002,45.311379],[-123.022852,45.311379],[-123.022309,45.311777],[-123.021951,45.311875],[-123.021581,45.311883],[-123.02076,45.312021],[-123.020309,45.31198],[-123.019304,45.311826],[-123.018946,45.311606],[-123.018426,45.311233],[-123.018275,45.311013],[-123.018298,45.31072],[-123.018449,45.31059],[-123.019096,45.310355],[-123.019789,45.3102],[-123.020622,45.310078],[-123.020841,45.310078],[-123.021384,45.309607],[-123.021546,45.309542],[-123.021731,45.309534],[-123.021997,45.30929],[-123.022274,45.309201],[-123.022575,45.309176],[-123.02321,45.309225],[-123.02328,45.309192],[-123.02328,45.309038],[-123.023361,45.308843],[-123.023522,45.308688],[-123.023823,45.308526],[-123.024227,45.30838],[-123.024505,45.308217],[-123.024678,45.307843],[-123.024724,45.307518],[-123.024748,45.307201],[-123.024609,45.306567],[-123.024667,45.306477],[-123.024898,45.306347],[-123.02543,45.306445],[-123.025741,45.306583],[-123.026169,45.306656],[-123.026273,45.30664],[-123.026354,45.306542],[-123.026273,45.306152],[-123.026262,45.305583],[-123.026388,45.304966],[-123.026616,45.304819],[-123.027396,45.304806],[-123.028289,45.304712],[-123.028955,45.304712],[-123.029545,45.304779],[-123.029792,45.304833],[-123.029944,45.305073],[-123.030381,45.305287],[-123.032035,45.305595],[-123.032967,45.305595],[-123.0331,45.305501],[-123.032891,45.305341],[-123.032016,45.305261],[-123.031617,45.30506],[-123.031389,45.304699],[-123.030628,45.304378],[-123.030305,45.304124],[-123.030286,45.303964],[-123.031256,45.303709],[-123.031389,45.303522],[-123.031978,45.303469],[-123.032492,45.303348],[-123.032549,45.303174],[-123.032378,45.303054],[-123.031807,45.303295],[-123.029982,45.303322],[-123.027301,45.303174],[-123.026578,45.303067],[-123.026274,45.30296],[-123.026236,45.302051],[-123.026084,45.302051],[-123.025723,45.302559],[-123.025475,45.302853],[-123.025323,45.30296],[-123.025171,45.302867],[-123.025019,45.302693],[-123.024829,45.302573],[-123.024658,45.302519],[-123.024582,45.302894],[-123.02422,45.303094],[-123.023536,45.303228],[-123.022908,45.303629],[-123.02095,45.304405],[-123.020722,45.304819],[-123.020151,45.305301],[-123.018193,45.306103],[-123.017527,45.306277],[-123.016995,45.306357],[-123.016386,45.306264],[-123.015797,45.305996],[-123.015493,45.305582],[-123.015322,45.30498],[-123.015265,45.304632],[-123.015151,45.304351],[-123.015246,45.304204],[-123.015132,45.30403],[-123.014694,45.30375],[-123.014105,45.303602],[-123.013515,45.303388],[-123.013249,45.303094],[-123.012907,45.302546],[-123.012717,45.302024],[-123.012641,45.301449],[-123.012432,45.300981],[-123.012317,45.30062],[-123.012698,45.300125],[-123.013135,45.299898],[-123.013382,45.299831],[-123.013534,45.299751],[-123.013439,45.299577],[-123.012831,45.299577],[-123.012089,45.299523],[-123.011633,45.29943],[-123.011443,45.299175],[-123.011386,45.298346],[-123.0115,45.297504],[-123.01169,45.297116],[-123.012165,45.296674],[-123.012774,45.296233],[-123.013648,45.295377],[-123.013877,45.295283],[-123.014276,45.295203],[-123.014409,45.295069],[-123.014466,45.294735],[-123.014884,45.294574],[-123.015588,45.2942],[-123.016691,45.293732],[-123.017756,45.29317],[-123.018345,45.292956],[-123.018973,45.292568],[-123.019524,45.292301],[-123.01979,45.292073],[-123.020189,45.291806],[-123.021273,45.290133],[-123.021482,45.289705],[-123.021739,45.289471],[-123.021682,45.289311],[-123.021264,45.289558],[-123.019914,45.290956],[-123.019372,45.291277],[-123.018421,45.291678],[-123.015854,45.292461],[-123.015227,45.292595],[-123.014818,45.292608],[-123.014542,45.292541],[-123.014295,45.292628],[-123.014171,45.292742],[-123.013905,45.292829],[-123.012631,45.29305],[-123.011937,45.293284],[-123.011129,45.293672],[-123.01053,45.293966],[-123.01015,45.294247],[-123.009713,45.29436],[-123.008381,45.294514],[-123.007735,45.294521],[-123.007412,45.294454],[-123.007174,45.29426],[-123.007126,45.294086],[-123.007022,45.293899],[-123.006879,45.293812],[-123.006765,45.294066],[-123.006756,45.294374],[-123.006689,45.294521],[-123.006556,45.294568],[-123.006204,45.294581],[-123.005425,45.294394],[-123.004816,45.294193],[-123.004426,45.293919],[-123.004094,45.293765],[-123.003466,45.293585],[-123.00301,45.293384],[-123.002706,45.293203],[-123.00243,45.292822],[-123.001679,45.2921],[-123.001204,45.291749],[-123.001061,45.291197],[-123.001132,45.290765],[-123.00089,45.290214],[-123.000904,45.289833],[-123.001004,45.289672],[-123.00099,45.289461],[-123.000833,45.288899],[-123.000975,45.288528],[-123.001132,45.288237],[-123.001106,45.287828],[-123.000953,45.287092],[-123.00103,45.286664],[-123.00141,45.286571],[-123.001524,45.28633],[-123.001334,45.285327],[-123.001752,45.284979],[-123.002779,45.28447],[-123.003463,45.284056],[-123.004053,45.283882],[-123.004775,45.282999],[-123.005308,45.282597],[-123.005688,45.282571],[-123.006525,45.282263],[-123.00662,45.282022],[-123.006449,45.281768],[-123.005992,45.281527],[-123.005536,45.281473],[-123.00527,45.281286],[-123.004927,45.281514],[-123.004395,45.281527],[-123.003501,45.281473],[-123.002893,45.281393],[-123.002646,45.281219],[-123.002475,45.280925],[-123.002589,45.280591],[-123.002931,45.28031],[-123.004566,45.279667],[-123.006297,45.279199],[-123.008122,45.278637],[-123.008711,45.278303],[-123.008921,45.278048],[-123.009358,45.277928],[-123.009757,45.277875],[-123.01008,45.277701],[-123.01067,45.277487],[-123.011278,45.277379],[-123.011982,45.277206],[-123.012895,45.276871],[-123.013959,45.276269],[-123.014549,45.276041],[-123.015005,45.275908],[-123.016469,45.275801],[-123.017078,45.275814],[-123.017401,45.275627],[-123.017933,45.274891],[-123.019645,45.274489],[-123.019987,45.274462],[-123.020443,45.274489],[-123.020633,45.274382],[-123.020919,45.273339],[-123.021033,45.273178],[-123.021166,45.273084],[-123.021603,45.273071],[-123.022116,45.273191],[-123.022402,45.27271],[-123.022934,45.272669],[-123.023238,45.27271],[-123.023961,45.273004],[-123.024075,45.273084],[-123.024246,45.273044],[-123.024246,45.272522],[-123.024436,45.272255],[-123.025007,45.271853],[-123.025273,45.271425],[-123.025938,45.271037],[-123.027117,45.270114],[-123.027212,45.269859],[-123.027498,45.269431],[-123.02765,45.269297],[-123.027859,45.26923],[-123.028049,45.26923],[-123.028258,45.269311],[-123.028429,45.269645],[-123.028619,45.270274],[-123.029437,45.271532],[-123.029627,45.271773],[-123.030084,45.272174],[-123.030217,45.272174],[-123.03054,45.2718],[-123.030806,45.271746],[-123.031205,45.271733],[-123.032365,45.272362],[-123.035008,45.27366],[-123.035274,45.2737],[-123.035388,45.2737],[-123.035484,45.273566],[-123.034514,45.27283],[-123.033582,45.271559],[-123.033259,45.270863],[-123.033031,45.270274],[-123.03286,45.26998],[-123.032746,45.269471],[-123.032955,45.269177],[-123.033259,45.26911],[-123.033696,45.26911],[-123.034286,45.26919],[-123.035103,45.26919],[-123.035978,45.269471],[-123.036663,45.269739],[-123.037404,45.2699],[-123.037876,45.269938],[-123.038589,45.269918],[-123.038827,45.269851],[-123.03916,45.269664],[-123.03955,45.269604],[-123.039854,45.269624],[-123.040253,45.269724],[-123.040899,45.269985],[-123.041232,45.270052],[-123.04146,45.270066],[-123.041651,45.269999],[-123.041651,45.269831],[-123.040947,45.26955],[-123.040472,45.269283],[-123.039911,45.268868],[-123.039397,45.268286],[-123.039331,45.268092],[-123.039207,45.267924],[-123.038846,45.267623],[-123.037971,45.267249],[-123.037772,45.267088],[-123.037677,45.266927],[-123.037543,45.2668],[-123.036945,45.266546],[-123.036754,45.266419],[-123.036726,45.266365],[-123.036773,45.266272],[-123.036925,45.266252],[-123.037715,45.266265],[-123.039179,45.266198],[-123.039264,45.266124],[-123.039103,45.265951],[-123.039236,45.265857],[-123.039559,45.265716],[-123.040101,45.265582],[-123.040434,45.265549],[-123.040519,45.265509],[-123.0405,45.265428],[-123.040044,45.265335],[-123.038437,45.265301],[-123.036764,45.265141],[-123.036288,45.264907],[-123.036051,45.264505],[-123.035918,45.264405],[-123.035766,45.264351],[-123.03568,45.264358],[-123.035623,45.264405],[-123.035595,45.264498],[-123.03549,45.264612],[-123.035262,45.264699],[-123.034986,45.264719],[-123.034549,45.264612],[-123.033912,45.264378],[-123.033598,45.264097],[-123.032391,45.263608],[-123.029605,45.262926],[-123.0295,45.262799],[-123.029472,45.262645],[-123.028968,45.26235],[-123.028759,45.262083],[-123.028559,45.261735],[-123.028417,45.260798],[-123.028512,45.260497],[-123.029035,45.25968],[-123.029519,45.259132],[-123.029453,45.258951],[-123.029348,45.258917],[-123.02892,45.259025],[-123.028379,45.259372],[-123.028093,45.259607],[-123.027713,45.260129],[-123.027409,45.260363],[-123.027247,45.260383],[-123.026933,45.260289],[-123.026857,45.260182],[-123.027371,45.259761],[-123.027456,45.259613],[-123.02778,45.259245],[-123.028302,45.258864],[-123.028825,45.258349],[-123.029225,45.258014],[-123.029206,45.257847],[-123.028997,45.257793],[-123.028892,45.257653],[-123.028816,45.257338],[-123.028968,45.257077],[-123.029234,45.256381],[-123.029643,45.25618],[-123.029767,45.255986],[-123.030271,45.255397],[-123.030432,45.255123],[-123.030946,45.254748],[-123.031554,45.254159],[-123.031944,45.253697],[-123.032153,45.25359],[-123.032296,45.253563],[-123.032543,45.253597],[-123.032638,45.253684],[-123.032647,45.253818],[-123.03241,45.254313],[-123.0326,45.254775],[-123.032657,45.255043],[-123.032828,45.255217],[-123.032885,45.255357],[-123.032999,45.255913],[-123.033132,45.256033],[-123.033512,45.256167],[-123.033608,45.25616],[-123.033684,45.255665],[-123.033864,45.255471],[-123.034064,45.255176],[-123.034359,45.254936],[-123.034587,45.254815],[-123.034843,45.254748],[-123.035081,45.254802],[-123.035461,45.255083],[-123.035823,45.255464],[-123.035918,45.255665],[-123.035937,45.255812],[-123.036013,45.255899],[-123.036127,45.255906],[-123.03625,45.255652],[-123.036365,45.255565],[-123.036517,45.255518],[-123.036707,45.255531],[-123.037097,45.255692],[-123.037543,45.255933],[-123.038076,45.256113],[-123.038142,45.256006],[-123.037933,45.255812],[-123.03684,45.255096],[-123.036821,45.255016],[-123.036925,45.254762],[-123.037049,45.254654],[-123.037106,45.254433],[-123.037144,45.253845],[-123.03722,45.253711],[-123.03742,45.25361],[-123.037762,45.253517],[-123.038533,45.253482],[-123.039032,45.253532],[-123.03936,45.253663],[-123.040188,45.254084],[-123.04063,45.254245],[-123.0412,45.254526],[-123.041842,45.255239],[-123.041984,45.255249],[-123.042113,45.255149],[-123.042198,45.254908],[-123.042384,45.254667],[-123.04274,45.254587],[-123.043011,45.254617],[-123.04351,45.254908],[-123.043824,45.255038],[-123.044095,45.255219],[-123.044238,45.255229],[-123.044418,45.255129],[-123.046168,45.255155],[-123.046833,45.255236],[-123.046976,45.255296],[-123.047109,45.255483],[-123.04727,45.255523],[-123.047327,45.255323],[-123.047147,45.255062],[-123.046843,45.254801],[-123.046453,45.25456],[-123.045749,45.254252],[-123.045683,45.254125],[-123.045711,45.254004],[-123.045863,45.253857],[-123.04593,45.25373],[-123.045825,45.253609],[-123.045635,45.253549],[-123.045435,45.253623],[-123.045217,45.253797],[-123.044865,45.25385],[-123.044504,45.253797],[-123.044209,45.253656],[-123.043572,45.253188],[-123.043211,45.253101],[-123.041614,45.252472],[-123.041119,45.252378],[-123.04052,45.25215],[-123.038581,45.251227],[-123.037953,45.250885],[-123.037839,45.250577],[-123.037592,45.25047],[-123.037487,45.25035],[-123.037564,45.250216],[-123.037849,45.250096],[-123.038239,45.249948],[-123.038752,45.249841],[-123.038857,45.249734],[-123.038885,45.24956],[-123.038828,45.249426],[-123.038666,45.249259],[-123.03841,45.249312],[-123.038058,45.2495],[-123.037269,45.249768],[-123.037107,45.249788],[-123.037012,45.249634],[-123.037212,45.249413],[-123.037402,45.249306],[-123.038153,45.249266],[-123.039104,45.248837],[-123.039712,45.248623],[-123.039665,45.248228],[-123.039798,45.248027],[-123.040188,45.247639],[-123.040844,45.247184],[-123.041091,45.246956],[-123.041214,45.246715],[-123.041423,45.246488],[-123.041728,45.246026],[-123.042118,45.245611],[-123.04246,45.245403],[-123.042688,45.245343],[-123.043391,45.245303],[-123.044123,45.245457],[-123.044694,45.245986],[-123.045312,45.246153],[-123.045607,45.246883],[-123.045835,45.247284],[-123.045997,45.247438],[-123.046092,45.247432],[-123.046215,45.247351],[-123.046282,45.246521],[-123.046472,45.246046],[-123.046614,45.245879],[-123.046614,45.245765],[-123.046453,45.245644],[-123.046396,45.245544],[-123.046415,45.24541],[-123.046481,45.245283],[-123.046643,45.245102],[-123.0469,45.245069],[-123.047014,45.245176],[-123.047023,45.245296],[-123.047166,45.245323],[-123.048364,45.244747],[-123.048535,45.244754],[-123.04882,45.244888],[-123.049143,45.245283],[-123.049343,45.245383],[-123.049486,45.245343],[-123.04959,45.245256],[-123.049685,45.245095],[-123.049771,45.244727],[-123.049913,45.244634],[-123.050132,45.244634],[-123.050398,45.244821],[-123.050636,45.245303],[-123.051111,45.245725],[-123.051273,45.245785],[-123.051378,45.245664],[-123.051387,45.245424],[-123.051321,45.245116],[-123.051349,45.244921],[-123.051682,45.244754],[-123.051967,45.244406],[-123.052309,45.244105],[-123.052452,45.244031],[-123.052633,45.244031],[-123.053079,45.244219],[-123.053412,45.24452],[-123.05365,45.244654],[-123.053916,45.2445],[-123.054059,45.244332],[-123.054258,45.244252],[-123.054429,45.244112],[-123.054543,45.243891],[-123.054781,45.243643],[-123.055551,45.243281],[-123.055893,45.243174],[-123.056188,45.243134],[-123.05654,45.243181],[-123.056787,45.243375],[-123.056949,45.243449],[-123.057329,45.243489],[-123.057472,45.243576],[-123.057937,45.244152],[-123.058042,45.244413],[-123.058071,45.244888],[-123.058194,45.245035],[-123.058441,45.245156],[-123.058679,45.245162],[-123.058926,45.245062],[-123.059097,45.245029],[-123.059259,45.245042],[-123.059611,45.245149],[-123.059734,45.245243],[-123.060143,45.246012],[-123.060485,45.246461],[-123.060552,45.246615],[-123.060647,45.246722],[-123.060761,45.246722],[-123.060856,45.246555],[-123.060666,45.245269],[-123.060666,45.245008],[-123.060733,45.244707],[-123.061008,45.244158],[-123.061237,45.244004],[-123.061531,45.243924],[-123.061854,45.243958],[-123.062596,45.244232],[-123.062986,45.244279],[-123.062919,45.244138],[-123.062339,45.243603],[-123.062263,45.243375],[-123.062263,45.243141],[-123.06232,45.24294],[-123.063414,45.241748],[-123.064051,45.241253],[-123.064155,45.241046],[-123.064155,45.240905],[-123.064212,45.240784],[-123.064364,45.240718],[-123.064764,45.240631],[-123.064859,45.24051],[-123.064887,45.240142],[-123.065039,45.23974],[-123.065239,45.239359],[-123.06541,45.239158],[-123.065733,45.238964],[-123.066114,45.238609],[-123.066304,45.238287],[-123.06658,45.237477],[-123.066703,45.237384],[-123.066827,45.237357],[-123.067017,45.237397],[-123.067483,45.237725],[-123.067663,45.237779],[-123.068025,45.237705],[-123.069242,45.237297],[-123.069736,45.23719],[-123.070382,45.236748],[-123.07062,45.23654],[-123.070943,45.236433],[-123.071267,45.236386],[-123.071618,45.236466],[-123.071847,45.236641],[-123.071904,45.236875],[-123.071809,45.237303],[-123.071818,45.237491],[-123.071913,45.237598],[-123.072132,45.237698],[-123.072436,45.237745],[-123.073025,45.237658],[-123.07333,45.237705],[-123.073615,45.237806],[-123.073748,45.237953],[-123.073814,45.238267],[-123.074014,45.238408],[-123.07448,45.238616],[-123.074993,45.238769],[-123.075783,45.23897],[-123.076229,45.23899],[-123.076429,45.238944],[-123.07679,45.238642],[-123.077018,45.238508],[-123.077437,45.238401],[-123.077674,45.238468],[-123.077884,45.238596],[-123.078093,45.238796],[-123.078492,45.239044],[-123.079053,45.239312],[-123.079966,45.239573],[-123.080565,45.239519],[-123.080745,45.239419],[-123.080821,45.239332],[-123.081021,45.239285],[-123.081202,45.239365],[-123.08143,45.239586],[-123.08182,45.239673],[-123.082399,45.239713],[-123.083065,45.239861],[-123.083236,45.239928],[-123.083436,45.240122],[-123.083597,45.240611],[-123.085225,45.241339],[-123.085902,45.242042],[-123.08595,45.242159],[-123.086045,45.24226],[-123.086758,45.242368],[-123.087863,45.242603],[-123.088279,45.24282],[-123.088968,45.243264],[-123.089146,45.243423],[-123.089218,45.243632],[-123.089598,45.244025],[-123.090264,45.24431],[-123.090822,45.244804],[-123.091048,45.24508],[-123.091143,45.245306],[-123.091309,45.245515],[-123.092949,45.245941],[-123.093341,45.246218],[-123.09346,45.246418],[-123.093532,45.246694],[-123.093722,45.247138],[-123.094411,45.247933],[-123.094506,45.248117],[-123.094506,45.248577],[-123.094364,45.248845],[-123.094161,45.249087],[-123.094114,45.24923],[-123.09415,45.249614],[-123.094066,45.249798],[-123.093793,45.249991],[-123.093163,45.25005],[-123.093092,45.250167],[-123.093401,45.250577],[-123.093615,45.250777],[-123.093662,45.250945],[-123.09365,45.25112],[-123.093448,45.251279],[-123.091701,45.251965],[-123.091404,45.252041],[-123.091131,45.252041],[-123.090537,45.251949],[-123.090228,45.25215],[-123.090073,45.25235],[-123.089907,45.252702],[-123.08961,45.252886],[-123.088826,45.253028],[-123.088671,45.253087],[-123.089539,45.253137],[-123.089764,45.25327],[-123.09125,45.25302],[-123.091797,45.25281],[-123.091999,45.252769],[-123.092284,45.252785],[-123.092545,45.252902],[-123.092854,45.252986],[-123.093187,45.252836],[-123.093472,45.252651],[-123.093995,45.252543],[-123.094352,45.252794],[-123.094435,45.25302],[-123.094447,45.253153],[-123.09453,45.25327],[-123.094922,45.253363],[-123.095338,45.25358],[-123.096122,45.254166],[-123.096372,45.254157],[-123.096301,45.253957],[-123.096134,45.253848],[-123.096051,45.253639],[-123.095742,45.25322],[-123.095599,45.252769],[-123.095421,45.2524],[-123.095433,45.2522],[-123.095647,45.251873],[-123.095968,45.251815],[-123.096693,45.251974],[-123.096847,45.251974],[-123.096907,45.25189],[-123.096562,45.251187],[-123.096396,45.250953],[-123.096336,45.250761],[-123.09636,45.250342],[-123.096491,45.250275],[-123.096716,45.250234],[-123.097061,45.250259],[-123.097228,45.250033],[-123.097394,45.249916],[-123.098012,45.249723],[-123.098368,45.249221],[-123.098606,45.248987],[-123.09901,45.248761],[-123.099688,45.248569],[-123.099842,45.24856],[-123.100056,45.248627],[-123.100222,45.248753],[-123.100436,45.248795],[-123.100769,45.248736],[-123.101351,45.248711],[-123.101767,45.248351],[-123.10191,45.248276],[-123.102278,45.248234],[-123.103277,45.248242],[-123.103597,45.248318],[-123.103787,45.248477],[-123.103906,45.248669],[-123.10393,45.248928],[-123.103894,45.24933],[-123.103776,45.249665],[-123.103681,45.249798],[-123.103657,45.250367],[-123.103609,45.250568],[-123.103657,45.250769],[-123.103645,45.250936],[-123.103562,45.251112],[-123.103538,45.251263],[-123.103752,45.251739],[-123.103692,45.252024],[-123.103692,45.252216],[-123.103764,45.252325],[-123.104239,45.25266],[-123.104382,45.25271],[-123.104572,45.252618],[-123.104679,45.252392],[-123.104869,45.252116],[-123.105107,45.251857],[-123.105511,45.251673],[-123.106568,45.251271],[-123.107305,45.251053],[-123.107638,45.251003],[-123.108018,45.251053],[-123.108339,45.251246],[-123.108606,45.251352],[-123.10901,45.25177],[-123.109331,45.251912],[-123.109795,45.252038],[-123.110294,45.252305],[-123.110757,45.252949],[-123.111042,45.253527],[-123.111423,45.253987],[-123.111779,45.254129],[-123.112041,45.25438],[-123.112219,45.254656],[-123.112373,45.255033],[-123.112599,45.255325],[-123.112718,45.255384],[-123.112837,45.255292],[-123.112944,45.255024],[-123.113063,45.25484],[-123.113312,45.25479],[-123.11355,45.254832],[-123.113859,45.255141],[-123.114049,45.255242],[-123.114667,45.255727],[-123.114988,45.255744],[-123.115368,45.255693],[-123.115618,45.255719],[-123.115903,45.255819],[-123.116164,45.255836],[-123.117614,45.255643],[-123.117887,45.255668],[-123.118054,45.255769],[-123.118161,45.255928],[-123.118256,45.25617],[-123.118149,45.256388],[-123.117971,45.256589],[-123.117424,45.257032],[-123.117305,45.257333],[-123.11721,45.257425],[-123.117008,45.257484],[-123.116699,45.257726],[-123.116568,45.258086],[-123.116354,45.258186],[-123.11601,45.258253],[-123.115285,45.258069],[-123.115011,45.258061],[-123.114774,45.258153],[-123.114596,45.258279],[-123.113645,45.25822],[-123.113407,45.258086],[-123.1133,45.257927],[-123.113039,45.257802],[-123.112813,45.257743],[-123.112539,45.257781],[-123.112292,45.257754],[-123.112007,45.257506],[-123.11156,45.257306],[-123.111427,45.257031],[-123.111332,45.256543],[-123.111351,45.256382],[-123.111275,45.256255],[-123.111056,45.256262],[-123.110543,45.256402],[-123.110333,45.256389],[-123.110153,45.256288],[-123.109849,45.256255],[-123.109668,45.256476],[-123.10943,45.256576],[-123.109459,45.256978],[-123.109392,45.257158],[-123.109411,45.257285],[-123.109611,45.257406],[-123.109735,45.257546],[-123.109811,45.257714],[-123.109782,45.257827],[-123.109421,45.258149],[-123.109345,45.258269],[-123.109373,45.258336],[-123.109715,45.258437],[-123.109877,45.258537],[-123.110067,45.258784],[-123.110029,45.258972],[-123.109012,45.25946],[-123.108213,45.259762],[-123.108109,45.259915],[-123.108042,45.260136],[-123.107909,45.260377],[-123.107519,45.260551],[-123.107244,45.260625],[-123.106996,45.260645],[-123.106359,45.260551],[-123.106103,45.260571],[-123.106179,45.260913],[-123.106188,45.261174],[-123.106122,45.261348],[-123.105922,45.261595],[-123.105513,45.261903],[-123.105342,45.262104],[-123.105247,45.262298],[-123.10519,45.262472],[-123.105219,45.262545],[-123.105314,45.262592],[-123.105894,45.262492],[-123.106188,45.262485],[-123.106531,45.262525],[-123.106958,45.262639],[-123.107215,45.262927],[-123.107301,45.263107],[-123.107225,45.263643],[-123.107111,45.263864],[-123.106882,45.264051],[-123.106588,45.264192],[-123.106027,45.264339],[-123.105513,45.264426],[-123.104572,45.264419],[-123.104353,45.264446],[-123.10422,45.264533],[-123.104106,45.264807],[-123.104087,45.264961],[-123.104201,45.265189],[-123.104382,45.265269],[-123.104895,45.265269],[-123.105761,45.265537],[-123.106036,45.26571],[-123.106074,45.265878],[-123.106017,45.266373],[-123.106454,45.266942],[-123.106483,45.267129],[-123.106407,45.267236],[-123.105836,45.267477],[-123.105684,45.267785],[-123.105608,45.267885],[-123.105494,45.267959],[-123.105342,45.267979],[-123.104914,45.267865],[-123.104467,45.267865],[-123.103859,45.267878],[-123.103051,45.268006],[-123.10308,45.268093],[-123.103241,45.26822],[-123.104116,45.268775],[-123.104163,45.26919],[-123.103992,45.269678],[-123.103821,45.269886],[-123.103041,45.270354],[-123.102718,45.270702],[-123.102557,45.270816],[-123.102015,45.27101],[-123.101539,45.271271],[-123.100826,45.271451],[-123.100275,45.271679],[-123.100047,45.271893],[-123.099457,45.272154],[-123.099172,45.272468],[-123.098763,45.272769],[-123.098563,45.272856],[-123.098364,45.272903],[-123.097518,45.27291],[-123.096508,45.272833],[-123.096415,45.272873],[-123.096365,45.272988],[-123.096187,45.273199],[-123.096001,45.273214],[-123.095559,45.273179],[-123.094811,45.273044],[-123.094433,45.272833],[-123.094083,45.272788],[-123.093948,45.272672],[-123.093862,45.272457],[-123.093698,45.272452],[-123.093556,45.272642],[-123.093684,45.272903],[-123.094262,45.27341],[-123.094825,45.27351],[-123.09506,45.273621],[-123.095324,45.273666],[-123.096935,45.273806],[-123.097199,45.273862],[-123.097392,45.273952],[-123.097463,45.274057],[-123.097477,45.274223],[-123.097363,45.274464],[-123.097156,45.2747],[-123.096593,45.275101],[-123.0968,45.275407],[-123.096672,45.275884],[-123.096686,45.276004],[-123.09665,45.2761],[-123.096151,45.276335],[-123.096108,45.276481],[-123.09598,45.276536],[-123.09578,45.276591],[-123.095246,45.276646],[-123.094718,45.276852],[-123.094532,45.276882],[-123.093976,45.276847],[-123.093891,45.276897],[-123.093905,45.276978],[-123.094169,45.277309],[-123.094276,45.277535],[-123.094611,45.27776],[-123.094625,45.277891],[-123.094447,45.278297],[-123.094447,45.278598],[-123.094476,45.278694],[-123.094561,45.278759],[-123.094668,45.278744],[-123.094739,45.278638],[-123.094711,45.278523],[-123.094768,45.278428],[-123.095074,45.278312],[-123.095417,45.278272],[-123.095859,45.277826],[-123.09623,45.27778],[-123.096322,45.277831],[-123.096372,45.278804],[-123.096722,45.27917],[-123.09675,45.279331],[-123.09665,45.279471],[-123.096365,45.279717],[-123.096058,45.280138],[-123.09593,45.28069],[-123.095966,45.280771],[-123.096051,45.280791],[-123.09613,45.280776],[-123.096465,45.280429],[-123.096921,45.280299],[-123.097185,45.279817],[-123.097213,45.279542],[-123.097342,45.279351],[-123.097385,45.279185],[-123.097392,45.279],[-123.097342,45.278834],[-123.097142,45.278528],[-123.097128,45.278388],[-123.097192,45.278292],[-123.097292,45.278267],[-123.097883,45.27848],[-123.097887,45.27818],[-123.097791,45.277946],[-123.097649,45.277795],[-123.097863,45.277285],[-123.097898,45.277085],[-123.098174,45.276976],[-123.09819,45.278953],[-123.098142,45.279535],[-123.097449,45.283173],[-123.097424,45.283581],[-123.097477,45.284983],[-123.097793,45.289744],[-123.097896,45.290061],[-123.098101,45.290385],[-123.10222,45.295626],[-123.102372,45.295886],[-123.10239,45.296015],[-123.102307,45.29627],[-123.101212,45.298369],[-123.100257,45.300124],[-123.099908,45.300666],[-123.099508,45.301051],[-123.094827,45.304954],[-123.094328,45.305416],[-123.09192,45.308224],[-123.08936,45.311365],[-123.089219,45.311735],[-123.089242,45.312103],[-123.0906,45.316963]]]]}}]}