{"type":"FeatureCollection","features":[{"type":"Feature","properties":{"ava_id":"eola_amity_hills","name":"Eola-Amity Hills","aka":null,"created":"2006-08-16","removed":null,"county":"Polk|Yamhill","state":"OR","within":"Willamette Valley","contains":null,"petitioner":"Mr. Jeff Havlin, the owner of Havlin Vineyard and chair of the Van Duzer Corridor AVA Committee","cfr_author":"Kaori Flores","cfr_index":"9.202","cfr_revision_history":"[T.D. TTB-51, 71 FR 40404, July 17, 2006; T.D. TTB-155, 83 FR 64279, Dec. 14, 2018]","approved_maps":"(1) Rickreall, Oregon, 1969, photorevised 1976; (2) Salem West, Oregon, 1969, photorevised 1986; (3) Mission Bottom, Oregon, 1957, revised 1993; (4) Dayton, Oregon, 1957, revised 1992; (5) McMinnville, Oregon, 1957, revised 1992; and (6) Amity, Oregon, 1957, revised 1993.","boundary_description":"(c) Boundary. The Eola-Amity Hills viticultural area is located in the State of Oregon, within Polk and Yamhill Counties, and is entirely within the Willamette Valley viticultural area. The area's boundary is defined as follows\u2014\n\n(1) The beginning point is on the Rickreall, Oregon, map at the intersection of State Highway 22 and Rickreall Road, near the Oak Knoll Golf Course, in section 50, T7S, R4W;\n\n(2) From the beginning point, proceed east on State Highway 22 to its intersection with Doaks Ferry Road on the Salem West, Oregon, map; then\n\n(3) Proceed northeast on Doaks Ferry Road to its intersection with the 200-foot contour line southeast of Gibson Gulch, in section 65; then\n\n(4) Follow the 200-foot contour line in a westerly loop until it rejoins Doaks Ferry Road; then\n\n(5) Continue north on Doaks Ferry Road to its intersection with State Highway 221; then\n\n(6) Continue north on State Highway 221 to its intersection with the 200-foot contour line at the point where the contour line departs from Highway 221 and runs southwest along the southern edge of Spring Valley (section 53 on the Mission Bottom, Oregon, map); then\n\n(7) Follow the 200-foot contour line first south onto the Salem West, Oregon, map, then northwest around the southern and western edge of Spring Valley and back on to the Mission Bottom, Oregon, map; then\n\n(8) Continue to follow the 200-foot contour line generally north on the Mission Bottom, Oregon, map, crossing onto and back from the Amity, Oregon, map and continue past the Yamhill County line and onto the Dayton, Oregon, map; then\n\n(9) Follow the 200-foot contour line from the Dayton, Oregon, map onto the McMinnville, Oregon, map and back to the Dayton, Oregon, map and continue around the northeast edge of the Amity Hills spur of the Eola Hills; then\n\n(10) Follow the 200-foot contour line onto the McMinnville, Oregon, map as it continues around the northern and western periphery of the Amity Hills spur; then\n\n(11) Follow the 200-foot contour line onto the Amity, Oregon, map as it heads first south, then generally southeast, then generally south, along the western edge of the Eola Hills until it intersects Old Bethel Road at a point just north of the Polk County line; then\n\n(12) Follow Old Bethel Road, which becomes Oak Grove Road, south until the road intersects the 200-foot contour line approximately 400 feet north of Oak Grove Road's northern intersection with Zena Road, just northwest of Bethel; then\n\n(13) Follow the 200-foot contour line easterly and then southerly until its first intersection with Zena Road, and then follow Zena Road west approximately 0.25 mile to its southern intersection with Oak Grove Road, south of Bethel; then\n\n(14) Follow Oak Grove Road south until it intersects with Frizzell Road; then\n\n(15) Follow Frizzell Road west for approximately 0.25 mile to its first intersection with the 200-foot contour line, then\n\n(16) Follow the 200-foot contour line generally south, crossing onto the Rickreall, Oregon, map, until the contour line intersects the beginning point.","used_maps":"(1) Rickreall, Oregon, 1969, photorevised 1976; (2) Salem West, Oregon, 1969, photorevised 1986; (3) Mission Bottom, Oregon, 1957, revised 1993; (4) Dayton, Oregon, 1957, revised 1992; (5) McMinnville, Oregon, 1957, revised 1992; and (6) Amity, Oregon, 1957, revised 1993.","valid_start":"2019-01-14","valid_end":null,"lcsh":null,"sameas":null,"ttb_name":"Eola-Amity Hills","cfr_section":"27 CFR 9.202","counties":"Polk, Yamhill","boundary_source":"TTB AVA Map Explorer (AVAs_Production feature service)","boundary_retrieved":"2026-09-30"},"geometry":{"type":"MultiPolygon","coordinates":[[[[-123.184715,45.034129],[-123.184754,45.034144],[-123.184716,45.034145],[-123.184715,45.034129]]],[[[-123.186874,45.043266],[-123.186795,45.043405],[-123.186795,45.043571],[-123.186707,45.043662],[-123.186635,45.043812],[-123.186611,45.044098],[-123.186656,45.060182],[-123.186633,45.061699],[-123.18668,45.063711],[-123.18652,45.06571],[-123.186453,45.066157],[-123.186457,45.07097],[-123.186363,45.072045],[-123.186261,45.076578],[-123.186377,45.077086],[-123.185668,45.077866],[-123.185013,45.078501],[-123.183321,45.079836],[-123.182843,45.080083],[-123.182171,45.080573],[-123.182255,45.081183],[-123.182134,45.081567],[-123.182165,45.083366],[-123.181953,45.084168],[-123.181906,45.084766],[-123.181699,45.085844],[-123.18169,45.086151],[-123.181444,45.087202],[-123.181278,45.088189],[-123.18113,45.089165],[-123.18111,45.089991],[-123.180843,45.090615],[-123.180379,45.091253],[-123.180629,45.091811],[-123.180404,45.092671],[-123.180134,45.093105],[-123.179625,45.09354],[-123.179424,45.094125],[-123.179358,45.095562],[-123.179438,45.0962],[-123.17937,45.096766],[-123.17905,45.097401],[-123.177785,45.098558],[-123.177467,45.099099],[-123.177035,45.099429],[-123.176155,45.099913],[-123.176509,45.100775],[-123.176323,45.101541],[-123.176246,45.102174],[-123.175768,45.10266],[-123.174949,45.103274],[-123.174611,45.103745],[-123.174207,45.104127],[-123.173495,45.104563],[-123.172368,45.104883],[-123.171332,45.10594],[-123.170141,45.106931],[-123.169309,45.107865],[-123.168337,45.108598],[-123.167007,45.109204],[-123.166558,45.109886],[-123.165905,45.110377],[-123.164715,45.110779],[-123.163031,45.111092],[-123.162543,45.111],[-123.162034,45.110321],[-123.161702,45.11018],[-123.161525,45.110746],[-123.161384,45.111756],[-123.161099,45.111895],[-123.160322,45.112137],[-123.159592,45.11231],[-123.159274,45.112642],[-123.159699,45.112855],[-123.160852,45.112948],[-123.161637,45.113132],[-123.161924,45.113584],[-123.161534,45.114703],[-123.162119,45.114563],[-123.162649,45.11463],[-123.163274,45.114288],[-123.163898,45.11401],[-123.165144,45.1139],[-123.166062,45.114018],[-123.166702,45.114047],[-123.168358,45.11343],[-123.16918,45.113483],[-123.169815,45.11385],[-123.170013,45.114307],[-123.170627,45.113449],[-123.171294,45.113239],[-123.173035,45.113032],[-123.174773,45.112952],[-123.176195,45.112943],[-123.178757,45.113071],[-123.179739,45.11352],[-123.180252,45.114232],[-123.180895,45.114557],[-123.181925,45.11484],[-123.182911,45.115256],[-123.183761,45.115906],[-123.185115,45.117461],[-123.18584,45.117852],[-123.18632,45.118343],[-123.186225,45.119037],[-123.185851,45.119358],[-123.186273,45.119944],[-123.187668,45.120812],[-123.189371,45.121133],[-123.190426,45.121749],[-123.191888,45.122015],[-123.193958,45.122554],[-123.195664,45.123046],[-123.19684,45.123044],[-123.19844,45.122264],[-123.19931,45.122069],[-123.200342,45.122239],[-123.200848,45.122617],[-123.201049,45.123621],[-123.200928,45.12444],[-123.201324,45.125561],[-123.201466,45.126375],[-123.202784,45.128437],[-123.202913,45.129133],[-123.20339,45.129502],[-123.203866,45.129942],[-123.204531,45.130421],[-123.205189,45.131061],[-123.205994,45.13199],[-123.206154,45.132665],[-123.205937,45.133203],[-123.205492,45.133788],[-123.205053,45.13453],[-123.204925,45.135175],[-123.204866,45.135696],[-123.203919,45.136456],[-123.203314,45.136553],[-123.202434,45.137338],[-123.20133,45.137974],[-123.200596,45.138208],[-123.199833,45.137997],[-123.199376,45.137826],[-123.199334,45.138318],[-123.197457,45.139682],[-123.1958,45.140816],[-123.195337,45.140678],[-123.194926,45.141341],[-123.194568,45.141459],[-123.193878,45.141388],[-123.193592,45.141548],[-123.193013,45.142236],[-123.192016,45.14276],[-123.190483,45.143203],[-123.189946,45.143114],[-123.189781,45.142448],[-123.189449,45.142377],[-123.18908,45.142732],[-123.188701,45.143382],[-123.188388,45.143755],[-123.187931,45.143852],[-123.187503,45.14351],[-123.18676,45.14363],[-123.186106,45.143797],[-123.18548,45.144303],[-123.184766,45.14454],[-123.182345,45.144872],[-123.181843,45.144752],[-123.18163,45.145046],[-123.181046,45.145474],[-123.178825,45.145986],[-123.177163,45.146535],[-123.176532,45.146688],[-123.176113,45.146657],[-123.175564,45.146308],[-123.175159,45.146103],[-123.174177,45.14686],[-123.173159,45.146996],[-123.172674,45.147199],[-123.171936,45.147293],[-123.17136,45.147014],[-123.170817,45.146242],[-123.170102,45.14612],[-123.169499,45.145688],[-123.16845,45.144686],[-123.168295,45.144342],[-123.167392,45.143243],[-123.167184,45.142583],[-123.167304,45.141987],[-123.168094,45.141281],[-123.167173,45.141449],[-123.166468,45.141674],[-123.16597,45.142072],[-123.164881,45.142516],[-123.164492,45.142383],[-123.16395,45.142011],[-123.16355,45.141514],[-123.163229,45.140689],[-123.162815,45.140773],[-123.16244,45.141432],[-123.162531,45.142243],[-123.162431,45.143015],[-123.162088,45.143326],[-123.161473,45.143137],[-123.160665,45.142578],[-123.159493,45.141993],[-123.158887,45.141836],[-123.158508,45.141893],[-123.158721,45.14236],[-123.159137,45.142969],[-123.159478,45.143993],[-123.159572,45.144464],[-123.158963,45.144958],[-123.157876,45.145131],[-123.156481,45.145052],[-123.1543,45.145729],[-123.153394,45.145914],[-123.15258,45.145772],[-123.151937,45.145325],[-123.15149,45.144868],[-123.150948,45.144491],[-123.15002,45.144531],[-123.149439,45.144221],[-123.148812,45.143833],[-123.148087,45.143678],[-123.147619,45.143533],[-123.14722,45.144986],[-123.147132,45.145744],[-123.147505,45.146398],[-123.147389,45.14682],[-123.145297,45.148011],[-123.144743,45.148061],[-123.144267,45.148279],[-123.143573,45.148677],[-123.142211,45.148942],[-123.141701,45.14896],[-123.141442,45.149486],[-123.140946,45.149777],[-123.140371,45.149873],[-123.139872,45.149789],[-123.138623,45.150064],[-123.137287,45.150418],[-123.136391,45.150966],[-123.136168,45.152216],[-123.135818,45.153146],[-123.134763,45.154334],[-123.132888,45.155562],[-123.132037,45.155804],[-123.131174,45.155941],[-123.130763,45.156236],[-123.130474,45.157015],[-123.129619,45.157362],[-123.128735,45.157186],[-123.127911,45.157365],[-123.125352,45.159022],[-123.124611,45.159714],[-123.123928,45.160146],[-123.123057,45.160907],[-123.120461,45.162414],[-123.119156,45.162992],[-123.117724,45.163478],[-123.11653,45.163698],[-123.114393,45.163782],[-123.113222,45.164546],[-123.112654,45.16442],[-123.112202,45.164044],[-123.1116,45.163165],[-123.111697,45.162502],[-123.112785,45.161459],[-123.11335,45.160835],[-123.114107,45.160426],[-123.115093,45.160092],[-123.11604,45.159614],[-123.116431,45.158683],[-123.115862,45.158314],[-123.115116,45.157951],[-123.114492,45.157523],[-123.114104,45.157018],[-123.114114,45.15671],[-123.114623,45.156215],[-123.115151,45.155934],[-123.116056,45.155685],[-123.116857,45.155575],[-123.117529,45.155197],[-123.117756,45.15462],[-123.116048,45.154116],[-123.114765,45.153995],[-123.113588,45.153937],[-123.112471,45.153341],[-123.112117,45.152899],[-123.112709,45.152322],[-123.113727,45.151629],[-123.114642,45.150847],[-123.115118,45.150154],[-123.115274,45.149071],[-123.115507,45.148438],[-123.116203,45.148466],[-123.116883,45.148102],[-123.117931,45.14777],[-123.119251,45.147401],[-123.120301,45.14721],[-123.121254,45.147336],[-123.121835,45.147776],[-123.122066,45.148173],[-123.122168,45.148747],[-123.122412,45.149081],[-123.123293,45.148822],[-123.125463,45.148644],[-123.126067,45.148681],[-123.126399,45.148177],[-123.127417,45.147805],[-123.128464,45.147667],[-123.129158,45.147651],[-123.130319,45.147418],[-123.130918,45.147088],[-123.129947,45.147007],[-123.128712,45.14702],[-123.127645,45.146803],[-123.12681,45.14658],[-123.123706,45.144553],[-123.123172,45.144018],[-123.123158,45.14322],[-123.123614,45.142276],[-123.123474,45.141363],[-123.12305,45.1409],[-123.122964,45.140426],[-123.121212,45.140894],[-123.120711,45.140874],[-123.120276,45.140698],[-123.119961,45.140343],[-123.119928,45.139739],[-123.120286,45.139194],[-123.120404,45.138768],[-123.119972,45.138575],[-123.119542,45.138624],[-123.118723,45.138849],[-123.118405,45.138837],[-123.116583,45.138405],[-123.116322,45.138116],[-123.116679,45.137504],[-123.117272,45.137358],[-123.117692,45.137098],[-123.118281,45.136556],[-123.11898,45.135784],[-123.118803,45.135113],[-123.118271,45.134928],[-123.116101,45.134732],[-123.115607,45.134423],[-123.11538,45.133862],[-123.115644,45.132956],[-123.115696,45.132421],[-123.115897,45.1319],[-123.116639,45.131385],[-123.117365,45.131062],[-123.118014,45.131101],[-123.118755,45.131323],[-123.11934,45.131293],[-123.119645,45.130908],[-123.120008,45.129723],[-123.120046,45.128518],[-123.119065,45.128161],[-123.118677,45.127737],[-123.118583,45.127067],[-123.119071,45.126475],[-123.121347,45.12563],[-123.122211,45.125455],[-123.122973,45.125348],[-123.123544,45.125005],[-123.123306,45.124366],[-123.122499,45.12387],[-123.121642,45.123655],[-123.120744,45.12384],[-123.120205,45.123846],[-123.119329,45.123633],[-123.118634,45.123379],[-123.118016,45.122842],[-123.117679,45.122181],[-123.117792,45.121708],[-123.118269,45.12092],[-123.118953,45.120427],[-123.119677,45.120046],[-123.120502,45.118697],[-123.121286,45.117944],[-123.122047,45.11766],[-123.123073,45.117457],[-123.125015,45.117181],[-123.123764,45.116826],[-123.123309,45.116915],[-123.121732,45.116741],[-123.120933,45.116788],[-123.120008,45.117015],[-123.119663,45.116754],[-123.120575,45.115979],[-123.120748,45.115582],[-123.121235,45.115283],[-123.121943,45.114657],[-123.121554,45.114405],[-123.120781,45.114495],[-123.120095,45.11465],[-123.119197,45.114774],[-123.118436,45.114799],[-123.117171,45.115229],[-123.116033,45.115384],[-123.114751,45.115482],[-123.112397,45.11545],[-123.111608,45.115676],[-123.110653,45.115763],[-123.109681,45.115707],[-123.109344,45.115309],[-123.109425,45.114336],[-123.108733,45.112714],[-123.108135,45.111938],[-123.107556,45.111286],[-123.107562,45.110349],[-123.107495,45.109412],[-123.107315,45.108595],[-123.107404,45.108052],[-123.108008,45.107827],[-123.110524,45.107901],[-123.111184,45.107656],[-123.112058,45.107515],[-123.113477,45.107554],[-123.114672,45.107507],[-123.116587,45.107111],[-123.118794,45.10674],[-123.118684,45.106534],[-123.116799,45.105968],[-123.114947,45.105683],[-123.114429,45.105498],[-123.113953,45.104081],[-123.113578,45.104211],[-123.113233,45.104684],[-123.112528,45.105242],[-123.11175,45.1053],[-123.109082,45.105027],[-123.106256,45.104861],[-123.105699,45.10463],[-123.104917,45.104408],[-123.104394,45.104383],[-123.103613,45.104478],[-123.102098,45.104944],[-123.101672,45.104821],[-123.101427,45.104398],[-123.101151,45.102602],[-123.101305,45.102088],[-123.101614,45.101688],[-123.102518,45.100767],[-123.102987,45.100188],[-123.103903,45.09959],[-123.106184,45.098902],[-123.107314,45.09866],[-123.109511,45.097942],[-123.109316,45.097124],[-123.109444,45.096302],[-123.110021,45.095587],[-123.111144,45.094614],[-123.111615,45.094119],[-123.111191,45.093579],[-123.111239,45.093046],[-123.111504,45.092451],[-123.112076,45.091988],[-123.112756,45.091832],[-123.113494,45.09185],[-123.114834,45.091769],[-123.115474,45.091665],[-123.115787,45.091548],[-123.115529,45.091374],[-123.114877,45.091192],[-123.113558,45.090678],[-123.11325,45.09046],[-123.11335,45.090058],[-123.113803,45.089546],[-123.114712,45.089013],[-123.115165,45.088828],[-123.116018,45.088547],[-123.117304,45.088251],[-123.117961,45.08806],[-123.118154,45.08749],[-123.117659,45.087333],[-123.116992,45.087195],[-123.116209,45.08726],[-123.114878,45.08757],[-123.114145,45.087663],[-123.113656,45.087463],[-123.11251,45.08759],[-123.111897,45.087851],[-123.111394,45.08802],[-123.110873,45.087901],[-123.110724,45.087343],[-123.11069,45.086762],[-123.110261,45.086548],[-123.109753,45.086678],[-123.109329,45.086945],[-123.107953,45.087393],[-123.106026,45.088366],[-123.105397,45.088622],[-123.103455,45.089553],[-123.102787,45.08982],[-123.10039,45.089975],[-123.098895,45.090211],[-123.097697,45.090486],[-123.096996,45.090475],[-123.096615,45.090252],[-123.096467,45.089754],[-123.096358,45.089195],[-123.095783,45.087849],[-123.095656,45.086964],[-123.095744,45.085627],[-123.095635,45.085323],[-123.095362,45.084936],[-123.095139,45.084523],[-123.094978,45.083988],[-123.094971,45.083374],[-123.095161,45.082931],[-123.095039,45.082714],[-123.093939,45.081985],[-123.093734,45.081363],[-123.093919,45.080995],[-123.095366,45.079501],[-123.096435,45.078775],[-123.097128,45.078474],[-123.097713,45.078388],[-123.098426,45.078346],[-123.099392,45.078146],[-123.100188,45.077768],[-123.101393,45.076885],[-123.101626,45.076309],[-123.101384,45.076074],[-123.100161,45.075826],[-123.099472,45.075584],[-123.099077,45.075102],[-123.099189,45.074307],[-123.099328,45.073637],[-123.097931,45.073744],[-123.096771,45.073693],[-123.096014,45.073582],[-123.09475,45.073656],[-123.094215,45.073236],[-123.094067,45.072311],[-123.092829,45.072092],[-123.091402,45.071184],[-123.090041,45.070622],[-123.088728,45.069148],[-123.088232,45.068728],[-123.087474,45.068205],[-123.087032,45.067378],[-123.086773,45.066505],[-123.086979,45.066134],[-123.087693,45.065739],[-123.088561,45.065321],[-123.089536,45.065064],[-123.090678,45.065234],[-123.091696,45.065317],[-123.094458,45.064851],[-123.095692,45.064703],[-123.09882,45.064107],[-123.099953,45.06402],[-123.101007,45.064142],[-123.101939,45.064369],[-123.102781,45.064295],[-123.101945,45.063742],[-123.100971,45.063495],[-123.099053,45.0633],[-123.094944,45.063352],[-123.092748,45.06327],[-123.092218,45.063141],[-123.091829,45.062964],[-123.089992,45.06185],[-123.089847,45.061359],[-123.090325,45.060472],[-123.090241,45.060104],[-123.090695,45.059522],[-123.091459,45.058945],[-123.09193,45.058802],[-123.091057,45.058029],[-123.089991,45.058458],[-123.089189,45.05885],[-123.087866,45.059094],[-123.086225,45.059548],[-123.085561,45.060169],[-123.084824,45.060637],[-123.08399,45.061064],[-123.083045,45.061368],[-123.082078,45.06159],[-123.081406,45.061631],[-123.080861,45.061524],[-123.079984,45.06082],[-123.08031,45.06031],[-123.081016,45.059629],[-123.081679,45.05884],[-123.082752,45.057806],[-123.083426,45.057337],[-123.084202,45.056973],[-123.08475,45.056835],[-123.085713,45.056766],[-123.088273,45.056905],[-123.089575,45.056186],[-123.090206,45.05557],[-123.09094,45.055201],[-123.091337,45.05513],[-123.09226,45.054878],[-123.092964,45.054761],[-123.094012,45.054902],[-123.095115,45.054753],[-123.095839,45.05483],[-123.096568,45.054717],[-123.097449,45.054051],[-123.09797,45.053477],[-123.098426,45.053134],[-123.099286,45.052952],[-123.09949,45.052557],[-123.099298,45.05209],[-123.09967,45.051627],[-123.100519,45.05113],[-123.101066,45.050702],[-123.101519,45.050509],[-123.101931,45.050474],[-123.102866,45.049836],[-123.103078,45.04943],[-123.103528,45.049107],[-123.10462,45.049038],[-123.10582,45.048608],[-123.106338,45.048567],[-123.106579,45.048692],[-123.106753,45.048708],[-123.10616,45.04753],[-123.106204,45.047179],[-123.106101,45.046819],[-123.106308,45.046111],[-123.104827,45.044252],[-123.10462,45.043837],[-123.105102,45.043176],[-123.10633,45.041942],[-123.10678,45.041253],[-123.106939,45.040554],[-123.106635,45.039378],[-123.106946,45.038363],[-123.108938,45.036553],[-123.11001,45.036009],[-123.1118,45.036237],[-123.112163,45.03464],[-123.112587,45.034084],[-123.113467,45.033513],[-123.114825,45.033024],[-123.115705,45.032985],[-123.116082,45.033228],[-123.116425,45.033325],[-123.117057,45.032905],[-123.117719,45.03307],[-123.118039,45.033329],[-123.119066,45.03258],[-123.120555,45.031641],[-123.120986,45.031594],[-123.121751,45.031742],[-123.122082,45.031526],[-123.122076,45.031091],[-123.121841,45.030718],[-123.121786,45.030241],[-123.121925,45.029845],[-123.121337,45.029393],[-123.121284,45.028911],[-123.121351,45.028479],[-123.120206,45.02799],[-123.119415,45.027746],[-123.118873,45.027462],[-123.118673,45.02715],[-123.119184,45.026472],[-123.120164,45.02624],[-123.120627,45.026323],[-123.121307,45.026269],[-123.121568,45.025956],[-123.122048,45.024855],[-123.122216,45.024],[-123.122309,45.023053],[-123.124646,45.021718],[-123.125865,45.021509],[-123.126903,45.02124],[-123.128067,45.020716],[-123.128932,45.020481],[-123.129695,45.020403],[-123.130657,45.020383],[-123.131492,45.020517],[-123.132504,45.020434],[-123.133465,45.020491],[-123.134599,45.020633],[-123.135171,45.02067],[-123.136009,45.020774],[-123.136549,45.02104],[-123.137198,45.021195],[-123.137865,45.021522],[-123.13824,45.021146],[-123.139169,45.020898],[-123.139947,45.020797],[-123.14072,45.020426],[-123.141533,45.020195],[-123.142387,45.020167],[-123.144279,45.019992],[-123.145085,45.019698],[-123.141697,45.019389],[-123.140494,45.01916],[-123.139096,45.018551],[-123.13812,45.018234],[-123.137263,45.017886],[-123.132,45.018198],[-123.131224,45.018154],[-123.129928,45.017924],[-123.129023,45.017537],[-123.128586,45.017004],[-123.126319,45.017008],[-123.125838,45.016806],[-123.125344,45.01613],[-123.124872,45.015063],[-123.124457,45.013667],[-123.124057,45.012708],[-123.123391,45.01086],[-123.122899,45.010421],[-123.122875,45.0096],[-123.123053,45.009075],[-123.122675,45.00781],[-123.12236,45.007388],[-123.121647,45.006861],[-123.121334,45.006424],[-123.121396,45.005921],[-123.121775,45.005306],[-123.121381,45.004586],[-123.120808,45.004171],[-123.119987,45.003789],[-123.119672,45.003249],[-123.119087,45.002837],[-123.118304,45.002172],[-123.117854,45.001623],[-123.116869,45.001167],[-123.116264,45.000637],[-123.115358,44.999321],[-123.115313,44.999023],[-123.116361,44.99812],[-123.116661,44.997728],[-123.116233,44.997821],[-123.115843,44.997964],[-123.115399,44.997859],[-123.114815,44.997364],[-123.114519,44.996902],[-123.114021,44.996441],[-123.113982,44.995437],[-123.113269,44.995086],[-123.112678,44.994851],[-123.111962,44.994733],[-123.111244,44.994794],[-123.110534,44.994926],[-123.109861,44.994951],[-123.109431,44.994848],[-123.108704,44.994603],[-123.107777,44.994577],[-123.107188,44.994628],[-123.106401,44.994845],[-123.105782,44.995069],[-123.104504,44.995],[-123.103928,44.994817],[-123.102232,44.994918],[-123.10109,44.99509],[-123.100564,44.994885],[-123.100166,44.994341],[-123.100397,44.993586],[-123.099307,44.992333],[-123.098989,44.992613],[-123.098509,44.992916],[-123.097746,44.992917],[-123.096797,44.993205],[-123.096194,44.99356],[-123.095275,44.993863],[-123.094458,44.993772],[-123.092653,44.993389],[-123.091725,44.99344],[-123.090928,44.993542],[-123.088633,44.99419],[-123.088223,44.994535],[-123.087925,44.995016],[-123.087372,44.995358],[-123.086725,44.995483],[-123.086181,44.99575],[-123.085728,44.996187],[-123.085607,44.996968],[-123.085192,44.99751],[-123.084733,44.998271],[-123.08399,44.999329],[-123.083467,44.999831],[-123.083157,45.000356],[-123.083281,45.001342],[-123.083332,45.002428],[-123.082796,45.003316],[-123.082015,45.003802],[-123.081337,45.004132],[-123.081359,45.004612],[-123.080874,45.005719],[-123.080076,45.006378],[-123.078631,45.006865],[-123.077978,44.999054],[-123.077978,44.997913],[-123.078147,44.992918],[-123.078138,44.992301],[-123.078003,44.9917],[-123.077325,44.990236],[-123.077183,44.989769],[-123.077148,44.989522],[-123.077056,44.980447],[-123.076965,44.979938],[-123.076634,44.979097],[-123.076193,44.978417],[-123.075567,44.977816],[-123.075827,44.977642],[-123.075932,44.977485],[-123.076014,44.97683],[-123.076361,44.975218],[-123.076653,44.973189],[-123.07927,44.973326],[-123.079979,44.973467],[-123.080494,44.973386],[-123.080788,44.973391],[-123.081454,44.973594],[-123.08238,44.973616],[-123.082952,44.97367],[-123.083163,44.973729],[-123.083616,44.973938],[-123.084249,44.973848],[-123.085058,44.974061],[-123.085513,44.974219],[-123.085928,44.974428],[-123.086668,44.974644],[-123.087921,44.975186],[-123.088073,44.975327],[-123.088293,44.975736],[-123.088719,44.976046],[-123.089339,44.976646],[-123.089541,44.976777],[-123.090473,44.976997],[-123.09179,44.976937],[-123.092074,44.976983],[-123.092248,44.977058],[-123.092428,44.977197],[-123.0925,44.977306],[-123.092548,44.977955],[-123.092717,44.978327],[-123.093128,44.978664],[-123.09372,44.978967],[-123.094422,44.979191],[-123.094505,44.97914],[-123.094599,44.978867],[-123.094749,44.978759],[-123.094988,44.97872],[-123.095588,44.978738],[-123.095678,44.978704],[-123.095636,44.978644],[-123.095107,44.978284],[-123.094784,44.977894],[-123.094318,44.977592],[-123.094075,44.977344],[-123.093942,44.977102],[-123.093793,44.976626],[-123.093417,44.976036],[-123.093343,44.975747],[-123.093354,44.975512],[-123.093451,44.975227],[-123.093862,44.974525],[-123.093909,44.974001],[-123.093962,44.973816],[-123.094257,44.973459],[-123.094702,44.972817],[-123.094921,44.972323],[-123.094936,44.972178],[-123.094842,44.972181],[-123.094423,44.972334],[-123.094115,44.972338],[-123.09388,44.972272],[-123.093484,44.972023],[-123.09339,44.972004],[-123.093025,44.9724],[-123.092311,44.972764],[-123.091776,44.973325],[-123.091418,44.973559],[-123.090815,44.97369],[-123.089985,44.973723],[-123.089605,44.973706],[-123.088576,44.97347],[-123.088303,44.973371],[-123.087836,44.973108],[-123.08723,44.972831],[-123.086838,44.972568],[-123.086408,44.972376],[-123.085883,44.972051],[-123.085345,44.971833],[-123.084729,44.971346],[-123.084527,44.971327],[-123.083968,44.971443],[-123.083574,44.971394],[-123.083031,44.971086],[-123.082284,44.970935],[-123.081838,44.970606],[-123.081296,44.970597],[-123.080912,44.970531],[-123.078922,44.969852],[-123.078627,44.969712],[-123.077991,44.969291],[-123.078893,44.968017],[-123.079186,44.967504],[-123.079301,44.967088],[-123.079344,44.966801],[-123.079364,44.966162],[-123.079461,44.965679],[-123.080177,44.964152],[-123.080355,44.963576],[-123.080436,44.963154],[-123.080413,44.962748],[-123.080273,44.962351],[-123.079937,44.961634],[-123.079811,44.961042],[-123.07973,44.957628],[-123.079641,44.95643],[-123.07969,44.955837],[-123.079744,44.95559],[-123.079927,44.95527],[-123.080225,44.954997],[-123.081785,44.95398],[-123.083439,44.952842],[-123.084077,44.952377],[-123.084396,44.952075],[-123.084979,44.952187],[-123.08536,44.952184],[-123.087624,44.952028],[-123.087984,44.951964],[-123.089367,44.951896],[-123.089445,44.951786],[-123.08963,44.951046],[-123.089701,44.950879],[-123.089996,44.950554],[-123.090982,44.949975],[-123.092296,44.949414],[-123.093106,44.948972],[-123.0937,44.948551],[-123.094025,44.948257],[-123.094532,44.947649],[-123.094826,44.947045],[-123.095546,44.944936],[-123.096422,44.94157],[-123.096525,44.941302],[-123.096806,44.940857],[-123.097213,44.940447],[-123.097908,44.939998],[-123.098487,44.939759],[-123.098971,44.939619],[-123.101029,44.939221],[-123.102302,44.938856],[-123.102773,44.938643],[-123.103609,44.938112],[-123.103954,44.937801],[-123.104439,44.937204],[-123.105423,44.935583],[-123.106105,44.934144],[-123.1064,44.933799],[-123.106741,44.93355],[-123.107305,44.933278],[-123.107629,44.933178],[-123.110114,44.932805],[-123.110744,44.932649],[-123.111632,44.932337],[-123.112093,44.932102],[-123.112416,44.931763],[-123.112477,44.931565],[-123.112358,44.931301],[-123.113493,44.930964],[-123.114205,44.93084],[-123.115349,44.930821],[-123.116049,44.93089],[-123.125997,44.93213],[-123.127222,44.932228],[-123.132303,44.932354],[-123.140237,44.932465],[-123.142154,44.932644],[-123.144349,44.932917],[-123.145713,44.932967],[-123.14673,44.932952],[-123.147712,44.932833],[-123.148877,44.932846],[-123.149628,44.932775],[-123.153017,44.93269],[-123.158575,44.932857],[-123.161533,44.932973],[-123.161692,44.933019],[-123.162941,44.933042],[-123.163252,44.933694],[-123.163393,44.934402],[-123.162527,44.934832],[-123.161439,44.934811],[-123.16073,44.935331],[-123.159875,44.935621],[-123.159682,44.936379],[-123.160885,44.936292],[-123.161506,44.936707],[-123.162647,44.938328],[-123.163117,44.939295],[-123.163602,44.941384],[-123.163525,44.942122],[-123.165469,44.94249],[-123.165707,44.943467],[-123.166672,44.944746],[-123.167356,44.945565],[-123.168919,44.945992],[-123.170104,44.946533],[-123.171327,44.945999],[-123.172469,44.945855],[-123.173842,44.946077],[-123.174592,44.946793],[-123.175577,44.947449],[-123.176355,44.947742],[-123.177336,44.947538],[-123.177927,44.946997],[-123.177642,44.946187],[-123.177284,44.944895],[-123.177359,44.944197],[-123.178309,44.943846],[-123.178911,44.944319],[-123.179363,44.945026],[-123.180574,44.945923],[-123.18087,44.946983],[-123.180424,44.947537],[-123.179162,44.948064],[-123.178748,44.94871],[-123.178111,44.949302],[-123.177089,44.949646],[-123.176032,44.94985],[-123.175207,44.950474],[-123.175934,44.950321],[-123.177063,44.950941],[-123.177417,44.952241],[-123.178255,44.953457],[-123.178573,44.954122],[-123.18018,44.953818],[-123.183024,44.95359],[-123.184506,44.95356],[-123.186142,44.95374],[-123.187052,44.954355],[-123.187111,44.955635],[-123.186444,44.956874],[-123.186338,44.957648],[-123.186095,44.958571],[-123.18572,44.959452],[-123.18506,44.960051],[-123.184123,44.960409],[-123.182891,44.960959],[-123.181411,44.962731],[-123.180341,44.963461],[-123.182731,44.963494],[-123.184567,44.963806],[-123.186018,44.963503],[-123.188292,44.963462],[-123.18947,44.963849],[-123.189263,44.965012],[-123.188719,44.966802],[-123.18812,44.968074],[-123.188075,44.969754],[-123.187732,44.970391],[-123.187036,44.971411],[-123.186809,44.972746],[-123.187014,44.974015],[-123.187604,44.974951],[-123.18739,44.975791],[-123.187837,44.975801],[-123.18975,44.974969],[-123.190213,44.97336],[-123.190888,44.971994],[-123.191996,44.971524],[-123.192925,44.97144],[-123.19305,44.970469],[-123.193791,44.969613],[-123.194409,44.968723],[-123.195281,44.968001],[-123.195828,44.967164],[-123.196368,44.966988],[-123.197082,44.967442],[-123.197418,44.968128],[-123.197346,44.969111],[-123.198257,44.970114],[-123.198645,44.971255],[-123.198681,44.972776],[-123.198123,44.973781],[-123.199003,44.975826],[-123.19974,44.97788],[-123.201055,44.979778],[-123.202759,44.982015],[-123.204075,44.982999],[-123.204684,44.984277],[-123.205944,44.986088],[-123.206521,44.98796],[-123.207043,44.989921],[-123.207671,44.991168],[-123.208168,44.991944],[-123.208149,44.992653],[-123.208376,44.993583],[-123.208806,44.994663],[-123.208402,44.999156],[-123.207574,45.001882],[-123.206465,45.002698],[-123.205986,45.003811],[-123.205468,45.003969],[-123.205146,45.00517],[-123.204331,45.00581],[-123.203299,45.005559],[-123.203132,45.006142],[-123.203093,45.007222],[-123.202424,45.008152],[-123.202975,45.009059],[-123.2038,45.009666],[-123.204599,45.011049],[-123.205902,45.01354],[-123.205616,45.014874],[-123.204564,45.015345],[-123.20318,45.015753],[-123.202503,45.016345],[-123.201325,45.016217],[-123.200848,45.015606],[-123.201114,45.014373],[-123.200898,45.013367],[-123.199988,45.012132],[-123.199161,45.012015],[-123.197366,45.012476],[-123.195591,45.012697],[-123.194899,45.012528],[-123.1934,45.011591],[-123.192122,45.011442],[-123.190525,45.011876],[-123.189289,45.011841],[-123.188064,45.012012],[-123.188506,45.012824],[-123.18967,45.013696],[-123.183797,45.013678],[-123.183807,45.019836],[-123.183678,45.024931],[-123.183947,45.030543],[-123.183955,45.031026],[-123.183924,45.031215],[-123.183832,45.031423],[-123.183435,45.032047],[-123.182654,45.031555],[-123.182178,45.031436],[-123.181464,45.031317],[-123.18081,45.03102],[-123.17843,45.031139],[-123.178668,45.031555],[-123.178311,45.031793],[-123.178311,45.032031],[-123.178728,45.032388],[-123.179025,45.032507],[-123.179203,45.032864],[-123.180096,45.033756],[-123.179798,45.033756],[-123.179382,45.033994],[-123.178311,45.033756],[-123.177776,45.033756],[-123.177003,45.033637],[-123.176646,45.033518],[-123.176824,45.034053],[-123.176586,45.034708],[-123.177121,45.035124],[-123.177181,45.035362],[-123.177478,45.035362],[-123.177716,45.035303],[-123.177895,45.035303],[-123.178906,45.035719],[-123.179382,45.036135],[-123.179917,45.036135],[-123.180453,45.035957],[-123.180512,45.035897],[-123.181226,45.035957],[-123.182237,45.036135],[-123.183843,45.036671],[-123.183546,45.037028],[-123.18307,45.037325],[-123.181642,45.037563],[-123.181345,45.037742],[-123.182059,45.038336],[-123.182356,45.038515],[-123.182178,45.038931],[-123.181107,45.039229],[-123.181167,45.039407],[-123.181464,45.039467],[-123.182118,45.039705],[-123.182535,45.039943],[-123.182535,45.040537],[-123.183427,45.040954],[-123.183665,45.041132],[-123.183784,45.04143],[-123.182832,45.042262],[-123.182475,45.043333],[-123.181583,45.044463],[-123.181642,45.045058],[-123.182594,45.044523],[-123.182773,45.044345],[-123.183903,45.044166],[-123.184498,45.044345],[-123.184855,45.044642],[-123.185033,45.045534],[-123.185212,45.045534],[-123.185688,45.04488],[-123.185866,45.044463],[-123.186874,45.043266]]]]}}]}