{"type":"FeatureCollection","features":[{"type":"Feature","properties":{"ava_id":"laurelwood_district","name":"Laurelwood District","aka":null,"created":"2020-07-06","removed":null,"county":"Washington|Yamhill","state":"OR","within":"Chehalem Mountains|Willamette Valley","contains":null,"petitioner":"Luisa Ponzi,  Kevin Johnson","cfr_author":"Karen A.  Thornton","cfr_index":"9.269","cfr_revision_history":"[T.D. TTB-160, 85 FR 34099, June 3, 2020]","approved_maps":"The six United States Geological Survey (USGS) 1:24,000 scale topographic maps used to determine the boundary of the Laurelwood District viticultural area are titled:\n\n(1) Laurelwood, OR, 2014;\n\n(2) Scholls, Oreg., 1961; photorevised 1985;\n\n(3) Newberg, OR, 2014;\n\n(4) Beaverton, Oreg., 1961; photorevised 1984;\n\n(5) Sherwood, Oreg., 1961; photorevised 1985; and\n\n(6) Dundee, Oreg., 1956; revised 1993.","boundary_description":"The Laurelwood District viticultural area is located in Washington and Yamhill Counties, in Oregon. The boundary of the Laurelwood District viticultural area is as described below:\n\n(1) The beginning point is on the Laurelwood map at the intersection of Winters Road and Blooming Fern Hill Road in section 17, T1S/R3W. From the beginning point, proceed west then northwest along Blooming Fern Hill Road for approximately 0.4 mile to its intersection with the 200-foot elevation contour; then\n\n(2) Proceed north then northeasterly along the 200-foot elevation contour for 1.5 miles to its intersection with SW La Follette Road; then\n\n(3) Proceed south along SW La Follette Road for 0.25 mile to its intersection with the 240-foot elevation contour, north of Blooming Fern Hill Road; then\n\n(4) Proceed easterly then southerly along the 240-foot elevation contour, crossing onto the Scholls map and back onto the Laurelwood map, for a total of 17 miles to the intersection of the elevation contour with SW Laurel Road; then\n\n(5) Proceed east along SW Laurel Road for 0.15 mile to its intersection with the 200-foot elevation contour; then\n\n(6) Proceed easterly along the 200-foot elevation contour, crossing over the Scholls map and onto the Newberg map, then crossing Heaton Creek and back onto the Scholls map for a total of 17.5 miles to the intersection of the elevation contour with Mountain Home Road east of Heaton Creek; then\n\n(7) Proceed easterly then southerly along the 200-foot elevation contour, crossing over the Beaverton and Sherwood maps and back onto the Scholls map for a total of 8.9 miles to the intersection of the elevation contour with the middle tributary of an unnamed stream along the western boundary of section 24, T2S/R2W; then\n\n(8) Proceed southeast along the 200-foot elevation contour, crossing over the northeast corner of the Newberg map and onto the Sherwood map, to the intersection of the elevation contour with Edy Road in section 25, T2S/R2W; then\n\n(9) Proceed southwest along the 200-foot elevation contour, crossing onto the Newberg map and back onto the Sherwood map, to the intersection of the elevation contour with Elwert Road along the eastern boundary of section 25, T2S/R2W; then\n\n(10) Proceed south along Elwert Road for 0.85 mile to its intersection with an unnamed highway known locally as Oregon Highway 99W, along the eastern boundary of section 36, T2S/R2W; then\n\n(11) Proceed southwesterly along Oregon Highway 99W for 0.45 mile to its intersection with the 250-foot elevation contour immediately south of an unnamed tributary of Cedar Creek in section 36, T2S/R2W; then\n\n(12) Proceed southerly along the 250-foot elevation contour for 1 mile to its intersection with Middleton Road in section 1, T2S/R2W; then\n\n(13) Proceed southwesterly along Middleton Road, which becomes Rein Road, for 0.5 mile to the intersection of the road with the 200-foot elevation contour immediately south of Cedar Creek; then\n\n(14) Proceed easterly along the 200-foot elevation contour for 1.6 miles to its intersection with an unnamed light-duty east-west road known locally as Brookman Road in the village of Middleton, section 6, T3S/R1W; then\n\n(15) Proceed east on Brookman Road for 0.4 mile to its intersection with the shared Washington-Clackamas County line at the western corner of section 5, T3S/R1W; then\n\n(16) Proceed south along the Washington-Clackamas County line for 1 mile to its intersection with Parrett Mountain Road along the eastern boundary of section 7, T3S/R1W; then\n\n(17) Proceed southwesterly along Parrett Mountain Road, crossing onto the Newberg map, for a total of 2.6 miles, to the intersection with an unnamed local road known locally as NE Old Parrett Mountain Road; then\n\n(18) Proceed west along NE Old Parrett Mountain Road for 1.7 mile to its intersection with NE Schaad Road; then\n\n(19) Proceed west along NE Schaad Road for 0.5 mile to its intersection with an unnamed local road known locally as NE Corral Creek Road; then\n\n(20) Proceed north along NE Corral Creek Road for 0.9 mile to its westernmost intersection with an unnamed local road known locally as NE Veritas Lane, south of Oregon Highway 99W; then\n\n(21) Proceed north westerly in a straight line for approximately 0.05 mile to the intersection of Oregon Highway 99W and the 250-foot elevation contour; then\n\n(22) Proceed northwesterly along the 250-foot elevation contour for 1 mile to its intersection with the second, westernmost intermittent stream that is an unnamed tributary of Spring Brook; then\n\n(23) Proceed northerly along the unnamed stream, crossing the single-gauge railroad track, for 0.5 mile to the intersection of the stream with the 430-foot elevation contour; then\n\n(24) Proceed west along the 430-foot elevation contour for 0.25 mile, crossing an unnamed road known locally as Owls Lane, to the intersection of the elevation contour with NE Kincaid Road; then\n\n(25) Proceed northwesterly along NE Kincaid Road for 0.25 mile to its intersection with NE Springbrook Road; then\n\n(26) Proceed northwesterly along NE Springbrook Road for 0.22 mile to its intersection with an unnamed road known locally as Bell Road; then\n\n(27) Proceed east along Bell Road for 0.5 mile, making a sharp northwesterly turn, then continuing along the road for 0.2 mile to its intersection with Mountain Top Road; then\n\n(28) Proceed northwesterly along Mountain Top Road for 1.9 miles to its intersection with SW Hillsboro Highway, also known as Highway 219; then\n\n(29) Proceed north along SW Hillsboro Highway for 0.1 mile to its intersection with Mountain Top Road at the Washington-Yamhill County line; then\n\n(30) Proceed northwest along Mountain Top Road for 3.1 miles, crossing onto the Dundee map, to the intersection of the road with Bald Peak Road in section 26, T2S/R3W; then\n\n(31) Proceed northwest, then northeast, then north along Bald Peak Road, crossing onto the Laurelwood map, for a total of 4.8 miles, to the intersection of the road with SW Laurelwood Road; then\n\n(32) Proceed southwest, then northwest, along SW Laurelwood Road for 0.8 mile to its intersection with the 700-foot elevation contour; then\n\n(33) Proceed northeast, then northwest, then north along the 700-foot elevation contour for 5 miles, passing west of Iowa Hill and Spring Hill, to the intersection of the elevation contour and SW Winters Road; then\n\n(34) Proceed north on SW Winters Road for 2 miles, returning to the beginning point.","used_maps":"The six United States Geological Survey (USGS) 1:24,000 scale topographic maps used to determine the boundary of the Laurelwood District viticultural area are titled:\n\n(1) Laurelwood, OR, 2014;\n\n(2) Scholls, Oreg., 1961; photorevised 1985;\n\n(3) Newberg, OR, 2014;\n\n(4) Beaverton, Oreg., 1961; photorevised 1984;\n\n(5) Sherwood, Oreg., 1961; photorevised 1985; and\n\n(6) Dundee, Oreg., 1956; revised 1993.","valid_start":null,"valid_end":null,"lcsh":null,"sameas":null,"ttb_name":"Laurelwood District","cfr_section":"27 CFR 9.9.269","counties":"Washington, Yamhill","boundary_source":"TTB AVA Map Explorer (AVAs_Production feature service)","boundary_retrieved":"2026-09-30"},"geometry":{"type":"MultiPolygon","coordinates":[[[[-123.091514,45.491317],[-123.091536,45.491508],[-123.091466,45.491787],[-123.091528,45.492073],[-123.091441,45.492594],[-123.091486,45.492889],[-123.091462,45.493041],[-123.09163,45.493568],[-123.091628,45.493896],[-123.091583,45.494161],[-123.091368,45.494498],[-123.091058,45.494816],[-123.090828,45.495015],[-123.090478,45.495245],[-123.090382,45.495357],[-123.090279,45.495613],[-123.090202,45.495696],[-123.089413,45.496149],[-123.089156,45.496236],[-123.088252,45.496336],[-123.086978,45.496667],[-123.086461,45.496678],[-123.086053,45.496627],[-123.085316,45.496447],[-123.084823,45.496228],[-123.084406,45.496116],[-123.084293,45.496053],[-123.084219,45.495928],[-123.084224,45.495749],[-123.084104,45.495632],[-123.08375,45.495657],[-123.082816,45.495092],[-123.082726,45.494951],[-123.082747,45.494771],[-123.082347,45.494688],[-123.082157,45.49448],[-123.081795,45.494395],[-123.081457,45.494417],[-123.081336,45.494342],[-123.081282,45.494257],[-123.081298,45.494151],[-123.081451,45.493898],[-123.081559,45.493802],[-123.082019,45.493606],[-123.082167,45.493457],[-123.081743,45.493338],[-123.081685,45.493248],[-123.081999,45.492379],[-123.082116,45.49225],[-123.082157,45.492127],[-123.08214,45.491955],[-123.082263,45.491709],[-123.082199,45.49162],[-123.081815,45.491786],[-123.081569,45.492],[-123.081433,45.492222],[-123.081248,45.492426],[-123.080842,45.49271],[-123.080584,45.492818],[-123.080482,45.492966],[-123.080354,45.493026],[-123.080106,45.49299],[-123.079965,45.493024],[-123.079615,45.493198],[-123.079476,45.493169],[-123.079123,45.492838],[-123.07902,45.492575],[-123.078386,45.49227],[-123.078187,45.492314],[-123.077949,45.492486],[-123.077432,45.493014],[-123.077269,45.492936],[-123.077113,45.492761],[-123.077078,45.492297],[-123.076972,45.492164],[-123.076752,45.492194],[-123.076254,45.492393],[-123.076075,45.492401],[-123.075914,45.492353],[-123.075752,45.492258],[-123.075672,45.492149],[-123.075587,45.491809],[-123.075422,45.491514],[-123.075153,45.491283],[-123.07491,45.491193],[-123.07472,45.491189],[-123.074587,45.491238],[-123.074505,45.491343],[-123.074377,45.49165],[-123.074275,45.49172],[-123.073934,45.491721],[-123.073702,45.491646],[-123.073547,45.491444],[-123.07353,45.48854],[-123.073371,45.488582],[-123.073142,45.488767],[-123.072673,45.488976],[-123.071707,45.488993],[-123.069199,45.488491],[-123.068189,45.48835],[-123.067987,45.488272],[-123.067723,45.488069],[-123.067596,45.487909],[-123.067415,45.487801],[-123.066898,45.487675],[-123.066825,45.487517],[-123.066844,45.487345],[-123.066874,45.487165],[-123.066987,45.48694],[-123.067085,45.486851],[-123.067301,45.486762],[-123.067437,45.48666],[-123.067594,45.486452],[-123.067739,45.486348],[-123.068377,45.486004],[-123.068741,45.485588],[-123.0688,45.485475],[-123.068775,45.485348],[-123.068582,45.485173],[-123.068244,45.484959],[-123.067765,45.484735],[-123.067712,45.484651],[-123.067718,45.48456],[-123.067796,45.484458],[-123.067934,45.484395],[-123.068123,45.48438],[-123.068692,45.484403],[-123.069,45.484363],[-123.069238,45.484228],[-123.069463,45.48402],[-123.070247,45.48347],[-123.071702,45.482842],[-123.07189,45.482836],[-123.072127,45.4829],[-123.072397,45.48308],[-123.072803,45.483282],[-123.073156,45.483571],[-123.073451,45.483727],[-123.073791,45.483691],[-123.073969,45.483753],[-123.074074,45.483843],[-123.074213,45.48411],[-123.074349,45.48404],[-123.074447,45.483748],[-123.074575,45.483716],[-123.074984,45.48385],[-123.075175,45.483841],[-123.075196,45.483692],[-123.074926,45.483478],[-123.074425,45.483204],[-123.073798,45.483013],[-123.073661,45.482873],[-123.073559,45.482659],[-123.073262,45.482269],[-123.073222,45.482146],[-123.073234,45.482033],[-123.073308,45.481899],[-123.073822,45.481609],[-123.074564,45.481513],[-123.075001,45.481167],[-123.075126,45.481123],[-123.075635,45.481124],[-123.075928,45.481082],[-123.077346,45.48126],[-123.077514,45.481242],[-123.077579,45.481159],[-123.0774,45.481022],[-123.076655,45.480769],[-123.076095,45.480624],[-123.075323,45.48049],[-123.075064,45.480497],[-123.074455,45.480395],[-123.073923,45.480427],[-123.07351,45.480382],[-123.071519,45.479827],[-123.070426,45.479358],[-123.070438,45.479243],[-123.070505,45.479147],[-123.070919,45.478798],[-123.070978,45.478652],[-123.070943,45.478464],[-123.070955,45.478327],[-123.071006,45.478229],[-123.071407,45.47786],[-123.071806,45.4777],[-123.072496,45.477534],[-123.072942,45.4775],[-123.073075,45.477408],[-123.073132,45.476853],[-123.073486,45.476228],[-123.073877,45.475867],[-123.074044,45.475798],[-123.074312,45.475757],[-123.074376,45.475657],[-123.074336,45.475496],[-123.074345,45.475361],[-123.074411,45.475245],[-123.074591,45.47508],[-123.07503,45.474808],[-123.075102,45.474708],[-123.075102,45.474616],[-123.074996,45.474342],[-123.075028,45.473972],[-123.07481,45.473963],[-123.074674,45.473858],[-123.074545,45.473664],[-123.074203,45.473396],[-123.074019,45.473312],[-123.073472,45.473213],[-123.073102,45.473363],[-123.072448,45.473898],[-123.072126,45.474016],[-123.071748,45.47408],[-123.071303,45.474098],[-123.069257,45.474047],[-123.06868,45.473985],[-123.068254,45.473864],[-123.06796,45.473674],[-123.067321,45.473461],[-123.067194,45.47338],[-123.067148,45.473287],[-123.067166,45.473033],[-123.067249,45.472777],[-123.067616,45.472259],[-123.06757,45.472162],[-123.067036,45.471898],[-123.066811,45.471887],[-123.06631,45.47198],[-123.065882,45.471942],[-123.0655,45.47199],[-123.064883,45.47199],[-123.064059,45.471887],[-123.063717,45.471776],[-123.063643,45.47168],[-123.063667,45.471551],[-123.06468,45.470279],[-123.065023,45.469657],[-123.06507,45.469485],[-123.06504,45.4692],[-123.065099,45.468615],[-123.065177,45.468404],[-123.065429,45.468075],[-123.065272,45.46793],[-123.065386,45.467835],[-123.06594,45.467636],[-123.066,45.467555],[-123.065844,45.467506],[-123.065377,45.467517],[-123.065192,45.467482],[-123.065164,45.467327],[-123.065231,45.467172],[-123.0652,45.467053],[-123.065014,45.467077],[-123.064436,45.467348],[-123.064103,45.467422],[-123.063758,45.467825],[-123.06342,45.46808],[-123.063116,45.468221],[-123.062625,45.468312],[-123.062043,45.468226],[-123.061691,45.468092],[-123.061423,45.467888],[-123.061246,45.467658],[-123.061145,45.46737],[-123.060957,45.467323],[-123.060802,45.467366],[-123.06062,45.467561],[-123.060369,45.468117],[-123.060152,45.468475],[-123.060045,45.46857],[-123.059911,45.468625],[-123.059758,45.468599],[-123.059641,45.468501],[-123.05953,45.468301],[-123.059337,45.467869],[-123.059197,45.467393],[-123.059118,45.467306],[-123.058974,45.467302],[-123.058579,45.467396],[-123.058403,45.467376],[-123.058257,45.4673],[-123.057925,45.46695],[-123.057762,45.466595],[-123.057678,45.466521],[-123.057377,45.46642],[-123.057082,45.466187],[-123.056947,45.465892],[-123.056851,45.465801],[-123.056799,45.465689],[-123.056781,45.46556],[-123.056821,45.465435],[-123.056679,45.465499],[-123.056605,45.465598],[-123.056445,45.46614],[-123.056434,45.466276],[-123.056526,45.466651],[-123.05653,45.466806],[-123.056487,45.467077],[-123.056167,45.468169],[-123.056169,45.468542],[-123.056331,45.469059],[-123.056275,45.469284],[-123.056192,45.469411],[-123.055891,45.469678],[-123.055757,45.469727],[-123.055643,45.469561],[-123.05548,45.469539],[-123.055355,45.46966],[-123.055185,45.469652],[-123.054587,45.469267],[-123.054419,45.469212],[-123.054263,45.469265],[-123.054072,45.469389],[-123.053869,45.469299],[-123.053637,45.469063],[-123.053413,45.468604],[-123.053302,45.468283],[-123.053147,45.468208],[-123.05247,45.468217],[-123.052412,45.468299],[-123.052437,45.468558],[-123.052349,45.46897],[-123.052321,45.469509],[-123.052147,45.470013],[-123.051956,45.470378],[-123.051618,45.470708],[-123.051472,45.471262],[-123.051168,45.471651],[-123.050988,45.471822],[-123.05074,45.471927],[-123.050426,45.471914],[-123.049851,45.471764],[-123.049699,45.471769],[-123.049363,45.471853],[-123.049237,45.471918],[-123.048925,45.472194],[-123.048653,45.472517],[-123.048607,45.472618],[-123.048639,45.472938],[-123.048609,45.473062],[-123.048521,45.473201],[-123.048089,45.473539],[-123.047902,45.473581],[-123.047789,45.473514],[-123.047657,45.47334],[-123.047407,45.473105],[-123.046933,45.472116],[-123.046608,45.471669],[-123.046486,45.471227],[-123.046356,45.471031],[-123.046261,45.470943],[-123.045911,45.470849],[-123.045819,45.470764],[-123.045624,45.470382],[-123.045543,45.4703],[-123.045391,45.470193],[-123.045158,45.470135],[-123.045021,45.470236],[-123.044863,45.470606],[-123.04455,45.4711],[-123.044263,45.471689],[-123.044155,45.471831],[-123.043736,45.47219],[-123.043432,45.472335],[-123.043151,45.472387],[-123.04229,45.472233],[-123.041337,45.472114],[-123.041112,45.472042],[-123.040885,45.471912],[-123.040333,45.471456],[-123.040174,45.471364],[-123.039752,45.471234],[-123.039623,45.471161],[-123.039327,45.470802],[-123.039181,45.470704],[-123.039126,45.470897],[-123.03905,45.471009],[-123.038377,45.471365],[-123.037618,45.471613],[-123.037321,45.47166],[-123.037102,45.471655],[-123.036467,45.47154],[-123.035864,45.471308],[-123.035636,45.471184],[-123.035069,45.471019],[-123.034478,45.470759],[-123.033729,45.470627],[-123.033465,45.470528],[-123.033223,45.470233],[-123.033049,45.470092],[-123.032999,45.469988],[-123.033071,45.469783],[-123.033306,45.469492],[-123.033377,45.469325],[-123.0333,45.469243],[-123.032887,45.469242],[-123.032631,45.46927],[-123.032394,45.469352],[-123.031986,45.469381],[-123.031798,45.469349],[-123.031397,45.469174],[-123.031244,45.469172],[-123.031159,45.469304],[-123.031146,45.469804],[-123.031199,45.4704],[-123.030983,45.470788],[-123.030784,45.470967],[-123.030388,45.471076],[-123.030069,45.471034],[-123.029354,45.470564],[-123.029248,45.470634],[-123.029021,45.471113],[-123.028973,45.47146],[-123.028841,45.471692],[-123.028524,45.471848],[-123.028142,45.471956],[-123.027909,45.471958],[-123.027692,45.471899],[-123.027344,45.471748],[-123.027219,45.471639],[-123.02693,45.471299],[-123.026827,45.471124],[-123.026782,45.470702],[-123.026673,45.470399],[-123.026515,45.470334],[-123.026101,45.470588],[-123.025937,45.47065],[-123.024558,45.470971],[-123.024013,45.470957],[-123.023554,45.470826],[-123.023357,45.470805],[-123.023179,45.47082],[-123.021892,45.471195],[-123.021571,45.471224],[-123.021135,45.471195],[-123.020855,45.471127],[-123.020403,45.470932],[-123.019552,45.470747],[-123.019329,45.470636],[-123.019172,45.470425],[-123.019188,45.470215],[-123.019374,45.469714],[-123.019379,45.469276],[-123.019709,45.467794],[-123.019681,45.467627],[-123.019588,45.467491],[-123.019065,45.467111],[-123.018972,45.466938],[-123.018976,45.466689],[-123.019358,45.466011],[-123.019328,45.465868],[-123.019185,45.465678],[-123.019158,45.46555],[-123.01919,45.465417],[-123.019314,45.465236],[-123.019509,45.465043],[-123.019955,45.464749],[-123.020164,45.46472],[-123.020602,45.464812],[-123.02125,45.46488],[-123.02192,45.46445],[-123.022805,45.463678],[-123.023367,45.463282],[-123.023424,45.463188],[-123.023225,45.463134],[-123.022913,45.463203],[-123.021805,45.463863],[-123.021397,45.464011],[-123.021176,45.46403],[-123.020862,45.46397],[-123.020213,45.463674],[-123.019257,45.463408],[-123.019115,45.463492],[-123.01894,45.463677],[-123.018787,45.463758],[-123.01818,45.463896],[-123.017745,45.464103],[-123.017454,45.464184],[-123.01681,45.464446],[-123.016645,45.464474],[-123.016434,45.464457],[-123.016251,45.464395],[-123.015945,45.464177],[-123.015792,45.46412],[-123.015649,45.464208],[-123.015323,45.464661],[-123.015207,45.464744],[-123.015023,45.464732],[-123.01463,45.464572],[-123.013792,45.464447],[-123.013697,45.464554],[-123.01377,45.464844],[-123.013697,45.46497],[-123.013012,45.465232],[-123.012864,45.465238],[-123.01275,45.46515],[-123.012576,45.464876],[-123.012335,45.464755],[-123.011482,45.464799],[-123.010622,45.464558],[-123.010513,45.464449],[-123.01051,45.46434],[-123.010647,45.463706],[-123.010581,45.463561],[-123.010243,45.463086],[-123.009978,45.462787],[-123.009812,45.462738],[-123.009613,45.462741],[-123.008954,45.462946],[-123.00839,45.463045],[-123.008239,45.462984],[-123.007936,45.462607],[-123.007811,45.462488],[-123.007696,45.462435],[-123.007552,45.462424],[-123.007276,45.462471],[-123.007062,45.462447],[-123.006969,45.462346],[-123.006947,45.462216],[-123.007094,45.461661],[-123.007042,45.461562],[-123.006776,45.461414],[-123.006472,45.461332],[-123.005921,45.461298],[-123.005309,45.461487],[-123.004921,45.461511],[-123.004748,45.461473],[-123.004264,45.461199],[-123.003672,45.461192],[-123.0035,45.46111],[-123.00312,45.460693],[-123.002845,45.460175],[-123.002747,45.460096],[-123.002611,45.460061],[-123.002449,45.460073],[-123.001771,45.460173],[-123.001235,45.460102],[-123.000693,45.459976],[-123.000015,45.459611],[-122.999387,45.459361],[-122.998686,45.459002],[-122.99818,45.458568],[-122.997525,45.457777],[-122.997073,45.456869],[-122.996894,45.455786],[-122.996821,45.455556],[-122.996817,45.455232],[-122.996894,45.454826],[-122.996861,45.454455],[-122.997003,45.453952],[-122.997535,45.453204],[-122.997679,45.453114],[-122.998109,45.452966],[-122.998548,45.452715],[-122.998753,45.452666],[-122.999105,45.452722],[-122.999328,45.452883],[-122.999451,45.452923],[-123.000015,45.453013],[-123.000241,45.452951],[-123.000747,45.452564],[-123.001185,45.452381],[-123.001323,45.452358],[-123.001506,45.452385],[-123.001851,45.452571],[-123.002021,45.452706],[-123.002319,45.453047],[-123.002648,45.453195],[-123.002714,45.453292],[-123.002788,45.453673],[-123.002877,45.453791],[-123.003093,45.453785],[-123.003512,45.453591],[-123.003891,45.453629],[-123.004071,45.453597],[-123.004202,45.453616],[-123.004667,45.453961],[-123.004962,45.454015],[-123.005531,45.454],[-123.006074,45.45416],[-123.006235,45.454158],[-123.006539,45.453975],[-123.006728,45.453816],[-123.006946,45.453767],[-123.007147,45.453777],[-123.007647,45.454016],[-123.008131,45.45414],[-123.008228,45.454223],[-123.008248,45.45504],[-123.008183,45.45551],[-123.008213,45.455625],[-123.008556,45.455563],[-123.008941,45.455434],[-123.009129,45.455432],[-123.009298,45.455508],[-123.009535,45.455698],[-123.009886,45.456149],[-123.01012,45.456352],[-123.010552,45.456022],[-123.01057,45.455921],[-123.010521,45.455643],[-123.010554,45.455443],[-123.0107,45.455225],[-123.010942,45.455082],[-123.011151,45.454848],[-123.011227,45.454653],[-123.011277,45.45414],[-123.011382,45.453894],[-123.011565,45.453723],[-123.011684,45.453659],[-123.012556,45.453452],[-123.012793,45.453506],[-123.012922,45.453636],[-123.013241,45.454324],[-123.013508,45.454698],[-123.013618,45.454791],[-123.013752,45.454818],[-123.013998,45.454798],[-123.014652,45.454942],[-123.01477,45.455064],[-123.014957,45.45541],[-123.015085,45.45556],[-123.015479,45.455894],[-123.015572,45.455824],[-123.01554,45.455534],[-123.015642,45.45542],[-123.015857,45.455413],[-123.016205,45.455511],[-123.016407,45.455517],[-123.016479,45.45541],[-123.016419,45.455317],[-123.016065,45.454997],[-123.015967,45.454833],[-123.015857,45.454374],[-123.015896,45.454248],[-123.016039,45.454167],[-123.01647,45.454209],[-123.016629,45.454161],[-123.016751,45.454043],[-123.016807,45.453834],[-123.016739,45.453234],[-123.016756,45.452993],[-123.016955,45.452587],[-123.017174,45.45246],[-123.017335,45.452425],[-123.01763,45.452403],[-123.017802,45.45245],[-123.018066,45.452719],[-123.018241,45.452801],[-123.019753,45.45291],[-123.020348,45.453085],[-123.021119,45.453497],[-123.021198,45.453593],[-123.021195,45.453708],[-123.021116,45.45388],[-123.021117,45.454024],[-123.021594,45.453977],[-123.022146,45.453801],[-123.022522,45.453844],[-123.022981,45.453805],[-123.023119,45.453743],[-123.023252,45.453579],[-123.023416,45.453494],[-123.02389,45.453557],[-123.024269,45.453677],[-123.024573,45.453625],[-123.025073,45.453727],[-123.025226,45.453654],[-123.025128,45.453134],[-123.025019,45.452966],[-123.024983,45.452823],[-123.025054,45.452504],[-123.025029,45.452366],[-123.024828,45.45222],[-123.024535,45.452145],[-123.024395,45.452058],[-123.024374,45.451947],[-123.024665,45.451451],[-123.02478,45.450904],[-123.025457,45.450347],[-123.025624,45.450317],[-123.026047,45.450371],[-123.026441,45.450361],[-123.026995,45.450465],[-123.027205,45.450438],[-123.027099,45.450183],[-123.027099,45.449963],[-123.027147,45.449831],[-123.027271,45.449689],[-123.027316,45.449552],[-123.027297,45.449378],[-123.027327,45.449261],[-123.027457,45.449084],[-123.027602,45.448962],[-123.027531,45.44879],[-123.027541,45.448699],[-123.027771,45.448545],[-123.028215,45.448392],[-123.028367,45.448141],[-123.028392,45.448035],[-123.028294,45.447699],[-123.028297,45.447583],[-123.028399,45.447491],[-123.028771,45.447378],[-123.029006,45.447346],[-123.029146,45.447221],[-123.029266,45.447179],[-123.02965,45.44719],[-123.030385,45.44712],[-123.030697,45.447191],[-123.031011,45.447193],[-123.030745,45.44681],[-123.03069,45.446611],[-123.030716,45.446495],[-123.030863,45.446192],[-123.030962,45.445832],[-123.031173,45.44531],[-123.031269,45.445212],[-123.031723,45.444927],[-123.031731,45.444805],[-123.031595,45.444767],[-123.031315,45.444761],[-123.030981,45.444805],[-123.030465,45.44512],[-123.030266,45.445465],[-123.03004,45.445702],[-123.029632,45.445928],[-123.028903,45.446157],[-123.028739,45.446163],[-123.028375,45.446078],[-123.027865,45.446161],[-123.027574,45.446123],[-123.027384,45.44603],[-123.027206,45.445813],[-123.027046,45.445721],[-123.027014,45.44593],[-123.026891,45.445993],[-123.026624,45.446011],[-123.02643,45.44607],[-123.026255,45.446245],[-123.025992,45.446426],[-123.025494,45.446514],[-123.024865,45.446743],[-123.02468,45.446732],[-123.024365,45.446577],[-123.024169,45.446431],[-123.023967,45.44638],[-123.023857,45.446312],[-123.023734,45.44616],[-123.023582,45.446085],[-123.023426,45.446061],[-123.023242,45.446078],[-123.023079,45.446148],[-123.022795,45.446375],[-123.022556,45.44647],[-123.02224,45.44648],[-123.02208,45.446415],[-123.022001,45.446267],[-123.022062,45.445729],[-123.021952,45.445511],[-123.021679,45.445175],[-123.021646,45.444952],[-123.02167,45.44483],[-123.021869,45.444462],[-123.021982,45.444348],[-123.022216,45.444229],[-123.022563,45.443975],[-123.023087,45.443553],[-123.023608,45.443234],[-123.02377,45.443101],[-123.023958,45.442844],[-123.023982,45.442756],[-123.022493,45.443279],[-123.022342,45.443292],[-123.022133,45.443209],[-123.021735,45.443373],[-123.021047,45.443347],[-123.020494,45.443462],[-123.019895,45.443642],[-123.019589,45.443794],[-123.019279,45.44388],[-123.019129,45.443956],[-123.018898,45.444146],[-123.018067,45.444433],[-123.01787,45.444448],[-123.017431,45.444403],[-123.017262,45.444453],[-123.01682,45.444726],[-123.016639,45.444797],[-123.016006,45.444889],[-123.015846,45.444952],[-123.015708,45.445061],[-123.015481,45.445338],[-123.015367,45.445408],[-123.015245,45.44538],[-123.014839,45.445129],[-123.014428,45.445062],[-123.014289,45.444995],[-123.014053,45.444636],[-123.013865,45.444528],[-123.01368,45.444514],[-123.012986,45.444711],[-123.012833,45.444683],[-123.01232,45.444471],[-123.012219,45.444337],[-123.012151,45.444075],[-123.012035,45.443962],[-123.011878,45.443966],[-123.01167,45.444049],[-123.011504,45.444068],[-123.011017,45.444018],[-123.01086,45.443944],[-123.010803,45.44377],[-123.010851,45.44272],[-123.010932,45.442423],[-123.011055,45.442283],[-123.011192,45.442209],[-123.011326,45.442207],[-123.011812,45.442318],[-123.0128,45.442416],[-123.012971,45.442376],[-123.013212,45.442157],[-123.013384,45.44212],[-123.013784,45.442114],[-123.014102,45.441966],[-123.014139,45.441707],[-123.014226,45.441575],[-123.014351,45.441482],[-123.014499,45.441458],[-123.015122,45.441696],[-123.015318,45.441738],[-123.015613,45.441647],[-123.0162,45.441272],[-123.016539,45.441148],[-123.017025,45.44119],[-123.017218,45.441172],[-123.017386,45.44109],[-123.017625,45.440847],[-123.018199,45.440673],[-123.018491,45.440441],[-123.018555,45.440337],[-123.018625,45.439826],[-123.018789,45.439384],[-123.018941,45.439129],[-123.019036,45.439036],[-123.019591,45.43882],[-123.020012,45.438592],[-123.020589,45.438192],[-123.020653,45.438082],[-123.020196,45.438181],[-123.019958,45.438277],[-123.019566,45.438363],[-123.019146,45.438533],[-123.018471,45.438702],[-123.018074,45.438951],[-123.017842,45.439171],[-123.017466,45.439657],[-123.017376,45.439721],[-123.017247,45.439753],[-123.016906,45.439732],[-123.016722,45.439681],[-123.016279,45.439393],[-123.015679,45.439126],[-123.015618,45.439024],[-123.015514,45.438633],[-123.0156,45.438514],[-123.015928,45.438333],[-123.016462,45.437481],[-123.016743,45.437275],[-123.016838,45.43713],[-123.016884,45.437008],[-123.016894,45.436816],[-123.017057,45.436346],[-123.017167,45.436141],[-123.018089,45.435703],[-123.018363,45.435396],[-123.018451,45.435223],[-123.018517,45.434867],[-123.018496,45.434592],[-123.018168,45.434352],[-123.018003,45.43394],[-123.017752,45.43351],[-123.017675,45.433597],[-123.017503,45.433999],[-123.017376,45.434551],[-123.017241,45.434752],[-123.016817,45.435035],[-123.016169,45.435211],[-123.0156,45.435437],[-123.01485,45.435537],[-123.014531,45.435472],[-123.014018,45.435484],[-123.013541,45.43534],[-123.013091,45.435369],[-123.012775,45.435484],[-123.012598,45.435497],[-123.011996,45.43568],[-123.011761,45.435673],[-123.011504,45.43573],[-123.011332,45.435729],[-123.010776,45.435554],[-123.010287,45.435548],[-123.010092,45.43549],[-123.010017,45.435396],[-123.00975,45.434927],[-123.009717,45.434762],[-123.009873,45.434329],[-123.00979,45.434066],[-123.009776,45.433867],[-123.009909,45.433358],[-123.01031,45.432874],[-123.010319,45.432761],[-123.01014,45.43233],[-123.009954,45.432174],[-123.009753,45.432116],[-123.008903,45.432086],[-123.008642,45.431978],[-123.008349,45.431749],[-123.008208,45.431463],[-123.008194,45.431334],[-123.008257,45.430647],[-123.008289,45.430542],[-123.008542,45.430166],[-123.00854,45.430037],[-123.008407,45.429927],[-123.008214,45.429871],[-123.00698,45.429813],[-123.006722,45.42971],[-123.006498,45.429506],[-123.006439,45.429393],[-123.006506,45.429083],[-123.00634,45.428529],[-123.006279,45.42835],[-123.005746,45.427389],[-123.005589,45.426821],[-123.005585,45.42665],[-123.005728,45.426373],[-123.005773,45.426164],[-123.005858,45.426029],[-123.006096,45.425833],[-123.006428,45.425692],[-123.006862,45.425645],[-123.007717,45.425447],[-123.007847,45.425405],[-123.008198,45.42519],[-123.008008,45.425098],[-123.007606,45.424813],[-123.007486,45.42469],[-123.007424,45.424555],[-123.007417,45.424324],[-123.007629,45.424019],[-123.007687,45.423757],[-123.007611,45.423634],[-123.007437,45.423494],[-123.00728,45.42324],[-123.007122,45.423188],[-123.006684,45.423142],[-123.006285,45.423035],[-123.00587,45.423018],[-123.005581,45.423041],[-123.004925,45.423201],[-123.00454,45.423192],[-123.004349,45.423131],[-123.004129,45.422966],[-123.003891,45.42276],[-123.003838,45.422654],[-123.003838,45.422537],[-123.003988,45.422422],[-123.004536,45.422473],[-123.005029,45.422372],[-123.005227,45.422285],[-123.005707,45.421795],[-123.005851,45.421709],[-123.006486,45.421534],[-123.006725,45.42142],[-123.006875,45.421199],[-123.006889,45.421069],[-123.006785,45.420969],[-123.005698,45.42078],[-123.005363,45.42067],[-123.005231,45.420573],[-123.004948,45.420127],[-123.004679,45.419968],[-123.004627,45.419846],[-123.004671,45.419403],[-123.004831,45.419004],[-123.003115,45.418968],[-123.002995,45.418682],[-123.00301,45.418585],[-123.003206,45.418341],[-123.003427,45.418211],[-123.003777,45.418081],[-123.00398,45.417814],[-123.004233,45.417723],[-123.004496,45.417534],[-123.004856,45.417395],[-123.005259,45.417159],[-123.005752,45.417009],[-123.006387,45.416972],[-123.006936,45.41699],[-123.006988,45.416938],[-123.006983,45.416853],[-123.006903,45.416731],[-123.006262,45.416509],[-123.005941,45.416465],[-123.005335,45.416477],[-123.00506,45.416547],[-123.003456,45.416688],[-123.002891,45.416778],[-123.002755,45.416692],[-123.002561,45.416243],[-123.002381,45.41605],[-123.002095,45.41655],[-123.001809,45.416749],[-123.001253,45.416884],[-123.000607,45.417139],[-122.999996,45.417118],[-122.999729,45.417144],[-122.998759,45.417516],[-122.998658,45.417519],[-122.998616,45.417466],[-122.998626,45.417369],[-122.99893,45.416954],[-122.999039,45.416657],[-122.998935,45.416282],[-122.998743,45.416084],[-122.9987,45.415984],[-122.998769,45.415278],[-122.9989,45.415099],[-122.999385,45.414792],[-122.99951,45.414673],[-122.999689,45.41426],[-122.999938,45.41396],[-122.999992,45.413766],[-122.999954,45.413725],[-122.999318,45.414081],[-122.998724,45.414505],[-122.998085,45.414798],[-122.997951,45.41514],[-122.997721,45.415336],[-122.997529,45.415415],[-122.997245,45.415419],[-122.997135,45.415484],[-122.996463,45.416186],[-122.996285,45.416534],[-122.995795,45.41718],[-122.995707,45.417505],[-122.995635,45.417588],[-122.995126,45.417787],[-122.994567,45.417817],[-122.994316,45.4179],[-122.993683,45.418383],[-122.993349,45.418576],[-122.992694,45.419219],[-122.992405,45.419427],[-122.992213,45.419441],[-122.991492,45.419186],[-122.991434,45.419076],[-122.991459,45.418932],[-122.991728,45.418755],[-122.991828,45.41858],[-122.992028,45.418425],[-122.992093,45.418278],[-122.992065,45.418135],[-122.991821,45.417924],[-122.991799,45.417734],[-122.992169,45.417401],[-122.992576,45.41693],[-122.992565,45.416869],[-122.992495,45.416803],[-122.992026,45.416613],[-122.991944,45.416466],[-122.992029,45.41636],[-122.992453,45.416122],[-122.992531,45.416044],[-122.992552,45.4159],[-122.992432,45.415713],[-122.992424,45.41564],[-122.992699,45.415364],[-122.992775,45.41522],[-122.992768,45.414974],[-122.99261,45.414767],[-122.992556,45.414473],[-122.99238,45.41413],[-122.9924,45.414],[-122.992555,45.413722],[-122.992585,45.413529],[-122.992567,45.413326],[-122.992449,45.413114],[-122.992435,45.413019],[-122.992615,45.412559],[-122.992567,45.412296],[-122.992591,45.412139],[-122.992832,45.411846],[-122.992952,45.411329],[-122.993133,45.411119],[-122.99331,45.410834],[-122.993489,45.41041],[-122.993525,45.410018],[-122.993618,45.409586],[-122.993612,45.40947],[-122.993567,45.409427],[-122.993409,45.40945],[-122.993285,45.409549],[-122.993159,45.40974],[-122.993087,45.410102],[-122.992611,45.410731],[-122.992446,45.410832],[-122.992109,45.410909],[-122.991955,45.411035],[-122.991913,45.41114],[-122.991948,45.411439],[-122.991753,45.411885],[-122.991612,45.412063],[-122.991243,45.412311],[-122.991018,45.412827],[-122.990621,45.413366],[-122.990207,45.413726],[-122.989733,45.414033],[-122.988805,45.414583],[-122.988101,45.414889],[-122.987759,45.415275],[-122.987213,45.415677],[-122.986973,45.415802],[-122.986768,45.415827],[-122.986551,45.415743],[-122.986438,45.415587],[-122.986363,45.415063],[-122.986193,45.414674],[-122.9863,45.414352],[-122.986196,45.414071],[-122.986159,45.413787],[-122.98609,45.413688],[-122.985836,45.413631],[-122.98574,45.413545],[-122.98573,45.413399],[-122.985837,45.413086],[-122.985811,45.412951],[-122.985678,45.412693],[-122.985735,45.412422],[-122.985691,45.412355],[-122.985471,45.412197],[-122.985278,45.411778],[-122.985276,45.411609],[-122.98537,45.411249],[-122.9856,45.411024],[-122.985635,45.410925],[-122.985489,45.410497],[-122.985333,45.410234],[-122.98529,45.410082],[-122.985361,45.409548],[-122.985579,45.408887],[-122.985564,45.408654],[-122.985484,45.408533],[-122.985412,45.40853],[-122.985213,45.408725],[-122.985175,45.409113],[-122.985007,45.409417],[-122.984844,45.409861],[-122.984743,45.410005],[-122.984539,45.410143],[-122.984647,45.410471],[-122.984599,45.410564],[-122.984407,45.410688],[-122.984501,45.410967],[-122.984457,45.411172],[-122.98434,45.411383],[-122.984156,45.411611],[-122.98387,45.41184],[-122.98388,45.411906],[-122.984037,45.412077],[-122.984088,45.412192],[-122.984084,45.412404],[-122.984029,45.412611],[-122.983912,45.412771],[-122.98349,45.413157],[-122.983117,45.413255],[-122.98307,45.413294],[-122.983117,45.41364],[-122.982905,45.413917],[-122.982892,45.414267],[-122.982671,45.414739],[-122.982684,45.414854],[-122.982805,45.415123],[-122.982809,45.415264],[-122.982747,45.415351],[-122.982437,45.415548],[-122.982316,45.415884],[-122.982026,45.416077],[-122.982001,45.416219],[-122.982083,45.416513],[-122.982031,45.416622],[-122.981716,45.416823],[-122.981236,45.417003],[-122.981069,45.417323],[-122.980705,45.417522],[-122.980119,45.418056],[-122.979604,45.418222],[-122.979163,45.418432],[-122.978457,45.418486],[-122.97818,45.418612],[-122.978107,45.418734],[-122.978143,45.419539],[-122.978121,45.419669],[-122.977939,45.419913],[-122.977642,45.420073],[-122.977366,45.42008],[-122.976933,45.419982],[-122.976408,45.419796],[-122.975296,45.419645],[-122.975046,45.419499],[-122.974599,45.41906],[-122.974559,45.418885],[-122.974693,45.418726],[-122.974675,45.418516],[-122.974843,45.418291],[-122.975109,45.418112],[-122.975501,45.418004],[-122.975793,45.417814],[-122.975985,45.417736],[-122.976316,45.417692],[-122.976468,45.417714],[-122.976921,45.417938],[-122.97719,45.418171],[-122.977318,45.418233],[-122.977478,45.418242],[-122.977762,45.418183],[-122.978079,45.417939],[-122.978179,45.417816],[-122.978184,45.417705],[-122.97807,45.41747],[-122.978153,45.41725],[-122.978161,45.417032],[-122.978544,45.416423],[-122.978674,45.416335],[-122.978859,45.416285],[-122.979746,45.416182],[-122.979899,45.416081],[-122.979917,45.415929],[-122.979834,45.415813],[-122.9796,45.415691],[-122.979177,45.415558],[-122.978825,45.415386],[-122.978387,45.41533],[-122.978012,45.415134],[-122.977582,45.41508],[-122.977374,45.415123],[-122.977042,45.41528],[-122.976882,45.415222],[-122.976828,45.415125],[-122.976781,45.414876],[-122.976493,45.414451],[-122.976492,45.414344],[-122.976591,45.414132],[-122.976603,45.414014],[-122.976417,45.413641],[-122.976351,45.413343],[-122.976392,45.4132],[-122.976698,45.412846],[-122.976726,45.41264],[-122.976679,45.412479],[-122.976507,45.412309],[-122.976191,45.412241],[-122.975708,45.412343],[-122.975444,45.41234],[-122.975265,45.412244],[-122.975192,45.412125],[-122.975217,45.412017],[-122.975446,45.411778],[-122.975542,45.411556],[-122.975647,45.411413],[-122.975782,45.411299],[-122.976107,45.411129],[-122.976197,45.411038],[-122.976222,45.410873],[-122.976095,45.410601],[-122.975877,45.410421],[-122.975598,45.410325],[-122.974861,45.410473],[-122.9745,45.410404],[-122.974004,45.41044],[-122.973788,45.410356],[-122.973693,45.410226],[-122.973633,45.410048],[-122.973633,45.40994],[-122.973682,45.409819],[-122.97381,45.409719],[-122.974273,45.409607],[-122.974482,45.409503],[-122.974588,45.40935],[-122.974602,45.409219],[-122.97457,45.409143],[-122.97436,45.409033],[-122.973779,45.409016],[-122.973439,45.408945],[-122.972731,45.409014],[-122.97235,45.408864],[-122.972288,45.408765],[-122.972278,45.408625],[-122.972465,45.408329],[-122.972478,45.408245],[-122.972223,45.407971],[-122.972198,45.407841],[-122.972225,45.407612],[-122.972121,45.407358],[-122.97226,45.407215],[-122.972694,45.407009],[-122.972743,45.406931],[-122.972722,45.406852],[-122.972585,45.406748],[-122.972044,45.406545],[-122.971958,45.406447],[-122.971825,45.406134],[-122.971603,45.406],[-122.971463,45.40601],[-122.971328,45.406074],[-122.970997,45.406411],[-122.97084,45.406511],[-122.970742,45.406535],[-122.970584,45.40648],[-122.970457,45.406532],[-122.970556,45.406132],[-122.970508,45.405786],[-122.970207,45.40547],[-122.96967,45.405038],[-122.969571,45.404863],[-122.969597,45.404721],[-122.970061,45.404371],[-122.971006,45.404029],[-122.971606,45.403538],[-122.972188,45.403419],[-122.972296,45.403269],[-122.972328,45.402917],[-122.97257,45.402723],[-122.973096,45.402458],[-122.973722,45.402265],[-122.974969,45.401505],[-122.975962,45.401118],[-122.975955,45.401055],[-122.975809,45.400979],[-122.974793,45.400683],[-122.974463,45.400628],[-122.974092,45.400678],[-122.973988,45.400632],[-122.97392,45.400534],[-122.973909,45.400403],[-122.974153,45.399923],[-122.974236,45.399512],[-122.974531,45.399208],[-122.975056,45.398783],[-122.975625,45.398573],[-122.975959,45.398359],[-122.976344,45.398248],[-122.976439,45.398171],[-122.976579,45.397957],[-122.976972,45.397782],[-122.977231,45.397478],[-122.97742,45.397343],[-122.97754,45.397158],[-122.977966,45.39678],[-122.978606,45.396087],[-122.978942,45.39581],[-122.979508,45.395493],[-122.979722,45.395416],[-122.980608,45.395315],[-122.981107,45.395399],[-122.981501,45.395336],[-122.982089,45.395397],[-122.982442,45.395593],[-122.98251,45.395722],[-122.982547,45.395967],[-122.982759,45.396117],[-122.982784,45.396239],[-122.982696,45.396477],[-122.982718,45.396571],[-122.983017,45.396495],[-122.98337,45.396607],[-122.983418,45.396535],[-122.983297,45.396273],[-122.983321,45.39612],[-122.983496,45.395841],[-122.983759,45.39566],[-122.983896,45.395422],[-122.984164,45.395151],[-122.984825,45.394838],[-122.984988,45.394876],[-122.985509,45.39514],[-122.98568,45.395132],[-122.98574,45.395086],[-122.98576,45.395018],[-122.985544,45.394658],[-122.985532,45.394522],[-122.985581,45.394437],[-122.985754,45.394377],[-122.986261,45.394326],[-122.986733,45.394049],[-122.986985,45.393957],[-122.987061,45.393834],[-122.98762,45.393476],[-122.98783,45.393452],[-122.988202,45.393562],[-122.988512,45.393561],[-122.988755,45.393609],[-122.989093,45.393538],[-122.989464,45.393646],[-122.989812,45.393638],[-122.990107,45.393678],[-122.990853,45.39363],[-122.991562,45.393752],[-122.991921,45.393738],[-122.992228,45.39386],[-122.992261,45.393793],[-122.992081,45.393525],[-122.992077,45.393371],[-122.99216,45.393356],[-122.992466,45.393459],[-122.992301,45.393278],[-122.991897,45.393059],[-122.991491,45.392735],[-122.991425,45.392629],[-122.991443,45.392435],[-122.991207,45.392297],[-122.991116,45.392302],[-122.990795,45.392435],[-122.990587,45.392453],[-122.990233,45.392332],[-122.989981,45.392312],[-122.98977,45.392223],[-122.989201,45.392131],[-122.987995,45.392038],[-122.987142,45.391927],[-122.986552,45.391704],[-122.986114,45.391585],[-122.985819,45.391312],[-122.985701,45.391066],[-122.985427,45.390872],[-122.985273,45.390713],[-122.985164,45.39056],[-122.985133,45.390354],[-122.984742,45.390021],[-122.984619,45.389787],[-122.984487,45.389662],[-122.984385,45.389388],[-122.984214,45.389144],[-122.984084,45.38876],[-122.984046,45.388534],[-122.983918,45.388332],[-122.983695,45.388364],[-122.983517,45.388292],[-122.983415,45.388331],[-122.983392,45.388378],[-122.983634,45.389204],[-122.983643,45.389574],[-122.983603,45.39008],[-122.983934,45.390661],[-122.984079,45.391098],[-122.984303,45.391534],[-122.984307,45.392106],[-122.984231,45.392218],[-122.984028,45.392381],[-122.9831,45.392858],[-122.982879,45.392946],[-122.982689,45.392969],[-122.982024,45.392963],[-122.980873,45.392755],[-122.979887,45.392648],[-122.979785,45.39261],[-122.97964,45.392487],[-122.979083,45.392332],[-122.978971,45.392375],[-122.978966,45.392557],[-122.978902,45.392654],[-122.978353,45.392796],[-122.978107,45.392805],[-122.977405,45.392651],[-122.977213,45.392654],[-122.977146,45.392744],[-122.977111,45.393062],[-122.976954,45.393238],[-122.976134,45.393704],[-122.975945,45.393761],[-122.975458,45.393805],[-122.974933,45.394069],[-122.974157,45.394629],[-122.97393,45.394851],[-122.973595,45.39509],[-122.973322,45.395369],[-122.972905,45.395646],[-122.972649,45.395697],[-122.97232,45.395563],[-122.972206,45.395561],[-122.972169,45.395637],[-122.972166,45.395876],[-122.972088,45.39599],[-122.971028,45.396789],[-122.970399,45.397208],[-122.969565,45.397913],[-122.969063,45.398158],[-122.968739,45.398253],[-122.968412,45.398304],[-122.96788,45.398305],[-122.96769,45.398217],[-122.967382,45.397855],[-122.96726,45.39725],[-122.967153,45.397053],[-122.967002,45.396947],[-122.966587,45.396789],[-122.966136,45.396455],[-122.966034,45.396344],[-122.96576,45.395882],[-122.96567,45.395506],[-122.965528,45.395154],[-122.965457,45.394695],[-122.965366,45.394427],[-122.965325,45.393808],[-122.965518,45.393495],[-122.965425,45.393248],[-122.965442,45.39314],[-122.965717,45.392941],[-122.965867,45.392652],[-122.966469,45.39219],[-122.966923,45.391616],[-122.966983,45.391434],[-122.966921,45.391419],[-122.966632,45.39149],[-122.966182,45.391794],[-122.965962,45.39189],[-122.964981,45.392068],[-122.964289,45.392284],[-122.963972,45.392273],[-122.963386,45.392027],[-122.963001,45.39159],[-122.962525,45.391202],[-122.962236,45.390816],[-122.961824,45.390389],[-122.961715,45.390225],[-122.961212,45.390019],[-122.96107,45.389922],[-122.960936,45.389441],[-122.960934,45.389231],[-122.960824,45.388835],[-122.960902,45.388585],[-122.960559,45.388336],[-122.960566,45.388033],[-122.960392,45.38776],[-122.960373,45.387503],[-122.960319,45.387463],[-122.960002,45.387387],[-122.959749,45.387242],[-122.959629,45.387089],[-122.959562,45.386919],[-122.959561,45.386539],[-122.959314,45.386419],[-122.958985,45.386133],[-122.958855,45.38609],[-122.958851,45.386167],[-122.958986,45.386458],[-122.959022,45.386778],[-122.959185,45.387336],[-122.959265,45.387495],[-122.959463,45.387695],[-122.959523,45.387814],[-122.959427,45.388099],[-122.959284,45.388281],[-122.959383,45.388461],[-122.959512,45.388872],[-122.959512,45.388967],[-122.959413,45.389047],[-122.959056,45.389117],[-122.958905,45.389297],[-122.958981,45.389363],[-122.959256,45.389433],[-122.959329,45.389508],[-122.959265,45.389725],[-122.959266,45.390833],[-122.959203,45.391058],[-122.959061,45.391357],[-122.959098,45.391444],[-122.959282,45.39165],[-122.959353,45.391888],[-122.959554,45.392246],[-122.959578,45.392371],[-122.959524,45.392489],[-122.959372,45.39262],[-122.958776,45.392891],[-122.958569,45.393051],[-122.958489,45.393172],[-122.95847,45.393421],[-122.958292,45.393693],[-122.958348,45.393723],[-122.958877,45.393719],[-122.959349,45.393815],[-122.959609,45.393943],[-122.96,45.393815],[-122.960904,45.393741],[-122.961258,45.393923],[-122.961307,45.394001],[-122.961324,45.394134],[-122.961279,45.394275],[-122.961204,45.394361],[-122.960944,45.394562],[-122.960655,45.394719],[-122.960593,45.39489],[-122.960568,45.395189],[-122.960607,45.395252],[-122.960761,45.395243],[-122.961078,45.395117],[-122.9612,45.39515],[-122.96127,45.395247],[-122.96121,45.395687],[-122.96107,45.395974],[-122.961048,45.396354],[-122.960832,45.396646],[-122.9605,45.396971],[-122.959848,45.397458],[-122.959506,45.397538],[-122.95906,45.397408],[-122.958926,45.397419],[-122.958851,45.397472],[-122.958788,45.397621],[-122.95877,45.397797],[-122.958816,45.398208],[-122.958912,45.398459],[-122.9589,45.398764],[-122.958599,45.399433],[-122.958512,45.399788],[-122.9585,45.400008],[-122.958403,45.400141],[-122.958288,45.400196],[-122.957448,45.400143],[-122.956687,45.400257],[-122.956279,45.400203],[-122.955913,45.400302],[-122.955583,45.40054],[-122.955242,45.400582],[-122.955083,45.400541],[-122.95476,45.400303],[-122.954581,45.400248],[-122.954267,45.400272],[-122.953776,45.400471],[-122.953634,45.400479],[-122.953532,45.40038],[-122.953441,45.400034],[-122.95336,45.399965],[-122.953253,45.399947],[-122.95293,45.400029],[-122.95216,45.400329],[-122.951619,45.400418],[-122.951327,45.400382],[-122.951147,45.400222],[-122.951129,45.400078],[-122.951346,45.399753],[-122.951536,45.39907],[-122.951673,45.398857],[-122.95192,45.398622],[-122.952038,45.398277],[-122.952299,45.397868],[-122.952318,45.397654],[-122.952245,45.397481],[-122.952125,45.397379],[-122.95165,45.397424],[-122.951487,45.397388],[-122.951049,45.397085],[-122.950823,45.396862],[-122.950756,45.396912],[-122.950717,45.397013],[-122.950685,45.397543],[-122.95072,45.397764],[-122.950598,45.397944],[-122.950237,45.398306],[-122.949982,45.398505],[-122.949471,45.398757],[-122.949279,45.398951],[-122.948886,45.399107],[-122.948821,45.39919],[-122.948634,45.399631],[-122.948311,45.399854],[-122.947969,45.399913],[-122.947408,45.399946],[-122.947093,45.399853],[-122.945771,45.399595],[-122.94471,45.399423],[-122.944385,45.399282],[-122.944282,45.399135],[-122.944308,45.399054],[-122.944528,45.398855],[-122.944661,45.398659],[-122.944634,45.398419],[-122.944524,45.398274],[-122.944392,45.398227],[-122.944064,45.398195],[-122.943507,45.39831],[-122.943196,45.398316],[-122.942157,45.39806],[-122.942049,45.397999],[-122.942003,45.397922],[-122.942001,45.397761],[-122.942058,45.397591],[-122.942322,45.397351],[-122.942458,45.397309],[-122.942862,45.397342],[-122.943023,45.39727],[-122.943061,45.396975],[-122.943279,45.396741],[-122.943422,45.396499],[-122.943428,45.396173],[-122.943483,45.395929],[-122.943461,45.395835],[-122.943262,45.3957],[-122.942829,45.395592],[-122.942668,45.395645],[-122.942333,45.395858],[-122.942167,45.395881],[-122.941958,45.395715],[-122.941648,45.395612],[-122.94116,45.39519],[-122.94081,45.394961],[-122.94063,45.394883],[-122.940551,45.394891],[-122.940469,45.394966],[-122.940258,45.395422],[-122.940112,45.395639],[-122.939957,45.395722],[-122.939675,45.395764],[-122.939567,45.395862],[-122.939527,45.396026],[-122.939659,45.396312],[-122.93967,45.396442],[-122.93951,45.396626],[-122.939476,45.396906],[-122.939219,45.397107],[-122.939064,45.397509],[-122.938953,45.397658],[-122.938804,45.397769],[-122.938646,45.397795],[-122.938357,45.397772],[-122.937816,45.39786],[-122.937612,45.397845],[-122.937324,45.397774],[-122.937216,45.397707],[-122.937162,45.397611],[-122.937127,45.397328],[-122.937081,45.397261],[-122.936958,45.397195],[-122.936244,45.397028],[-122.935349,45.397071],[-122.934988,45.397029],[-122.934371,45.396805],[-122.934184,45.396657],[-122.933798,45.396466],[-122.93373,45.39639],[-122.933707,45.396225],[-122.933535,45.396203],[-122.933463,45.396155],[-122.933443,45.396067],[-122.933472,45.395995],[-122.933651,45.395887],[-122.934052,45.395855],[-122.934321,45.39571],[-122.934459,45.395612],[-122.934945,45.395044],[-122.935124,45.394901],[-122.936357,45.394493],[-122.936669,45.394596],[-122.936843,45.39458],[-122.936924,45.394504],[-122.936853,45.394387],[-122.936715,45.394303],[-122.936775,45.394085],[-122.936614,45.393936],[-122.936502,45.3937],[-122.936349,45.393654],[-122.93586,45.393663],[-122.935707,45.393575],[-122.935725,45.393429],[-122.936097,45.393043],[-122.936114,45.392896],[-122.935827,45.392512],[-122.935665,45.392362],[-122.935643,45.392181],[-122.935702,45.39188],[-122.935653,45.391747],[-122.935526,45.391678],[-122.935348,45.391639],[-122.935169,45.391646],[-122.935095,45.391604],[-122.93506,45.391364],[-122.934885,45.390917],[-122.934903,45.390723],[-122.934954,45.390637],[-122.935103,45.390503],[-122.935381,45.390372],[-122.936007,45.390491],[-122.936657,45.390411],[-122.93687,45.390346],[-122.937016,45.390207],[-122.937234,45.389812],[-122.937586,45.389474],[-122.937781,45.389163],[-122.937888,45.389112],[-122.937976,45.38916],[-122.938224,45.389459],[-122.938827,45.389775],[-122.939008,45.389912],[-122.93926,45.39068],[-122.939701,45.391183],[-122.939789,45.391221],[-122.939993,45.391129],[-122.940277,45.391108],[-122.940297,45.391045],[-122.940173,45.390902],[-122.940146,45.390806],[-122.940395,45.390364],[-122.940556,45.390256],[-122.940963,45.39026],[-122.941049,45.390175],[-122.940995,45.390031],[-122.940731,45.389748],[-122.940665,45.38928],[-122.940702,45.388899],[-122.940652,45.388616],[-122.940669,45.388539],[-122.940777,45.388483],[-122.940864,45.38835],[-122.940985,45.388255],[-122.941108,45.388197],[-122.941229,45.388187],[-122.941574,45.388237],[-122.941895,45.388336],[-122.942093,45.388433],[-122.942326,45.388612],[-122.94243,45.388632],[-122.942461,45.388514],[-122.94242,45.387913],[-122.942534,45.387531],[-122.942626,45.387482],[-122.943054,45.387416],[-122.943733,45.387189],[-122.94365,45.387133],[-122.943128,45.386962],[-122.942944,45.386858],[-122.94286,45.386702],[-122.942932,45.386529],[-122.943241,45.386313],[-122.943455,45.386243],[-122.944004,45.386204],[-122.944335,45.386227],[-122.944689,45.386302],[-122.944805,45.38627],[-122.944712,45.386178],[-122.943971,45.385779],[-122.943708,45.385431],[-122.943689,45.385342],[-122.943916,45.384704],[-122.944442,45.38405],[-122.944431,45.383715],[-122.944575,45.383309],[-122.944702,45.382778],[-122.944609,45.382071],[-122.944718,45.381947],[-122.94509,45.38178],[-122.945229,45.381644],[-122.944668,45.381461],[-122.944555,45.381344],[-122.944469,45.381163],[-122.944437,45.380913],[-122.944516,45.380413],[-122.944668,45.380175],[-122.944683,45.380094],[-122.944593,45.379992],[-122.944302,45.379888],[-122.944196,45.379805],[-122.943975,45.379243],[-122.944072,45.378981],[-122.944252,45.378755],[-122.944263,45.378695],[-122.94415,45.378651],[-122.943719,45.378648],[-122.943562,45.378548],[-122.943365,45.378245],[-122.943084,45.377685],[-122.942986,45.377273],[-122.942802,45.376809],[-122.942607,45.376514],[-122.94251,45.376259],[-122.942337,45.376041],[-122.942224,45.375778],[-122.942031,45.375571],[-122.941903,45.375332],[-122.941599,45.374922],[-122.941129,45.37461],[-122.940814,45.374656],[-122.940923,45.374739],[-122.941106,45.374806],[-122.941116,45.374855],[-122.940782,45.374856],[-122.940667,45.374918],[-122.940636,45.374979],[-122.940782,45.375319],[-122.941106,45.375878],[-122.941188,45.376179],[-122.941315,45.376435],[-122.941407,45.376976],[-122.941634,45.377168],[-122.941719,45.377328],[-122.94182,45.377922],[-122.941843,45.378334],[-122.941814,45.37859],[-122.941866,45.378792],[-122.941801,45.379033],[-122.941834,45.379369],[-122.941744,45.379661],[-122.941805,45.379935],[-122.941809,45.380184],[-122.941666,45.380641],[-122.941677,45.380919],[-122.941422,45.381638],[-122.941507,45.381846],[-122.941509,45.381942],[-122.94134,45.382186],[-122.941363,45.382386],[-122.941337,45.382473],[-122.940974,45.382995],[-122.940454,45.38342],[-122.939168,45.384265],[-122.938595,45.38445],[-122.938049,45.3845],[-122.937531,45.3846],[-122.937192,45.384712],[-122.936782,45.384935],[-122.93646,45.385032],[-122.935966,45.385123],[-122.935723,45.385109],[-122.935359,45.384958],[-122.935156,45.384626],[-122.934336,45.384574],[-122.934258,45.384693],[-122.934243,45.385136],[-122.934099,45.385362],[-122.933751,45.385491],[-122.93354,45.385618],[-122.933177,45.386007],[-122.931628,45.38716],[-122.931101,45.387411],[-122.930785,45.387508],[-122.930382,45.387826],[-122.930119,45.388093],[-122.92957,45.388415],[-122.929321,45.388625],[-122.928807,45.388802],[-122.92848,45.389043],[-122.928095,45.389198],[-122.9279,45.38917],[-122.927662,45.389027],[-122.927435,45.388541],[-122.927188,45.388273],[-122.926944,45.387932],[-122.926726,45.387514],[-122.926492,45.38722],[-122.926334,45.386889],[-122.926237,45.386807],[-122.925888,45.386645],[-122.925645,45.386421],[-122.925612,45.38629],[-122.925639,45.386117],[-122.925854,45.385728],[-122.925805,45.385143],[-122.924637,45.38533],[-122.924462,45.385327],[-122.924378,45.385278],[-122.92436,45.385054],[-122.924154,45.384637],[-122.924043,45.384152],[-122.923957,45.384069],[-122.92375,45.384],[-122.923636,45.383919],[-122.923333,45.383339],[-122.923294,45.383158],[-122.923318,45.383071],[-122.923423,45.382988],[-122.923676,45.382889],[-122.923713,45.382827],[-122.923615,45.382768],[-122.923223,45.382668],[-122.923138,45.382569],[-122.923159,45.382464],[-122.923233,45.382371],[-122.923797,45.382087],[-122.923935,45.381968],[-122.923954,45.381893],[-122.923791,45.381836],[-122.922911,45.381883],[-122.922428,45.381849],[-122.922343,45.381805],[-122.922209,45.381196],[-122.92201,45.380723],[-122.921833,45.380404],[-122.921357,45.379821],[-122.9213,45.379463],[-122.921195,45.379147],[-122.920823,45.378512],[-122.920732,45.377656],[-122.920595,45.377396],[-122.920543,45.37737],[-122.920483,45.377396],[-122.920182,45.377996],[-122.920188,45.378394],[-122.920063,45.378735],[-122.920093,45.379081],[-122.920052,45.379383],[-122.920103,45.379815],[-122.920043,45.380083],[-122.920097,45.380339],[-122.920039,45.380852],[-122.920235,45.38111],[-122.920268,45.381363],[-122.920212,45.381646],[-122.92031,45.381884],[-122.920276,45.381975],[-122.920087,45.382129],[-122.920059,45.38219],[-122.920226,45.382421],[-122.920178,45.382677],[-122.920356,45.382864],[-122.920269,45.383079],[-122.920425,45.383256],[-122.920425,45.383539],[-122.920523,45.384082],[-122.920786,45.384786],[-122.920589,45.385534],[-122.920409,45.385933],[-122.920379,45.386091],[-122.920398,45.386262],[-122.920483,45.386463],[-122.920507,45.386748],[-122.920462,45.387333],[-122.920631,45.387605],[-122.920532,45.388147],[-122.92071,45.388413],[-122.920731,45.388565],[-122.920684,45.38862],[-122.920591,45.388643],[-122.920238,45.388576],[-122.919949,45.388402],[-122.919677,45.388346],[-122.919301,45.388151],[-122.919151,45.388017],[-122.918933,45.387662],[-122.918688,45.387362],[-122.918311,45.387059],[-122.918137,45.386985],[-122.918142,45.387067],[-122.918551,45.38779],[-122.918779,45.388412],[-122.918737,45.388465],[-122.918483,45.388514],[-122.918213,45.388838],[-122.918009,45.388948],[-122.917997,45.389032],[-122.918115,45.389368],[-122.918107,45.389467],[-122.917946,45.389525],[-122.917736,45.389459],[-122.917561,45.389328],[-122.917401,45.389029],[-122.91703,45.388872],[-122.916871,45.38888],[-122.916832,45.388946],[-122.916834,45.38919],[-122.916789,45.389337],[-122.916689,45.389457],[-122.916417,45.389578],[-122.916332,45.390004],[-122.916163,45.390185],[-122.916098,45.390308],[-122.916057,45.390462],[-122.91612,45.390665],[-122.91608,45.390759],[-122.915966,45.390857],[-122.915299,45.391221],[-122.914893,45.391641],[-122.914949,45.391702],[-122.915221,45.391715],[-122.915462,45.391832],[-122.915646,45.391999],[-122.915812,45.39229],[-122.916084,45.392443],[-122.916333,45.392508],[-122.917277,45.392456],[-122.918014,45.392332],[-122.918324,45.392323],[-122.918577,45.392246],[-122.919106,45.391935],[-122.919329,45.391878],[-122.919477,45.391894],[-122.919737,45.392023],[-122.920045,45.392116],[-122.920179,45.392253],[-122.920216,45.392378],[-122.920203,45.392524],[-122.920123,45.392665],[-122.919862,45.392792],[-122.919752,45.392906],[-122.919763,45.393036],[-122.919926,45.39324],[-122.919949,45.393344],[-122.919823,45.393658],[-122.919709,45.393773],[-122.919595,45.393821],[-122.919006,45.393888],[-122.918769,45.393837],[-122.918536,45.393696],[-122.918184,45.393766],[-122.917912,45.393743],[-122.917757,45.393644],[-122.917658,45.393513],[-122.917689,45.393256],[-122.917653,45.393161],[-122.917499,45.393048],[-122.917318,45.393002],[-122.917187,45.393016],[-122.917004,45.39313],[-122.916813,45.393181],[-122.91653,45.393125],[-122.916406,45.393139],[-122.916303,45.393212],[-122.916211,45.393411],[-122.916113,45.393462],[-122.915864,45.393412],[-122.914907,45.393552],[-122.91444,45.39351],[-122.913836,45.393543],[-122.913621,45.39349],[-122.913211,45.39346],[-122.912574,45.39329],[-122.91249,45.393234],[-122.912464,45.39313],[-122.912547,45.392889],[-122.912551,45.392723],[-122.912493,45.392547],[-122.912395,45.392468],[-122.911934,45.392428],[-122.911257,45.392535],[-122.91092,45.392462],[-122.910629,45.392345],[-122.909691,45.392122],[-122.909118,45.392096],[-122.908838,45.392178],[-122.908726,45.392312],[-122.908659,45.392739],[-122.908472,45.392887],[-122.908364,45.392912],[-122.908131,45.39281],[-122.908022,45.392576],[-122.907796,45.392314],[-122.90739,45.392111],[-122.907001,45.3918],[-122.906623,45.391698],[-122.906503,45.391715],[-122.906397,45.391786],[-122.906169,45.392216],[-122.905733,45.392568],[-122.905587,45.392604],[-122.905346,45.392574],[-122.904531,45.392236],[-122.903871,45.392043],[-122.903411,45.391793],[-122.903353,45.391704],[-122.903324,45.391427],[-122.903038,45.391218],[-122.902813,45.390667],[-122.902176,45.3901],[-122.902047,45.389927],[-122.90196,45.389682],[-122.901913,45.389634],[-122.901758,45.389889],[-122.901682,45.390205],[-122.90197,45.390975],[-122.90168,45.391251],[-122.901669,45.391449],[-122.90175,45.39168],[-122.901749,45.391779],[-122.901651,45.391993],[-122.901434,45.392307],[-122.901413,45.392578],[-122.901376,45.392632],[-122.900875,45.392734],[-122.900581,45.392965],[-122.900455,45.393021],[-122.900319,45.393018],[-122.900117,45.392868],[-122.89997,45.39284],[-122.899831,45.392905],[-122.89964,45.393127],[-122.899555,45.393179],[-122.898971,45.3932],[-122.898699,45.39314],[-122.898603,45.392895],[-122.898521,45.392806],[-122.898292,45.392839],[-122.898109,45.392797],[-122.898012,45.392728],[-122.89791,45.392548],[-122.897787,45.392478],[-122.897345,45.392543],[-122.896983,45.392277],[-122.896922,45.392424],[-122.896903,45.392929],[-122.896693,45.393414],[-122.89666,45.393597],[-122.896591,45.39365],[-122.896206,45.39355],[-122.896019,45.393451],[-122.895902,45.393266],[-122.895793,45.39295],[-122.895704,45.392844],[-122.895387,45.392721],[-122.895005,45.39242],[-122.894723,45.392366],[-122.894462,45.39225],[-122.89445,45.392421],[-122.89467,45.393214],[-122.894654,45.393308],[-122.894586,45.393375],[-122.894395,45.393425],[-122.893973,45.393434],[-122.893694,45.393549],[-122.893477,45.393577],[-122.89314,45.393547],[-122.892828,45.39344],[-122.892438,45.393433],[-122.892014,45.393375],[-122.891915,45.393459],[-122.892013,45.393771],[-122.891897,45.394035],[-122.891773,45.394086],[-122.891185,45.394146],[-122.891075,45.394086],[-122.890793,45.393776],[-122.890434,45.393573],[-122.890163,45.393342],[-122.890154,45.393273],[-122.890276,45.393038],[-122.890244,45.392906],[-122.889912,45.392856],[-122.889147,45.392402],[-122.888936,45.391833],[-122.888993,45.39151],[-122.888974,45.391441],[-122.888868,45.391468],[-122.888575,45.391725],[-122.888193,45.391609],[-122.888172,45.39166],[-122.8882,45.391745],[-122.888461,45.392204],[-122.888437,45.392387],[-122.888338,45.392658],[-122.888671,45.392865],[-122.888736,45.392984],[-122.888757,45.393131],[-122.888867,45.393296],[-122.888904,45.39362],[-122.888791,45.393865],[-122.888838,45.393932],[-122.889038,45.394062],[-122.889102,45.394157],[-122.889136,45.394723],[-122.889104,45.394808],[-122.888974,45.394875],[-122.888744,45.394935],[-122.888274,45.394965],[-122.887935,45.394869],[-122.887619,45.394685],[-122.88713,45.394583],[-122.886131,45.394201],[-122.884561,45.393495],[-122.883435,45.392845],[-122.880877,45.391567],[-122.880503,45.391329],[-122.880248,45.391086],[-122.879667,45.390776],[-122.879469,45.390548],[-122.879154,45.390341],[-122.878521,45.390184],[-122.878067,45.38994],[-122.877534,45.389495],[-122.877492,45.389346],[-122.877167,45.388748],[-122.876645,45.388135],[-122.876504,45.387892],[-122.876278,45.387656],[-122.875892,45.387051],[-122.875832,45.386862],[-122.875821,45.386156],[-122.875712,45.385914],[-122.875775,45.385679],[-122.875771,45.38556],[-122.875312,45.384994],[-122.874854,45.384808],[-122.874664,45.384802],[-122.874476,45.384963],[-122.874153,45.385379],[-122.873784,45.385659],[-122.873487,45.385764],[-122.873323,45.385754],[-122.87309,45.385682],[-122.872296,45.385306],[-122.870327,45.384135],[-122.87002,45.383916],[-122.868325,45.382966],[-122.868036,45.382747],[-122.867841,45.38249],[-122.866609,45.381655],[-122.86628,45.381307],[-122.86609,45.381164],[-122.865764,45.381014],[-122.865274,45.38096],[-122.864972,45.380865],[-122.863962,45.380218],[-122.863256,45.379628],[-122.862887,45.379234],[-122.862667,45.378898],[-122.86218,45.378571],[-122.861629,45.377908],[-122.861278,45.377664],[-122.860895,45.377526],[-122.860715,45.377406],[-122.860602,45.377136],[-122.860432,45.376919],[-122.860239,45.376553],[-122.860266,45.376526],[-122.860442,45.37653],[-122.860684,45.37624],[-122.860988,45.376112],[-122.86118,45.376144],[-122.86148,45.376299],[-122.861649,45.376307],[-122.861925,45.376395],[-122.862097,45.376376],[-122.862223,45.376297],[-122.862514,45.375973],[-122.862629,45.375894],[-122.863457,45.375701],[-122.863972,45.375489],[-122.864272,45.375459],[-122.86431,45.375293],[-122.864373,45.375218],[-122.865175,45.374723],[-122.865644,45.3745],[-122.866028,45.374243],[-122.866763,45.374092],[-122.867356,45.373927],[-122.867794,45.373861],[-122.868195,45.373647],[-122.86832,45.373642],[-122.868844,45.373738],[-122.86898,45.373833],[-122.86921,45.374093],[-122.869499,45.374183],[-122.869686,45.374302],[-122.8698,45.3743],[-122.869937,45.374205],[-122.870167,45.373924],[-122.870427,45.373761],[-122.870647,45.373551],[-122.871042,45.373335],[-122.871317,45.3731],[-122.871541,45.37305],[-122.872222,45.373154],[-122.872868,45.373163],[-122.873136,45.373318],[-122.873278,45.373454],[-122.873289,45.373536],[-122.873255,45.373602],[-122.872922,45.373847],[-122.87273,45.374158],[-122.872557,45.374809],[-122.872569,45.374884],[-122.872617,45.374928],[-122.872758,45.374913],[-122.873172,45.374574],[-122.873547,45.374416],[-122.874733,45.374125],[-122.875145,45.374166],[-122.87534,45.374253],[-122.876171,45.374908],[-122.876558,45.375163],[-122.877237,45.375501],[-122.877666,45.375896],[-122.878002,45.376011],[-122.878055,45.37615],[-122.878043,45.376543],[-122.877791,45.377049],[-122.877718,45.377266],[-122.87769,45.377524],[-122.877597,45.377754],[-122.877833,45.377599],[-122.878036,45.377253],[-122.878523,45.376776],[-122.87881,45.376611],[-122.879076,45.376511],[-122.87954,45.376438],[-122.8797,45.376449],[-122.880076,45.376557],[-122.880601,45.376545],[-122.880958,45.376778],[-122.881138,45.37683],[-122.881425,45.376819],[-122.88172,45.376643],[-122.882016,45.376688],[-122.882188,45.376792],[-122.882475,45.377212],[-122.882844,45.377394],[-122.882951,45.377361],[-122.883032,45.377097],[-122.883147,45.377036],[-122.883605,45.377033],[-122.883864,45.377083],[-122.884495,45.377103],[-122.884898,45.377228],[-122.88526,45.377226],[-122.886505,45.377358],[-122.886678,45.377421],[-122.886891,45.377578],[-122.887203,45.377931],[-122.887313,45.377995],[-122.88737,45.377963],[-122.88741,45.377763],[-122.887469,45.377679],[-122.8878,45.377633],[-122.887874,45.377583],[-122.887828,45.377481],[-122.887644,45.377353],[-122.887153,45.377142],[-122.88713,45.377069],[-122.8872,45.376745],[-122.887172,45.376674],[-122.886825,45.376863],[-122.886548,45.376884],[-122.885567,45.376722],[-122.88504,45.37655],[-122.884092,45.376426],[-122.883673,45.376336],[-122.883293,45.376204],[-122.882201,45.375693],[-122.881308,45.375453],[-122.880706,45.375341],[-122.880578,45.375248],[-122.880509,45.375023],[-122.880424,45.374922],[-122.880227,45.374856],[-122.879616,45.374783],[-122.879543,45.374573],[-122.879392,45.374398],[-122.878868,45.374263],[-122.878502,45.374102],[-122.877992,45.373678],[-122.877927,45.373576],[-122.877914,45.373468],[-122.878036,45.373123],[-122.878032,45.373006],[-122.87794,45.37291],[-122.877654,45.372827],[-122.877614,45.372758],[-122.877651,45.372692],[-122.877876,45.372526],[-122.878011,45.372298],[-122.877991,45.372198],[-122.877858,45.372172],[-122.877607,45.372192],[-122.876819,45.372425],[-122.876675,45.372439],[-122.876609,45.372405],[-122.876627,45.372331],[-122.876722,45.372246],[-122.877317,45.371838],[-122.877672,45.371639],[-122.87834,45.371628],[-122.878619,45.371557],[-122.879205,45.371316],[-122.879398,45.371277],[-122.8795,45.371303],[-122.879978,45.371618],[-122.880041,45.37163],[-122.880081,45.371545],[-122.880078,45.3714],[-122.879877,45.371236],[-122.87987,45.371087],[-122.880155,45.370813],[-122.880493,45.370716],[-122.880424,45.370544],[-122.880436,45.370456],[-122.880561,45.370241],[-122.880808,45.369964],[-122.880809,45.369917],[-122.880528,45.369948],[-122.880293,45.370064],[-122.88022,45.370139],[-122.880026,45.370556],[-122.879494,45.370807],[-122.879136,45.370877],[-122.878564,45.371071],[-122.878212,45.371132],[-122.878011,45.371113],[-122.87763,45.370943],[-122.877501,45.370933],[-122.877253,45.371068],[-122.876986,45.371107],[-122.876746,45.371209],[-122.876538,45.371244],[-122.876181,45.371147],[-122.87565,45.371149],[-122.874886,45.370858],[-122.874408,45.370778],[-122.87401,45.370549],[-122.873969,45.370457],[-122.874061,45.370363],[-122.874421,45.370148],[-122.874645,45.369951],[-122.874711,45.36986],[-122.874683,45.369787],[-122.874374,45.369722],[-122.873764,45.36981],[-122.873074,45.369767],[-122.872932,45.369678],[-122.872714,45.369388],[-122.872503,45.369269],[-122.872454,45.369151],[-122.872485,45.369072],[-122.872569,45.369019],[-122.87292,45.368981],[-122.873033,45.368922],[-122.873203,45.368555],[-122.873666,45.368006],[-122.873829,45.367948],[-122.874136,45.367998],[-122.874291,45.36795],[-122.87459,45.367753],[-122.874971,45.36742],[-122.87541,45.367256],[-122.87589,45.366758],[-122.876595,45.366544],[-122.877181,45.366481],[-122.877694,45.366479],[-122.877872,45.366426],[-122.877973,45.366314],[-122.878022,45.36606],[-122.87808,45.365942],[-122.878389,45.365781],[-122.878582,45.365539],[-122.878826,45.365462],[-122.879308,45.36512],[-122.879746,45.364699],[-122.880036,45.364239],[-122.880784,45.363947],[-122.880995,45.363799],[-122.881681,45.363188],[-122.882137,45.362992],[-122.882365,45.362793],[-122.882587,45.362679],[-122.883281,45.362405],[-122.883941,45.362215],[-122.884155,45.36222],[-122.884572,45.362352],[-122.884784,45.362346],[-122.884911,45.362296],[-122.885068,45.362155],[-122.88544,45.362104],[-122.885978,45.361907],[-122.886119,45.36191],[-122.886399,45.361994],[-122.887016,45.361856],[-122.887429,45.361939],[-122.888339,45.361831],[-122.88906,45.361882],[-122.889651,45.361881],[-122.889898,45.361818],[-122.889928,45.361763],[-122.889884,45.361707],[-122.889162,45.361387],[-122.888691,45.361239],[-122.888346,45.361187],[-122.888087,45.360999],[-122.887534,45.360847],[-122.887363,45.360728],[-122.887347,45.360631],[-122.887444,45.360334],[-122.887387,45.359356],[-122.887434,45.358992],[-122.887551,45.358662],[-122.887462,45.358368],[-122.887496,45.358077],[-122.887456,45.357859],[-122.887438,45.357189],[-122.88731,45.356954],[-122.887262,45.356995],[-122.88716,45.357268],[-122.886799,45.357964],[-122.886571,45.358631],[-122.886238,45.359312],[-122.886018,45.359981],[-122.885563,45.360531],[-122.88547,45.360597],[-122.8853,45.360611],[-122.884972,45.360503],[-122.884703,45.360475],[-122.884296,45.360538],[-122.884049,45.360516],[-122.883806,45.36057],[-122.883365,45.36057],[-122.883075,45.360385],[-122.882745,45.360588],[-122.882565,45.360639],[-122.881543,45.360662],[-122.8812,45.360591],[-122.881021,45.360746],[-122.880297,45.361024],[-122.879799,45.36134],[-122.8797,45.361363],[-122.879422,45.361324],[-122.87938,45.361375],[-122.879386,45.361545],[-122.879358,45.361593],[-122.878744,45.361895],[-122.878633,45.361921],[-122.878249,45.361873],[-122.878123,45.361901],[-122.878038,45.36199],[-122.877884,45.362339],[-122.877552,45.362691],[-122.876986,45.362864],[-122.8767,45.363019],[-122.876392,45.363285],[-122.876244,45.36334],[-122.87578,45.363263],[-122.87533,45.363272],[-122.874958,45.363156],[-122.874267,45.363147],[-122.874073,45.363217],[-122.873953,45.363426],[-122.87388,45.363434],[-122.873531,45.363218],[-122.873401,45.363081],[-122.873164,45.362492],[-122.873036,45.36203],[-122.872964,45.36199],[-122.872923,45.362052],[-122.872929,45.362728],[-122.872868,45.362986],[-122.872789,45.363098],[-122.872469,45.363313],[-122.872412,45.363407],[-122.872406,45.363495],[-122.8725,45.36361],[-122.872921,45.363692],[-122.87315,45.363854],[-122.873205,45.363991],[-122.873191,45.364357],[-122.873432,45.364615],[-122.873498,45.364747],[-122.873499,45.364829],[-122.87343,45.364913],[-122.872599,45.365317],[-122.872324,45.36531],[-122.872224,45.365268],[-122.872213,45.365195],[-122.872487,45.364733],[-122.872784,45.364009],[-122.872757,45.363886],[-122.872672,45.363797],[-122.872486,45.363721],[-122.872356,45.36371],[-122.872183,45.36377],[-122.871903,45.363938],[-122.871548,45.36423],[-122.871119,45.364331],[-122.871056,45.364427],[-122.871076,45.364619],[-122.871052,45.36466],[-122.870681,45.364577],[-122.870527,45.364608],[-122.869571,45.365248],[-122.869127,45.365673],[-122.86865,45.365762],[-122.868281,45.365754],[-122.867962,45.365819],[-122.867824,45.365793],[-122.868011,45.353381],[-122.870832,45.347889],[-122.870627,45.347644],[-122.870552,45.347331],[-122.870328,45.347036],[-122.870293,45.346923],[-122.87043,45.346202],[-122.870556,45.346057],[-122.871237,45.345791],[-122.871132,45.345707],[-122.870871,45.345641],[-122.870795,45.34555],[-122.870754,45.34521],[-122.870809,45.345059],[-122.871133,45.344811],[-122.871178,45.344671],[-122.871132,45.344564],[-122.870994,45.344579],[-122.870154,45.344923],[-122.869956,45.344958],[-122.869822,45.344914],[-122.869799,45.344804],[-122.869888,45.344311],[-122.869731,45.343924],[-122.869771,45.343571],[-122.869985,45.342956],[-122.870234,45.342611],[-122.870567,45.342442],[-122.871339,45.341898],[-122.871507,45.341836],[-122.871773,45.341812],[-122.871917,45.341692],[-122.871901,45.341596],[-122.871779,45.341465],[-122.871766,45.341349],[-122.871831,45.341218],[-122.87214,45.341037],[-122.872608,45.340915],[-122.872498,45.340822],[-122.872351,45.340788],[-122.872139,45.34077],[-122.871797,45.340824],[-122.871625,45.340775],[-122.871395,45.340829],[-122.870805,45.341054],[-122.870174,45.341038],[-122.868987,45.340834],[-122.868848,45.340743],[-122.868818,45.340615],[-122.868853,45.340521],[-122.86907,45.34036],[-122.86947,45.340178],[-122.869964,45.339886],[-122.87016,45.339821],[-122.870805,45.339747],[-122.871442,45.339736],[-122.87158,45.33966],[-122.871632,45.339538],[-122.871629,45.339318],[-122.871722,45.339168],[-122.872662,45.338852],[-122.873102,45.338416],[-122.873481,45.338144],[-122.873861,45.337968],[-122.875306,45.337478],[-122.875439,45.337383],[-122.875744,45.336665],[-122.876242,45.335923],[-122.876225,45.335357],[-122.876156,45.335055],[-122.876041,45.334907],[-122.875769,45.334779],[-122.875278,45.334588],[-122.875027,45.334551],[-122.875146,45.33482],[-122.875015,45.334993],[-122.874901,45.33506],[-122.873966,45.335314],[-122.873453,45.335318],[-122.872893,45.335275],[-122.872619,45.335313],[-122.872467,45.33537],[-122.871776,45.335788],[-122.871405,45.335895],[-122.871263,45.335986],[-122.871181,45.336115],[-122.871098,45.336582],[-122.870774,45.337147],[-122.870691,45.337478],[-122.87034,45.337738],[-122.870178,45.338145],[-122.869939,45.338318],[-122.869587,45.338366],[-122.868797,45.338398],[-122.867921,45.338266],[-122.867055,45.338297],[-122.866654,45.338232],[-122.866498,45.338276],[-122.866232,45.338452],[-122.866115,45.338552],[-122.865959,45.338771],[-122.865848,45.338852],[-122.865533,45.33893],[-122.865271,45.338846],[-122.865087,45.338831],[-122.864967,45.338919],[-122.864994,45.339263],[-122.864885,45.33935],[-122.864487,45.339359],[-122.863918,45.339519],[-122.863279,45.339543],[-122.863124,45.339592],[-122.862907,45.33975],[-122.862846,45.33985],[-122.862904,45.339939],[-122.863412,45.339982],[-122.863525,45.340037],[-122.863502,45.340131],[-122.863394,45.340274],[-122.863457,45.340573],[-122.863412,45.340689],[-122.863269,45.340762],[-122.86305,45.340704],[-122.862721,45.340524],[-122.86258,45.340504],[-122.862463,45.340541],[-122.862429,45.340643],[-122.862457,45.34076],[-122.862623,45.341161],[-122.862783,45.34138],[-122.862929,45.341443],[-122.863709,45.341587],[-122.864294,45.341757],[-122.864817,45.342079],[-122.865369,45.342232],[-122.865597,45.342461],[-122.865922,45.342569],[-122.866301,45.342625],[-122.866865,45.342568],[-122.867061,45.34262],[-122.866967,45.343084],[-122.866883,45.343207],[-122.86679,45.343274],[-122.86645,45.343266],[-122.866001,45.3431],[-122.86554,45.343017],[-122.865101,45.342839],[-122.864322,45.342875],[-122.864164,45.342799],[-122.864124,45.342527],[-122.864051,45.342447],[-122.863905,45.342383],[-122.863343,45.342203],[-122.863012,45.342328],[-122.862439,45.342209],[-122.861829,45.341822],[-122.861601,45.341814],[-122.861235,45.342033],[-122.860987,45.342313],[-122.86088,45.34237],[-122.86074,45.342347],[-122.86063,45.342275],[-122.860586,45.342135],[-122.86064,45.341977],[-122.860914,45.341663],[-122.861255,45.341178],[-122.861339,45.340983],[-122.861335,45.34084],[-122.861262,45.340683],[-122.861158,45.340603],[-122.861024,45.340587],[-122.860614,45.340632],[-122.860258,45.340911],[-122.859884,45.341027],[-122.859776,45.341268],[-122.859612,45.341373],[-122.858233,45.341521],[-122.857691,45.341486],[-122.857529,45.341618],[-122.857375,45.341805],[-122.856963,45.342404],[-122.847026,45.342451],[-122.846811,45.342485],[-122.846662,45.342565],[-122.846593,45.342652],[-122.846551,45.342743],[-122.846541,45.343107],[-122.846399,45.339416],[-122.846516,45.32895],[-122.848966,45.32887],[-122.850335,45.328268],[-122.850449,45.327266],[-122.851305,45.326504],[-122.854499,45.325942],[-122.855754,45.324378],[-122.856952,45.324378],[-122.857865,45.323817],[-122.861572,45.324138],[-122.866193,45.322052],[-122.871669,45.319285],[-122.875947,45.317319],[-122.878685,45.31419],[-122.879769,45.313428],[-122.882907,45.311703],[-122.883104,45.306626],[-122.888097,45.306528],[-122.889409,45.306006],[-122.890265,45.306006],[-122.890778,45.306127],[-122.891349,45.306448],[-122.892205,45.307852],[-122.894087,45.307411],[-122.896026,45.306087],[-122.897338,45.305766],[-122.899563,45.305926],[-122.900248,45.305405],[-122.901503,45.304723],[-122.901731,45.303639],[-122.902586,45.302476],[-122.904127,45.303118],[-122.906123,45.302917],[-122.908519,45.302957],[-122.908761,45.304806],[-122.910059,45.303238],[-122.911257,45.302917],[-122.913596,45.302877],[-122.916619,45.302957],[-122.91794,45.301578],[-122.919129,45.301994],[-122.920156,45.303278],[-122.921182,45.304482],[-122.921639,45.305324],[-122.922145,45.306523],[-122.922346,45.3076],[-122.922308,45.307794],[-122.922252,45.307874],[-122.922062,45.307991],[-122.921769,45.308054],[-122.920715,45.308162],[-122.919523,45.308373],[-122.919393,45.308411],[-122.919178,45.308613],[-122.919146,45.309114],[-122.919189,45.310653],[-122.919172,45.311659],[-122.919208,45.31189],[-122.919297,45.312062],[-122.919443,45.312193],[-122.919736,45.312283],[-122.920716,45.312872],[-122.920775,45.313007],[-122.920931,45.313129],[-122.920985,45.313251],[-122.920956,45.313537],[-122.920823,45.313779],[-122.920846,45.313913],[-122.921232,45.314025],[-122.921482,45.314197],[-122.921698,45.314568],[-122.921755,45.314993],[-122.921874,45.315069],[-122.922075,45.315105],[-122.923056,45.315112],[-122.923325,45.315183],[-122.923451,45.31527],[-122.923582,45.315496],[-122.923602,45.315692],[-122.923389,45.31645],[-122.923339,45.316939],[-122.923417,45.317029],[-122.923755,45.316728],[-122.923951,45.316603],[-122.924355,45.316508],[-122.924567,45.316513],[-122.924753,45.316571],[-122.924872,45.31666],[-122.924968,45.316799],[-122.925024,45.316931],[-122.92506,45.317182],[-122.924956,45.317552],[-122.924709,45.317913],[-122.925114,45.31804],[-122.925209,45.318119],[-122.925304,45.318277],[-122.925529,45.318361],[-122.926208,45.318332],[-122.926491,45.318469],[-122.926603,45.318611],[-122.927324,45.318733],[-122.927461,45.318797],[-122.927677,45.319205],[-122.928196,45.319625],[-122.928464,45.319967],[-122.928917,45.320419],[-122.928973,45.320551],[-122.928969,45.320714],[-122.928888,45.320875],[-122.928347,45.321421],[-122.928261,45.321644],[-122.928481,45.321743],[-122.928636,45.321708],[-122.928977,45.321509],[-122.929455,45.321394],[-122.92967,45.321414],[-122.929859,45.321507],[-122.93004,45.321681],[-122.930213,45.322061],[-122.930131,45.322223],[-122.930155,45.322351],[-122.930393,45.3223],[-122.930437,45.322337],[-122.929853,45.323676],[-122.930024,45.323797],[-122.930652,45.323877],[-122.93088,45.324238],[-122.93088,45.32484],[-122.930766,45.325922],[-122.93088,45.326323],[-122.931624,45.328012],[-122.931749,45.328007],[-122.931749,45.327826],[-122.931882,45.327713],[-122.932519,45.327699],[-122.932557,45.327519],[-122.932367,45.327245],[-122.932262,45.326864],[-122.932262,45.326643],[-122.932395,45.326403],[-122.932652,45.326269],[-122.933175,45.326209],[-122.933916,45.326249],[-122.93519,45.326529],[-122.935704,45.32673],[-122.936004,45.32678],[-122.936274,45.326904],[-122.93712,45.32784],[-122.937634,45.328642],[-122.938318,45.329003],[-122.939258,45.329713],[-122.939174,45.330807],[-122.939345,45.331449],[-122.940135,45.331883],[-122.93866,45.331569],[-122.937577,45.331088],[-122.936436,45.330887],[-122.933812,45.330847],[-122.932557,45.330968],[-122.930047,45.330326],[-122.929077,45.329845],[-122.928792,45.329524],[-122.928507,45.330045],[-122.928963,45.330486],[-122.929705,45.330928],[-122.930831,45.331678],[-122.931929,45.332331],[-122.932614,45.333013],[-122.933013,45.333855],[-122.933755,45.334497],[-122.935238,45.335098],[-122.937862,45.33574],[-122.943566,45.337223],[-122.946361,45.337865],[-122.946418,45.338346],[-122.946761,45.338747],[-122.950012,45.34007],[-122.954119,45.342155],[-122.954918,45.3427],[-122.957599,45.343462],[-122.959823,45.344665],[-122.961877,45.346108],[-122.962788,45.346487],[-122.963702,45.34699],[-122.964786,45.346669],[-122.966269,45.346629],[-122.967981,45.34711],[-122.969179,45.348032],[-122.969977,45.348834],[-122.970605,45.348834],[-122.972658,45.349395],[-122.974427,45.350157],[-122.975282,45.349997],[-122.976879,45.350438],[-122.977222,45.350598],[-122.978191,45.350638],[-122.981842,45.35156],[-122.984295,45.352129],[-122.985436,45.35229],[-122.98652,45.352811],[-122.988174,45.353132],[-122.9896,45.353292],[-122.991939,45.353653],[-122.995133,45.354655],[-122.996103,45.355096],[-122.998271,45.355577],[-122.999183,45.356018],[-122.999697,45.357581],[-123.001579,45.358022],[-123.001237,45.359745],[-123.001636,45.360106],[-123.003975,45.360587],[-123.004945,45.360667],[-123.006485,45.361188],[-123.006542,45.36203],[-123.006941,45.362591],[-123.008253,45.363072],[-123.010877,45.363713],[-123.012874,45.363914],[-123.014015,45.364916],[-123.018863,45.365341],[-123.020631,45.36522],[-123.023883,45.366022],[-123.025252,45.366543],[-123.028047,45.368386],[-123.030386,45.369669],[-123.03107,45.369789],[-123.032382,45.37047],[-123.035349,45.372835],[-123.037231,45.373476],[-123.038258,45.374237],[-123.03957,45.374918],[-123.040597,45.37604],[-123.040882,45.377883],[-123.042365,45.380007],[-123.043506,45.380568],[-123.045845,45.382171],[-123.049838,45.387259],[-123.051492,45.389983],[-123.052005,45.391145],[-123.052633,45.391786],[-123.053203,45.393067],[-123.055884,45.396753],[-123.056169,45.397554],[-123.056055,45.398155],[-123.054971,45.399637],[-123.053602,45.401335],[-123.05075,45.402576],[-123.050921,45.403017],[-123.051549,45.402977],[-123.053089,45.403898],[-123.052462,45.404819],[-123.052347,45.406461],[-123.052462,45.409905],[-123.052975,45.410306],[-123.053659,45.410226],[-123.053774,45.410826],[-123.053203,45.412068],[-123.052405,45.412548],[-123.052233,45.416713],[-123.051818,45.418073],[-123.052975,45.417562],[-123.053659,45.417081],[-123.054401,45.416841],[-123.055029,45.4164],[-123.055884,45.41628],[-123.056512,45.416],[-123.057082,45.4162],[-123.057653,45.416801],[-123.058622,45.416801],[-123.059592,45.416681],[-123.061018,45.417081],[-123.061532,45.418282],[-123.062387,45.419363],[-123.06279,45.420328],[-123.06293,45.420324],[-123.062781,45.420535],[-123.062454,45.420527],[-123.062183,45.420345],[-123.061923,45.420076],[-123.061889,45.419489],[-123.061505,45.419077],[-123.061098,45.41899],[-123.061042,45.419085],[-123.061053,45.419323],[-123.06102,45.419553],[-123.060816,45.419798],[-123.060647,45.419933],[-123.060252,45.419949],[-123.059735,45.420905],[-123.06002,45.422066],[-123.05962,45.422386],[-123.059221,45.422907],[-123.058594,45.423267],[-123.057966,45.423908],[-123.058366,45.424188],[-123.058423,45.424428],[-123.05751,45.425189],[-123.056939,45.42615],[-123.056141,45.427191],[-123.055799,45.42663],[-123.055571,45.427271],[-123.054601,45.427791],[-123.054886,45.427991],[-123.054373,45.428391],[-123.053688,45.428672],[-123.053004,45.429352],[-123.052661,45.429753],[-123.052148,45.429873],[-123.052947,45.430233],[-123.052832,45.430553],[-123.052262,45.430793],[-123.051863,45.431354],[-123.053232,45.431274],[-123.053232,45.431634],[-123.053118,45.432315],[-123.052775,45.432955],[-123.053289,45.433315],[-123.053061,45.433756],[-123.053118,45.434596],[-123.054144,45.434364],[-123.054886,45.434124],[-123.05597,45.433964],[-123.056711,45.433644],[-123.057681,45.433804],[-123.058194,45.433684],[-123.058594,45.434004],[-123.058594,45.435165],[-123.059107,45.435125],[-123.059792,45.434764],[-123.060419,45.434925],[-123.060933,45.435125],[-123.061275,45.434925],[-123.061104,45.434364],[-123.061503,45.433924],[-123.06213,45.434004],[-123.062473,45.433684],[-123.062758,45.432883],[-123.063385,45.432883],[-123.064013,45.433003],[-123.06464,45.432763],[-123.06561,45.432763],[-123.066409,45.432323],[-123.067378,45.432403],[-123.068063,45.433243],[-123.069888,45.433243],[-123.070516,45.433283],[-123.072113,45.433483],[-123.072512,45.433724],[-123.072797,45.433764],[-123.074623,45.433764],[-123.075422,45.433483],[-123.076391,45.433603],[-123.076847,45.434124],[-123.078046,45.434444],[-123.079186,45.435285],[-123.079643,45.434964],[-123.080669,45.435325],[-123.081867,45.435285],[-123.083179,45.435685],[-123.083179,45.436165],[-123.083579,45.436526],[-123.08529,45.436325],[-123.085975,45.436526],[-123.086716,45.436526],[-123.087458,45.437526],[-123.086944,45.437806],[-123.086716,45.439007],[-123.087115,45.439367],[-123.087629,45.440288],[-123.087629,45.440608],[-123.089169,45.440688],[-123.089625,45.441889],[-123.089511,45.442529],[-123.089625,45.44285],[-123.089283,45.44321],[-123.08837,45.44337],[-123.089568,45.44361],[-123.089682,45.44425],[-123.089397,45.44457],[-123.089739,45.444931],[-123.089454,45.445571],[-123.08837,45.445491],[-123.088028,45.446131],[-123.086602,45.446531],[-123.086374,45.447372],[-123.085518,45.448332],[-123.086146,45.448732],[-123.085461,45.449333],[-123.086032,45.449573],[-123.086089,45.449933],[-123.086431,45.450573],[-123.087172,45.450974],[-123.087629,45.451574],[-123.088142,45.452654],[-123.088598,45.453214],[-123.088884,45.453895],[-123.089739,45.454175],[-123.089968,45.454535],[-123.090196,45.455535],[-123.090937,45.456176],[-123.090937,45.456616],[-123.090823,45.457096],[-123.09031,45.457456],[-123.089682,45.458056],[-123.089226,45.458416],[-123.090082,45.458736],[-123.091451,45.460217],[-123.090937,45.461017],[-123.092135,45.461257],[-123.093675,45.461977],[-123.094531,45.462457],[-123.094588,45.463137],[-123.095558,45.464498],[-123.096299,45.465058],[-123.096242,45.465858],[-123.0959,45.466458],[-123.0959,45.467818],[-123.095957,45.468258],[-123.09533,45.468338],[-123.094121,45.467981],[-123.094303,45.469138],[-123.094189,45.469578],[-123.093903,45.470018],[-123.09282,45.469858],[-123.089968,45.469698],[-123.08934,45.470098],[-123.089397,45.474899],[-123.08991,45.475978],[-123.090367,45.476579],[-123.090766,45.476819],[-123.092249,45.477018],[-123.09185,45.478138],[-123.091165,45.479858],[-123.090253,45.481098],[-123.088827,45.482538],[-123.087458,45.484338],[-123.086773,45.484938],[-123.086659,45.486217],[-123.086944,45.486577],[-123.086659,45.487297],[-123.086659,45.488337],[-123.086529,45.489131],[-123.089853,45.489217],[-123.090766,45.489577],[-123.09088,45.490496],[-123.091477,45.49115],[-123.091514,45.491317]]]]}}]}