{"type":"FeatureCollection","features":[{"type":"Feature","properties":{"ava_id":"lower_long_tom","name":"Lower Long Tom","aka":null,"created":"2021-12-10","removed":null,"county":"Benton|Lane","state":"OR","within":"Willamette Valley","contains":null,"petitioner":"Dieter Boehm, owner of High Pass Vineyard and Winery","cfr_author":"Karen A. Thornton","cfr_index":"9.281","cfr_revision_history":"[T.D. TTB-175, 86 FR 62481, Nov. 10, 2021]","approved_maps":"The four United States Geological Survey (USGS) 1:24,000 scale topographic maps used to determine the boundary of the Lower Long Tom viticultural area are titled:\n(1) Cheshire, Oregon, 1984;\n\n(2) Horton, Oregon, 1984;\n\n(3) Glenbrook, Oregon, 1984; and\n\n(4) Monroe, Oregon, 1991.","boundary_description":"The Lower Long Tom viticultural area is located in Benton and Lane Counties, in Oregon. The boundary of the Lower Long Tom viticultural area is as described as follows:\n\n(1) The beginning point is on the Cheshire map at the intersection of Franklin Road and the 360-foot elevation contour in Section 43, T16S/R5W. From the beginning point, proceed west on Franklin Road to its intersection with Territorial Road (known locally as Territorial Highway); then\n\n(2) Proceed southwesterly along Territorial Highway to its intersection with an unnamed, unimproved road north of Butler Road in Section 44, T16S/R5W; then\n\n(3) Proceed west in a straight line to the western boundary of Section 29, T16S/R5W; then\n\n(4) Proceed north along the western boundary of Section 29 to the southern boundary of Section 57, T16S/R5W; then\n\n(5) Proceed northwest in a straight line to the right angle in the western boundary of Section 57, T16S/R5W; then\n\n(6) Proceed west in a straight line, crossing through Sections 58 and 38, to the intersection of Sections 23, 24, 25, and 26, T16S/R6W; then\n\n(7) Proceed north along the western boundary of Section 24 to the first intersection with the 800-foot elevation contour; then\n\n(8) Proceed northerly, then northwesterly along the 800-foot elevation contour, crossing onto the Horton map, to the intersection of the 800-foot elevation contour and an unnamed, unimproved road with a marked 782-foot elevation point in Section 10, T16S/R6W; then\n\n(9) Proceed west in a straight line to the 1,000-foot elevation contour; then\n\n(10) Proceed northerly along the 1,000-foot elevation contour, crossing onto the Glenbrook map, to the elevation contour's third intersection with the Lane-Benton County line in Section 10, T15S/R6W; then\n\n(11) Proceed east along the Lane-Benton County line, crossing onto the Monroe map, to the R6W/R5W range line; then\n\n(12) Proceed north along the R6W/R5W range line to its intersection with Cherry Creek Road; then\n\n(13) Proceed northeasterly along Cherry Creek Road to its intersection with Shafer Creek along the T14S/T15S township line; then\n\n(14) Proceed northeasterly along Shafer Creek to its intersection with the 300-foot elevation contour; then\n\n(15) Proceed easterly along the 300-foot elevation contour, crossing Territorial Highway, to the intersection of the elevation contour with the marked old railroad grade in Section 33/T14S/R5W; then\n\n(16) Proceed south along the old railroad grade to its intersection with the southern boundary of Section 9, T15S/R5W; then\n\n(17) Proceed west along the southern boundary of Section 9 to its intersection with Territorial Highway; then\n\n(18) Proceed south along Territorial Highway to its intersection with the 360-foot elevation contour in Section 16; T15S/R5W; then\n\n(19) Proceed southwesterly along the 360-foot elevation contour, crossing Ferguson Creek, and continuing generally southeasterly along the elevation contour, crossing onto the Cheshire map and crossing over Owens Creek and Jones Creek, to the point where the elevation contour crosses Bear Creek and turns north in Section 52; T16S/R5W; then\n\n(20) Continue northeasterly along the 360-foot elevation contour to the point where it turns south in the town of Cheshire; then\n\n(21) Continue south along the 360-foot elevation contour and return to the beginning point.","used_maps":"The four United States Geological Survey (USGS) 1:24,000 scale topographic maps used to determine the boundary of the Lower Long Tom viticultural area are titled:\n(1) Cheshire, Oregon, 1984;\n\n(2) Horton, Oregon, 1984;\n\n(3) Glenbrook, Oregon, 1984; and\n\n(4) Monroe, Oregon, 1969, photoinspected 1975","valid_start":null,"valid_end":null,"lcsh":null,"sameas":null,"ttb_name":"Lower Long Tom","cfr_section":"27 CFR 9.281","counties":"Washington, Yamhill","boundary_source":"TTB AVA Map Explorer (AVAs_Production feature service)","boundary_retrieved":"2026-09-30"},"geometry":{"type":"MultiPolygon","coordinates":[[[[-123.297887,44.153615],[-123.300625,44.153492],[-123.301595,44.153574],[-123.302679,44.153901],[-123.303649,44.154638],[-123.30479,44.155906],[-123.305702,44.156193],[-123.30633,44.156316],[-123.307699,44.156316],[-123.309524,44.153696],[-123.313232,44.148089],[-123.330402,44.14813],[-123.330402,44.154638],[-123.335479,44.157543],[-123.37153,44.157625],[-123.371416,44.158566],[-123.371758,44.159262],[-123.371188,44.159426],[-123.37056,44.159549],[-123.370047,44.160899],[-123.370104,44.161513],[-123.369876,44.161799],[-123.368165,44.162618],[-123.36748,44.163027],[-123.367423,44.163559],[-123.368906,44.164377],[-123.370332,44.165073],[-123.37056,44.165605],[-123.370674,44.166792],[-123.370218,44.167855],[-123.370332,44.168633],[-123.36999,44.169247],[-123.369933,44.170188],[-123.369591,44.170924],[-123.36999,44.171374],[-123.369362,44.171456],[-123.368735,44.172561],[-123.368165,44.173297],[-123.368507,44.173706],[-123.369077,44.173911],[-123.369305,44.173625],[-123.369819,44.173584],[-123.370275,44.173829],[-123.370275,44.174197],[-123.370789,44.174238],[-123.371359,44.174197],[-123.37153,44.173993],[-123.372215,44.173911],[-123.372614,44.174115],[-123.373127,44.174156],[-123.373926,44.174156],[-123.374553,44.174075],[-123.374724,44.173665],[-123.375808,44.173706],[-123.376493,44.173502],[-123.376322,44.17297],[-123.376721,44.172929],[-123.377634,44.172561],[-123.377691,44.172356],[-123.378375,44.172315],[-123.378375,44.17297],[-123.378261,44.17342],[-123.37906,44.173625],[-123.378603,44.174361],[-123.378603,44.175138],[-123.377234,44.175056],[-123.376265,44.175466],[-123.376093,44.175956],[-123.375694,44.176325],[-123.375466,44.176816],[-123.374839,44.176734],[-123.374325,44.176775],[-123.374211,44.177307],[-123.373413,44.177429],[-123.371074,44.178125],[-123.372044,44.17882],[-123.373755,44.179802],[-123.374724,44.180252],[-123.376151,44.180457],[-123.376778,44.180457],[-123.378375,44.180334],[-123.379003,44.180007],[-123.378717,44.179188],[-123.379003,44.178902],[-123.38003,44.178452],[-123.380771,44.178616],[-123.381627,44.178288],[-123.382026,44.179475],[-123.382482,44.180416],[-123.38311,44.180825],[-123.383623,44.180784],[-123.384023,44.180498],[-123.384365,44.179884],[-123.384593,44.179311],[-123.384992,44.179188],[-123.385848,44.179188],[-123.386247,44.17972],[-123.386247,44.180784],[-123.386076,44.181807],[-123.386361,44.182011],[-123.387388,44.182052],[-123.387901,44.182011],[-123.38967,44.181438],[-123.390126,44.18107],[-123.390925,44.180866],[-123.391096,44.181316],[-123.391552,44.182093],[-123.391324,44.182625],[-123.392522,44.183443],[-123.392066,44.183778],[-123.392009,44.184065],[-123.390525,44.184474],[-123.390354,44.184678],[-123.38927,44.185128],[-123.389385,44.185578],[-123.389156,44.18611],[-123.389613,44.186764],[-123.390297,44.187255],[-123.391324,44.187623],[-123.392237,44.187787],[-123.39218,44.188196],[-123.392579,44.188646],[-123.392693,44.189096],[-123.393035,44.189628],[-123.392978,44.189996],[-123.393606,44.190036],[-123.394347,44.189832],[-123.395431,44.189628],[-123.395831,44.189791],[-123.396287,44.190323],[-123.397085,44.190282],[-123.397199,44.190732],[-123.397941,44.191141],[-123.398226,44.19155],[-123.398283,44.191918],[-123.398797,44.192286],[-123.399538,44.192532],[-123.39874,44.193341],[-123.402246,44.193344],[-123.40218,44.193675],[-123.402197,44.194424],[-123.402166,44.194619],[-123.402032,44.194892],[-123.401772,44.195109],[-123.40136,44.195297],[-123.400764,44.19537],[-123.399742,44.19536],[-123.398131,44.1952],[-123.39788,44.195217],[-123.397676,44.195275],[-123.397072,44.195764],[-123.396822,44.196157],[-123.396685,44.196492],[-123.396618,44.196834],[-123.396637,44.197167],[-123.396732,44.19735],[-123.396963,44.197508],[-123.397277,44.197586],[-123.398448,44.197708],[-123.399427,44.197735],[-123.40002,44.198029],[-123.400657,44.198124],[-123.401091,44.198337],[-123.401682,44.198375],[-123.402047,44.198349],[-123.402448,44.198273],[-123.403492,44.197935],[-123.404002,44.197816],[-123.404331,44.197791],[-123.404962,44.19782],[-123.405267,44.197777],[-123.406052,44.197454],[-123.406855,44.196998],[-123.406998,44.196993],[-123.407497,44.197703],[-123.407832,44.197917],[-123.40821,44.198059],[-123.408256,44.198111],[-123.408215,44.198201],[-123.407888,44.19858],[-123.407674,44.1991],[-123.40768,44.199308],[-123.407876,44.199577],[-123.408164,44.199688],[-123.408693,44.199712],[-123.409226,44.19968],[-123.410139,44.199529],[-123.410337,44.199528],[-123.410395,44.199576],[-123.410391,44.199692],[-123.410145,44.200186],[-123.410089,44.200384],[-123.410094,44.200535],[-123.410167,44.200655],[-123.41042,44.200757],[-123.411432,44.200699],[-123.411579,44.200722],[-123.411669,44.20078],[-123.411686,44.200899],[-123.411463,44.20119],[-123.411402,44.201458],[-123.411294,44.201536],[-123.410916,44.201678],[-123.410761,44.201786],[-123.410624,44.201966],[-123.410617,44.202169],[-123.410681,44.202334],[-123.410896,44.202663],[-123.411323,44.203206],[-123.41154,44.203418],[-123.412218,44.203955],[-123.412318,44.204125],[-123.412225,44.204177],[-123.411989,44.20413],[-123.411105,44.203764],[-123.410343,44.20319],[-123.410168,44.203103],[-123.409969,44.203072],[-123.409481,44.203096],[-123.409336,44.203038],[-123.408948,44.202761],[-123.408786,44.2027],[-123.408353,44.202621],[-123.407881,44.20265],[-123.407197,44.202495],[-123.406872,44.202496],[-123.40661,44.202539],[-123.406057,44.202813],[-123.405916,44.202842],[-123.405638,44.202755],[-123.405019,44.202455],[-123.404695,44.202428],[-123.404466,44.202497],[-123.403828,44.202785],[-123.402746,44.203372],[-123.402319,44.203418],[-123.401943,44.203329],[-123.401749,44.203322],[-123.400831,44.203528],[-123.400102,44.203411],[-123.399557,44.203429],[-123.399019,44.203352],[-123.397983,44.203297],[-123.397821,44.203236],[-123.397187,44.20285],[-123.396834,44.202726],[-123.39644,44.202659],[-123.395967,44.202649],[-123.395566,44.202693],[-123.395165,44.20279],[-123.394621,44.203007],[-123.394392,44.203052],[-123.394177,44.203024],[-123.393559,44.202833],[-123.393309,44.20283],[-123.392856,44.202895],[-123.39241,44.202798],[-123.392171,44.202792],[-123.391889,44.202859],[-123.391629,44.202973],[-123.391484,44.20307],[-123.391254,44.203317],[-123.390774,44.203533],[-123.390192,44.20417],[-123.389605,44.204606],[-123.389373,44.204858],[-123.388537,44.205384],[-123.387973,44.205483],[-123.386912,44.205491],[-123.386616,44.205567],[-123.385874,44.205856],[-123.384677,44.205912],[-123.384455,44.205961],[-123.38417,44.206094],[-123.383971,44.206266],[-123.383849,44.206553],[-123.383919,44.206805],[-123.38408,44.207062],[-123.384471,44.207394],[-123.385033,44.207541],[-123.385182,44.207626],[-123.385369,44.207925],[-123.385602,44.208495],[-123.385705,44.208606],[-123.385844,44.20868],[-123.386059,44.208695],[-123.386358,44.208629],[-123.38747,44.208154],[-123.387655,44.208138],[-123.387808,44.208181],[-123.387921,44.208312],[-123.387923,44.208756],[-123.38798,44.208924],[-123.388334,44.209146],[-123.38852,44.2095],[-123.388636,44.209565],[-123.388778,44.209584],[-123.389043,44.209563],[-123.389236,44.209504],[-123.389862,44.209114],[-123.390132,44.208994],[-123.391102,44.208751],[-123.391622,44.208562],[-123.392168,44.208221],[-123.392864,44.207686],[-123.393344,44.207365],[-123.394002,44.207028],[-123.394352,44.206897],[-123.394845,44.206824],[-123.395381,44.206873],[-123.396005,44.207039],[-123.396957,44.207416],[-123.397305,44.207492],[-123.397606,44.207489],[-123.398084,44.207355],[-123.398832,44.206874],[-123.399595,44.206498],[-123.400092,44.206317],[-123.400483,44.206252],[-123.401187,44.206268],[-123.401544,44.20634],[-123.401709,44.206409],[-123.401827,44.206542],[-123.402067,44.207058],[-123.402221,44.207203],[-123.402627,44.207465],[-123.402907,44.207914],[-123.403141,44.208073],[-123.403441,44.208135],[-123.403713,44.208117],[-123.403987,44.208026],[-123.40425,44.207893],[-123.404546,44.207654],[-123.404912,44.207444],[-123.40503,44.207301],[-123.405113,44.206979],[-123.405198,44.206809],[-123.405405,44.2066],[-123.405576,44.206506],[-123.40589,44.206446],[-123.406757,44.20642],[-123.407294,44.206576],[-123.407839,44.206592],[-123.408136,44.206523],[-123.409053,44.206143],[-123.409815,44.206],[-123.410347,44.206063],[-123.410977,44.206277],[-123.411533,44.206202],[-123.411696,44.206214],[-123.411859,44.206299],[-123.412094,44.206558],[-123.412213,44.206638],[-123.412767,44.206699],[-123.412948,44.206756],[-123.413012,44.206857],[-123.412998,44.207293],[-123.412813,44.207938],[-123.412807,44.208095],[-123.412868,44.208194],[-123.41298,44.208271],[-123.413337,44.208362],[-123.413974,44.208386],[-123.414464,44.208298],[-123.415502,44.207878],[-123.416056,44.207481],[-123.416255,44.207394],[-123.416487,44.207385],[-123.417109,44.207489],[-123.417475,44.207485],[-123.417788,44.207396],[-123.418366,44.207123],[-123.418532,44.207099],[-123.418584,44.207137],[-123.418784,44.207544],[-123.419149,44.207718],[-123.419195,44.207807],[-123.419047,44.207982],[-123.418413,44.208475],[-123.418285,44.208667],[-123.418288,44.208809],[-123.418458,44.208906],[-123.419169,44.20898],[-123.419569,44.20906],[-123.419694,44.209171],[-123.419688,44.209432],[-123.419762,44.209549],[-123.419955,44.209618],[-123.420474,44.209688],[-123.420592,44.209747],[-123.420605,44.20981],[-123.420528,44.209937],[-123.419797,44.210666],[-123.419695,44.210877],[-123.419694,44.211056],[-123.419826,44.21118],[-123.420548,44.211371],[-123.420837,44.211552],[-123.420959,44.211729],[-123.420856,44.212108],[-123.420881,44.212334],[-123.420955,44.212498],[-123.421224,44.21276],[-123.421854,44.2131],[-123.421927,44.213178],[-123.421952,44.213279],[-123.421854,44.213422],[-123.421212,44.213859],[-123.420963,44.213905],[-123.420102,44.213898],[-123.419887,44.213931],[-123.419713,44.214011],[-123.419262,44.21435],[-123.418626,44.214594],[-123.418508,44.214737],[-123.418416,44.215033],[-123.41838,44.215368],[-123.418444,44.215558],[-123.418568,44.215671],[-123.418745,44.215753],[-123.419331,44.215841],[-123.420199,44.215789],[-123.421327,44.215615],[-123.421614,44.215601],[-123.421815,44.215668],[-123.422077,44.215943],[-123.422314,44.216046],[-123.422866,44.216042],[-123.423529,44.215963],[-123.423739,44.216006],[-123.423937,44.21617],[-123.423998,44.216469],[-123.423917,44.216631],[-123.423564,44.217019],[-123.423517,44.217136],[-123.423515,44.217257],[-123.423578,44.217397],[-123.423798,44.217629],[-123.423847,44.217993],[-123.424183,44.218305],[-123.424246,44.218416],[-123.424156,44.218544],[-123.423692,44.218838],[-123.423638,44.218931],[-123.423676,44.219016],[-123.424505,44.219422],[-123.425247,44.219678],[-123.425802,44.21979],[-123.42714,44.219877],[-123.427405,44.219954],[-123.427492,44.220044],[-123.42753,44.22066],[-123.42746,44.220798],[-123.426913,44.220934],[-123.426368,44.220985],[-123.425986,44.221103],[-123.425679,44.221077],[-123.424691,44.220805],[-123.424288,44.220732],[-123.424046,44.220727],[-123.42384,44.22077],[-123.423761,44.220831],[-123.423651,44.221006],[-123.423481,44.221052],[-123.423056,44.220989],[-123.422271,44.220714],[-123.422067,44.220696],[-123.421953,44.220723],[-123.421865,44.220846],[-123.421845,44.221208],[-123.421688,44.221457],[-123.421898,44.222243],[-123.421859,44.222501],[-123.421771,44.222762],[-123.42162,44.222869],[-123.420915,44.222901],[-123.420556,44.223043],[-123.420184,44.223325],[-123.419997,44.223524],[-123.41989,44.223721],[-123.419812,44.22409],[-123.41975,44.224135],[-123.419659,44.224101],[-123.419354,44.223867],[-123.41901,44.223808],[-123.418843,44.223625],[-123.418819,44.223479],[-123.418927,44.22309],[-123.418953,44.222805],[-123.418889,44.222544],[-123.418751,44.222338],[-123.418548,44.222186],[-123.417975,44.221989],[-123.41774,44.221847],[-123.417309,44.221408],[-123.416844,44.220755],[-123.416695,44.220678],[-123.416525,44.220697],[-123.416431,44.220755],[-123.416359,44.220891],[-123.416356,44.221605],[-123.416266,44.221971],[-123.416131,44.222071],[-123.415782,44.222144],[-123.415651,44.222206],[-123.415229,44.222733],[-123.414994,44.222898],[-123.41486,44.222928],[-123.414713,44.222895],[-123.414283,44.222585],[-123.414115,44.222508],[-123.41376,44.222431],[-123.413501,44.222417],[-123.413144,44.222514],[-123.412665,44.222873],[-123.412458,44.222966],[-123.411448,44.223028],[-123.410903,44.223024],[-123.410761,44.223069],[-123.410655,44.223176],[-123.410643,44.22333],[-123.410749,44.223542],[-123.4113,44.224041],[-123.411553,44.224379],[-123.411592,44.224486],[-123.411557,44.224573],[-123.411483,44.224625],[-123.410701,44.224927],[-123.410575,44.225045],[-123.410574,44.225133],[-123.410762,44.225247],[-123.411336,44.225334],[-123.411602,44.225427],[-123.411641,44.225522],[-123.41153,44.225844],[-123.411603,44.226017],[-123.411766,44.226134],[-123.411997,44.226229],[-123.41276,44.226371],[-123.412787,44.226413],[-123.41276,44.226482],[-123.412495,44.226757],[-123.412501,44.226893],[-123.41259,44.226955],[-123.41279,44.227008],[-123.413442,44.227046],[-123.413535,44.227078],[-123.413527,44.227156],[-123.413355,44.227308],[-123.41253,44.227837],[-123.412222,44.227961],[-123.411669,44.228014],[-123.410529,44.227941],[-123.410113,44.227949],[-123.409825,44.228022],[-123.409125,44.228312],[-123.4086,44.228441],[-123.407932,44.228419],[-123.406775,44.228168],[-123.406248,44.228172],[-123.406052,44.228251],[-123.405713,44.228552],[-123.405504,44.228669],[-123.405203,44.228765],[-123.404562,44.228896],[-123.40432,44.22899],[-123.404008,44.229178],[-123.403867,44.229356],[-123.403832,44.229505],[-123.40386,44.229711],[-123.404073,44.230202],[-123.404208,44.230649],[-123.404327,44.230853],[-123.404432,44.230954],[-123.404558,44.231005],[-123.405085,44.231029],[-123.405524,44.230941],[-123.406133,44.230596],[-123.406821,44.230439],[-123.407335,44.230373],[-123.407525,44.23026],[-123.407825,44.229968],[-123.407963,44.229898],[-123.408601,44.229914],[-123.408917,44.229844],[-123.409528,44.229454],[-123.41013,44.229278],[-123.410533,44.229076],[-123.411145,44.228695],[-123.411362,44.228612],[-123.411632,44.228571],[-123.411872,44.228599],[-123.412052,44.228668],[-123.412354,44.228857],[-123.412587,44.22891],[-123.41288,44.228896],[-123.413596,44.228756],[-123.413819,44.228771],[-123.413906,44.228802],[-123.413945,44.228855],[-123.413906,44.22892],[-123.413505,44.229223],[-123.413221,44.229635],[-123.412845,44.230321],[-123.412833,44.230553],[-123.412969,44.230716],[-123.41325,44.23086],[-123.41357,44.230927],[-123.414286,44.230997],[-123.414414,44.231053],[-123.414462,44.231259],[-123.414309,44.231514],[-123.414262,44.231687],[-123.414324,44.232005],[-123.414406,44.232138],[-123.414586,44.232312],[-123.415161,44.232673],[-123.415189,44.232741],[-123.415167,44.232776],[-123.414963,44.232819],[-123.414156,44.232856],[-123.41385,44.232925],[-123.413173,44.233224],[-123.412893,44.233551],[-123.412235,44.233668],[-123.411532,44.233946],[-123.411265,44.233991],[-123.410473,44.233996],[-123.4101,44.234115],[-123.409804,44.234301],[-123.409562,44.234551],[-123.409467,44.234744],[-123.409493,44.234913],[-123.409718,44.235081],[-123.410792,44.235435],[-123.410844,44.235493],[-123.410097,44.235748],[-123.409319,44.235881],[-123.409086,44.235983],[-123.408997,44.236083],[-123.409012,44.236183],[-123.409141,44.236258],[-123.409978,44.23637],[-123.410284,44.236479],[-123.410326,44.236601],[-123.410152,44.237012],[-123.410184,44.237112],[-123.410257,44.237172],[-123.411824,44.237575],[-123.411988,44.237668],[-123.411996,44.237902],[-123.412201,44.238068],[-123.412227,44.238136],[-123.411774,44.238634],[-123.411774,44.238791],[-123.411912,44.239005],[-123.411935,44.239132],[-123.41152,44.239915],[-123.411181,44.240265],[-123.41092,44.240601],[-123.410633,44.240771],[-123.410288,44.240792],[-123.409162,44.240682],[-123.408494,44.24069],[-123.408045,44.240831],[-123.407405,44.241275],[-123.407208,44.24136],[-123.406986,44.241387],[-123.406547,44.241347],[-123.406285,44.241404],[-123.405914,44.241422],[-123.405696,44.241503],[-123.405584,44.241618],[-123.40557,44.241761],[-123.405866,44.242441],[-123.4059,44.242725],[-123.405762,44.243037],[-123.405429,44.243365],[-123.405311,44.243592],[-123.405392,44.243772],[-123.405558,44.243871],[-123.405874,44.243947],[-123.406265,44.243969],[-123.406697,44.243898],[-123.407382,44.243696],[-123.407849,44.24363],[-123.408499,44.243629],[-123.409506,44.243746],[-123.409927,44.243745],[-123.411337,44.243413],[-123.412222,44.243485],[-123.412973,44.243439],[-123.41348,44.24353],[-123.413502,44.243555],[-123.41347,44.243606],[-123.413028,44.243785],[-123.412964,44.243892],[-123.412951,44.244084],[-123.412903,44.244125],[-123.412438,44.244039],[-123.412204,44.24403],[-123.411911,44.24407],[-123.411724,44.244169],[-123.411637,44.244286],[-123.411593,44.244433],[-123.411629,44.244867],[-123.411603,44.24503],[-123.411217,44.24541],[-123.411116,44.245845],[-123.411012,44.246063],[-123.410796,44.246263],[-123.410096,44.246637],[-123.409752,44.246967],[-123.409699,44.247108],[-123.409713,44.247281],[-123.410008,44.247847],[-123.410074,44.248066],[-123.410052,44.248335],[-123.409905,44.248767],[-123.409948,44.248939],[-123.410088,44.249087],[-123.410249,44.249156],[-123.410567,44.24918],[-123.410888,44.249155],[-123.411501,44.24895],[-123.412612,44.248435],[-123.413251,44.248286],[-123.413522,44.248301],[-123.414525,44.248531],[-123.4158,44.248471],[-123.415846,44.248529],[-123.41577,44.248725],[-123.415772,44.248852],[-123.416032,44.249147],[-123.416558,44.249555],[-123.417114,44.249782],[-123.417514,44.250244],[-123.417792,44.250403],[-123.417857,44.250681],[-123.417954,44.250835],[-123.418572,44.251255],[-123.418583,44.251382],[-123.418361,44.251573],[-123.418325,44.251677],[-123.418392,44.251796],[-123.418612,44.251937],[-123.418622,44.251992],[-123.417876,44.25218],[-123.417536,44.252301],[-123.417161,44.25257],[-123.416877,44.252896],[-123.416786,44.253107],[-123.416724,44.2534],[-123.41668,44.254456],[-123.416622,44.254618],[-123.416518,44.254728],[-123.41634,44.254736],[-123.415684,44.254436],[-123.41527,44.254323],[-123.41454,44.254277],[-123.413916,44.254312],[-123.413247,44.254475],[-123.412877,44.254692],[-123.412758,44.254817],[-123.412684,44.254984],[-123.412677,44.255128],[-123.41274,44.255266],[-123.412851,44.25537],[-123.413055,44.255461],[-123.413548,44.255506],[-123.414187,44.255665],[-123.415457,44.255819],[-123.416187,44.255816],[-123.416676,44.255697],[-123.41733,44.255353],[-123.418119,44.254753],[-123.418871,44.254028],[-123.419165,44.253876],[-123.419295,44.253863],[-123.419928,44.254289],[-123.420292,44.25437],[-123.420686,44.254371],[-123.421121,44.254317],[-123.42198,44.254087],[-123.422136,44.254075],[-123.422194,44.254112],[-123.422197,44.254174],[-123.421901,44.254699],[-123.421781,44.25517],[-123.42182,44.255503],[-123.42201,44.2558],[-123.422739,44.256223],[-123.423446,44.25654],[-123.423992,44.256646],[-123.424203,44.256808],[-123.424375,44.256865],[-123.424604,44.25703],[-123.425721,44.257485],[-123.426116,44.257548],[-123.426458,44.257909],[-123.426886,44.258112],[-123.42696,44.258198],[-123.426893,44.258259],[-123.426743,44.25829],[-123.425978,44.258257],[-123.425465,44.258161],[-123.424794,44.258158],[-123.424382,44.258211],[-123.423851,44.258116],[-123.422695,44.258197],[-123.420431,44.258864],[-123.419864,44.258949],[-123.419224,44.259233],[-123.419162,44.259288],[-123.419132,44.259392],[-123.419161,44.2595],[-123.419252,44.25962],[-123.419846,44.260041],[-123.420742,44.260537],[-123.421194,44.261014],[-123.421242,44.261264],[-123.421193,44.261377],[-123.421065,44.261427],[-123.41966,44.26148],[-123.41933,44.261538],[-123.419141,44.261623],[-123.419024,44.261763],[-123.418971,44.261961],[-123.418975,44.262279],[-123.419045,44.262719],[-123.418997,44.262809],[-123.418733,44.262714],[-123.418494,44.262673],[-123.418251,44.262668],[-123.417968,44.262715],[-123.417852,44.262697],[-123.417689,44.262587],[-123.4172,44.262102],[-123.416892,44.261938],[-123.41658,44.261927],[-123.416142,44.262096],[-123.415672,44.26183],[-123.415377,44.261747],[-123.414548,44.261745],[-123.414254,44.261849],[-123.413999,44.262008],[-123.413898,44.262034],[-123.413364,44.261817],[-123.412873,44.261725],[-123.412582,44.261711],[-123.412419,44.261751],[-123.412095,44.261959],[-123.411986,44.26199],[-123.411867,44.261935],[-123.4115,44.261608],[-123.41124,44.26144],[-123.410926,44.261293],[-123.410617,44.26122],[-123.410068,44.261219],[-123.409619,44.26132],[-123.409235,44.261214],[-123.408749,44.261225],[-123.408508,44.261263],[-123.408107,44.261397],[-123.407623,44.261126],[-123.407047,44.261059],[-123.406745,44.261083],[-123.406295,44.261207],[-123.40585,44.261212],[-123.405646,44.261276],[-123.405243,44.261514],[-123.405163,44.261629],[-123.405163,44.261714],[-123.405247,44.261829],[-123.405503,44.262014],[-123.405946,44.262223],[-123.406832,44.262427],[-123.407346,44.262628],[-123.407809,44.262704],[-123.408911,44.262757],[-123.409824,44.262729],[-123.409936,44.262789],[-123.410153,44.263075],[-123.410332,44.263173],[-123.411793,44.263482],[-123.41288,44.2638],[-123.412997,44.2639],[-123.412937,44.263987],[-123.412629,44.26417],[-123.412052,44.264298],[-123.411608,44.264518],[-123.411201,44.264769],[-123.411079,44.264888],[-123.410949,44.265126],[-123.410421,44.265249],[-123.409975,44.265569],[-123.409244,44.266014],[-123.408964,44.266258],[-123.408845,44.266268],[-123.408372,44.266189],[-123.4079,44.266187],[-123.407592,44.266229],[-123.40736,44.266316],[-123.407162,44.266446],[-123.40678,44.26684],[-123.406725,44.267008],[-123.406744,44.267266],[-123.406682,44.267346],[-123.406365,44.267494],[-123.405986,44.267798],[-123.405671,44.267937],[-123.405504,44.267973],[-123.405125,44.26791],[-123.404917,44.267918],[-123.404739,44.267988],[-123.40473,44.268077],[-123.405041,44.268293],[-123.405961,44.268725],[-123.40647,44.268792],[-123.40671,44.269166],[-123.406829,44.269279],[-123.407313,44.269536],[-123.408001,44.269788],[-123.408378,44.269858],[-123.408875,44.269835],[-123.409178,44.270003],[-123.409485,44.270053],[-123.410204,44.270039],[-123.411296,44.269936],[-123.411802,44.269835],[-123.41227,44.269602],[-123.412644,44.269528],[-123.41427,44.268983],[-123.415381,44.2687],[-123.41603,44.268652],[-123.417004,44.268457],[-123.417151,44.268395],[-123.417409,44.268211],[-123.417911,44.268222],[-123.418262,44.26808],[-123.41856,44.268172],[-123.418732,44.268177],[-123.419011,44.2681],[-123.419333,44.267907],[-123.419753,44.267956],[-123.420781,44.267717],[-123.420969,44.267596],[-123.421169,44.267293],[-123.421583,44.267086],[-123.421847,44.266819],[-123.421984,44.266499],[-123.421988,44.265989],[-123.422081,44.265897],[-123.422522,44.265891],[-123.422779,44.265846],[-123.423146,44.265725],[-123.423611,44.265486],[-123.42396,44.265607],[-123.4243,44.265661],[-123.424704,44.265667],[-123.425282,44.265621],[-123.425549,44.265859],[-123.425844,44.266057],[-123.426576,44.266307],[-123.426659,44.266376],[-123.426649,44.266467],[-123.426476,44.266857],[-123.426174,44.268095],[-123.426018,44.268397],[-123.425981,44.268555],[-123.426003,44.268713],[-123.426084,44.268881],[-123.426497,44.269301],[-123.426895,44.26954],[-123.427463,44.269682],[-123.428127,44.269729],[-123.428837,44.269603],[-123.428963,44.269638],[-123.42937,44.269897],[-123.429554,44.269951],[-123.429837,44.269957],[-123.430345,44.269868],[-123.430502,44.269878],[-123.430534,44.269931],[-123.430515,44.270012],[-123.430209,44.270471],[-123.430205,44.270702],[-123.43029,44.270841],[-123.430495,44.271048],[-123.431029,44.271413],[-123.431368,44.271562],[-123.431869,44.271595],[-123.432147,44.271783],[-123.432874,44.271948],[-123.43456,44.272564],[-123.435006,44.272649],[-123.435285,44.272857],[-123.435688,44.273],[-123.435714,44.273078],[-123.435589,44.273109],[-123.435022,44.273102],[-123.43394,44.272997],[-123.43356,44.27306],[-123.433114,44.273037],[-123.431947,44.273289],[-123.431644,44.273398],[-123.430998,44.273419],[-123.429804,44.273625],[-123.42954,44.273719],[-123.429414,44.273827],[-123.42934,44.274005],[-123.429337,44.274217],[-123.429393,44.274442],[-123.429784,44.275211],[-123.430421,44.275974],[-123.430448,44.276052],[-123.430399,44.276089],[-123.429939,44.275943],[-123.429346,44.275627],[-123.42915,44.275605],[-123.428871,44.275662],[-123.428629,44.275531],[-123.428453,44.275489],[-123.427993,44.275523],[-123.427677,44.275625],[-123.427382,44.275769],[-123.427258,44.275765],[-123.427192,44.275632],[-123.427165,44.275252],[-123.426919,44.275042],[-123.426958,44.274917],[-123.427298,44.274447],[-123.427375,44.274235],[-123.427359,44.273785],[-123.42719,44.273376],[-123.427056,44.273253],[-123.426871,44.273161],[-123.42643,44.273069],[-123.426161,44.272898],[-123.425964,44.27282],[-123.425425,44.272774],[-123.425138,44.272567],[-123.424811,44.272463],[-123.424599,44.272441],[-123.424301,44.272468],[-123.423939,44.272306],[-123.423484,44.272312],[-123.423337,44.272368],[-123.423231,44.272465],[-123.423087,44.272903],[-123.422969,44.273022],[-123.422821,44.27301],[-123.422434,44.272878],[-123.42204,44.272894],[-123.421369,44.273019],[-123.420984,44.273345],[-123.420397,44.27333],[-123.420228,44.273376],[-123.419915,44.273538],[-123.419393,44.273484],[-123.419063,44.273509],[-123.418425,44.273711],[-123.418018,44.273931],[-123.417542,44.274251],[-123.417369,44.274456],[-123.417224,44.274755],[-123.417131,44.274777],[-123.416607,44.274744],[-123.41607,44.274867],[-123.415706,44.275031],[-123.415531,44.27516],[-123.415473,44.275277],[-123.415506,44.275413],[-123.415606,44.275523],[-123.415744,44.275601],[-123.416365,44.275756],[-123.418785,44.276027],[-123.4211,44.276364],[-123.421761,44.276568],[-123.421852,44.276627],[-123.421874,44.276735],[-123.420844,44.277866],[-123.420763,44.278017],[-123.420687,44.278296],[-123.420111,44.27862],[-123.419784,44.278948],[-123.41945,44.279354],[-123.419076,44.279848],[-123.41894,44.280239],[-123.418672,44.280401],[-123.418515,44.280548],[-123.418443,44.280728],[-123.418415,44.280972],[-123.418337,44.281086],[-123.417734,44.281243],[-123.416881,44.281616],[-123.416115,44.281602],[-123.415687,44.281644],[-123.415328,44.281735],[-123.414849,44.28199],[-123.414686,44.281962],[-123.41421,44.281756],[-123.413675,44.281623],[-123.413162,44.28136],[-123.41267,44.281296],[-123.412182,44.280874],[-123.411449,44.280462],[-123.410277,44.279982],[-123.410085,44.27996],[-123.409771,44.279999],[-123.409534,44.27995],[-123.409485,44.279899],[-123.409463,44.279722],[-123.409391,44.279616],[-123.40896,44.279333],[-123.408241,44.279001],[-123.407381,44.27867],[-123.407095,44.278588],[-123.40681,44.278568],[-123.406543,44.278617],[-123.406258,44.27873],[-123.405905,44.278953],[-123.405562,44.279302],[-123.405258,44.279768],[-123.405097,44.279872],[-123.403878,44.279541],[-123.403645,44.279537],[-123.403241,44.279608],[-123.402633,44.27948],[-123.402193,44.279488],[-123.401885,44.279354],[-123.40166,44.27931],[-123.400732,44.279365],[-123.399355,44.27957],[-123.398859,44.279735],[-123.398379,44.280041],[-123.398079,44.280341],[-123.397763,44.280853],[-123.371302,44.280875],[-123.371473,44.283488],[-123.351166,44.283578],[-123.351223,44.295036],[-123.350995,44.295689],[-123.350995,44.296138],[-123.350652,44.296383],[-123.350139,44.296546],[-123.3482,44.296179],[-123.34723,44.296179],[-123.344549,44.295567],[-123.341925,44.295567],[-123.339016,44.295077],[-123.334224,44.296016],[-123.331942,44.296383],[-123.33063,44.296873],[-123.328577,44.298588],[-123.326808,44.29871],[-123.325154,44.29871],[-123.323956,44.298465],[-123.322815,44.297567],[-123.321047,44.297159],[-123.320533,44.297853],[-123.319849,44.298465],[-123.318993,44.298955],[-123.317567,44.299608],[-123.315742,44.300547],[-123.314373,44.301364],[-123.314373,44.302238],[-123.313403,44.302589],[-123.312662,44.302793],[-123.31192,44.30334],[-123.310722,44.303609],[-123.309809,44.304099],[-123.30884,44.304466],[-123.306843,44.304548],[-123.306216,44.304344],[-123.306273,44.303977],[-123.305417,44.304058],[-123.305417,44.303405],[-123.30479,44.303895],[-123.30479,44.304426],[-123.30439,44.304875],[-123.303592,44.305038],[-123.30285,44.304671],[-123.302166,44.304671],[-123.301937,44.304385],[-123.301253,44.304344],[-123.300625,44.304018],[-123.300169,44.304711],[-123.29977,44.30516],[-123.298458,44.305283],[-123.297431,44.30561],[-123.295435,44.30565],[-123.293324,44.305242],[-123.292468,44.305569],[-123.294237,44.306769],[-123.292012,44.305773],[-123.291156,44.30516],[-123.289958,44.304099],[-123.289217,44.302793],[-123.288703,44.293648],[-123.288875,44.287033],[-123.288589,44.284501],[-123.289046,44.283889],[-123.289331,44.282786],[-123.290985,44.279347],[-123.291898,44.276121],[-123.292582,44.273327],[-123.295321,44.273286],[-123.295206,44.271383],[-123.295206,44.269324],[-123.294351,44.26952],[-123.29321,44.268908],[-123.29321,44.268458],[-123.292754,44.267642],[-123.292126,44.26707],[-123.292811,44.26613],[-123.29321,44.265967],[-123.293153,44.265027],[-123.293267,44.264455],[-123.293552,44.263883],[-123.293552,44.263107],[-123.294009,44.262821],[-123.294864,44.262413],[-123.297317,44.26229],[-123.29823,44.261759],[-123.298287,44.26131],[-123.298857,44.260901],[-123.300169,44.260656],[-123.300226,44.26037],[-123.300625,44.259594],[-123.301196,44.259267],[-123.301595,44.258695],[-123.302166,44.258001],[-123.302736,44.257469],[-123.303592,44.257388],[-123.304504,44.258246],[-123.304333,44.259431],[-123.304847,44.259022],[-123.305189,44.260288],[-123.305531,44.25939],[-123.306159,44.261146],[-123.306273,44.259635],[-123.306786,44.259226],[-123.307414,44.259104],[-123.307813,44.259144],[-123.308611,44.258981],[-123.309011,44.25894],[-123.308554,44.258246],[-123.309125,44.257837],[-123.310323,44.258205],[-123.31095,44.257755],[-123.310494,44.256979],[-123.31038,44.256611],[-123.310779,44.256244],[-123.311863,44.255876],[-123.313802,44.255672],[-123.313917,44.255222],[-123.314658,44.255181],[-123.316883,44.255508],[-123.315856,44.255018],[-123.314886,44.254201],[-123.314943,44.253465],[-123.313802,44.252608],[-123.313688,44.251627],[-123.314088,44.250033],[-123.314829,44.249543],[-123.316198,44.24893],[-123.316883,44.248848],[-123.317738,44.248235],[-123.318252,44.247949],[-123.319107,44.248358],[-123.320191,44.248767],[-123.320248,44.248481],[-123.320191,44.247377],[-123.320476,44.246928],[-123.32099,44.247296],[-123.321161,44.24799],[-123.322188,44.248235],[-123.322017,44.247704],[-123.322074,44.246111],[-123.322986,44.24656],[-123.322587,44.24562],[-123.323043,44.245007],[-123.322701,44.243863],[-123.321731,44.242923],[-123.321389,44.242229],[-123.32156,44.24182],[-123.322302,44.24182],[-123.323956,44.242229],[-123.325097,44.242637],[-123.325839,44.241861],[-123.326523,44.242392],[-123.326352,44.244108],[-123.327664,44.243005],[-123.328406,44.243454],[-123.328691,44.243454],[-123.329033,44.242882],[-123.330231,44.24276],[-123.330687,44.242229],[-123.331143,44.241902],[-123.332341,44.241902],[-123.33257,44.242188],[-123.332741,44.242065],[-123.33314,44.241084],[-123.334053,44.241902],[-123.334566,44.242147],[-123.335308,44.242801],[-123.336734,44.243128],[-123.337133,44.243618],[-123.338046,44.244108],[-123.338445,44.243577],[-123.338959,44.243741],[-123.339586,44.243822],[-123.339586,44.24419],[-123.3397,44.244885],[-123.340613,44.245375],[-123.341468,44.245253],[-123.342552,44.244803],[-123.343579,44.245171],[-123.343636,44.245784],[-123.344777,44.246152],[-123.344263,44.246928],[-123.344492,44.247377],[-123.344149,44.247704],[-123.34432,44.248235],[-123.344035,44.248848],[-123.344263,44.250442],[-123.34472,44.249666],[-123.346032,44.249666],[-123.346773,44.24938],[-123.347173,44.248603],[-123.347458,44.248235],[-123.347287,44.247173],[-123.347914,44.247132],[-123.348485,44.247745],[-123.34934,44.247827],[-123.350823,44.248562],[-123.350196,44.247051],[-123.350938,44.246642],[-123.352991,44.247214],[-123.354531,44.247786],[-123.355843,44.248031],[-123.358467,44.249134],[-123.359494,44.249502],[-123.360293,44.249952],[-123.361091,44.249339],[-123.361947,44.249216],[-123.363145,44.249175],[-123.363658,44.249625],[-123.364343,44.248808],[-123.365198,44.248726],[-123.366738,44.249216],[-123.36748,44.250033],[-123.368507,44.250115],[-123.369362,44.250483],[-123.370789,44.251177],[-123.371986,44.251218],[-123.372443,44.251668],[-123.3725,44.250646],[-123.371416,44.250401],[-123.371131,44.250769],[-123.369819,44.250401],[-123.369591,44.249788],[-123.368621,44.24893],[-123.369362,44.248276],[-123.367993,44.248644],[-123.367081,44.248113],[-123.365883,44.248195],[-123.364628,44.247459],[-123.364114,44.246764],[-123.362232,44.245988],[-123.362118,44.245416],[-123.361262,44.24513],[-123.359893,44.244599],[-123.359266,44.244803],[-123.358524,44.24464],[-123.357383,44.244966],[-123.3559,44.245212],[-123.354645,44.244231],[-123.353219,44.244149],[-123.349397,44.243822],[-123.347971,44.243128],[-123.346431,44.242882],[-123.346431,44.241983],[-123.345461,44.241174],[-123.344492,44.239172],[-123.343636,44.238845],[-123.342894,44.238109],[-123.341925,44.237987],[-123.34067,44.237333],[-123.336734,44.236107],[-123.335821,44.235208],[-123.333596,44.234267],[-123.332513,44.234349],[-123.331315,44.234594],[-123.329432,44.235085],[-123.328234,44.23533],[-123.327036,44.235044],[-123.324983,44.234799],[-123.323671,44.234472],[-123.322017,44.23439],[-123.320134,44.234594],[-123.31905,44.234553],[-123.318081,44.234881],[-123.317681,44.234349],[-123.316541,44.233777],[-123.316027,44.235698],[-123.315114,44.236188],[-123.313574,44.236066],[-123.311464,44.235739],[-123.310266,44.234848],[-123.309695,44.233295],[-123.309695,44.231946],[-123.31038,44.231415],[-123.311464,44.231251],[-123.312547,44.231374],[-123.31289,44.230761],[-123.313631,44.231374],[-123.314202,44.231088],[-123.314088,44.230597],[-123.314259,44.230393],[-123.315628,44.230801],[-123.316255,44.230597],[-123.314145,44.229739],[-123.315913,44.22933],[-123.315057,44.228962],[-123.31386,44.229044],[-123.313175,44.229616],[-123.312376,44.229126],[-123.312547,44.228308],[-123.312947,44.227859],[-123.313688,44.22745],[-123.314544,44.227204],[-123.314316,44.22561],[-123.31289,44.225733],[-123.311692,44.225569],[-123.309467,44.224997],[-123.308668,44.224384],[-123.306615,44.224098],[-123.304504,44.223239],[-123.303078,44.222381],[-123.302508,44.221359],[-123.302109,44.219601],[-123.302793,44.217312],[-123.303307,44.216208],[-123.303649,44.215635],[-123.303307,44.215431],[-123.304447,44.215227],[-123.304676,44.214613],[-123.305303,44.214532],[-123.306615,44.214286],[-123.306444,44.213428],[-123.307014,44.212406],[-123.307299,44.211383],[-123.307699,44.210852],[-123.308954,44.211138],[-123.309752,44.211056],[-123.309638,44.211874],[-123.309752,44.212692],[-123.31038,44.213305],[-123.310893,44.214082],[-123.31192,44.212896],[-123.312262,44.212365],[-123.313061,44.212038],[-123.314088,44.210934],[-123.315514,44.209911],[-123.316484,44.209625],[-123.317339,44.209584],[-123.315457,44.208399],[-123.315742,44.207376],[-123.315856,44.206804],[-123.316826,44.207008],[-123.318024,44.20709],[-123.317738,44.206534],[-123.317111,44.206534],[-123.316598,44.206166],[-123.317111,44.205839],[-123.317225,44.205471],[-123.317624,44.205144],[-123.317111,44.204612],[-123.317853,44.204081],[-123.318195,44.203958],[-123.317567,44.20359],[-123.317168,44.203794],[-123.316027,44.204081],[-123.315514,44.203958],[-123.3154,44.203508],[-123.315057,44.202854],[-123.316255,44.202445],[-123.315685,44.202118],[-123.314715,44.202281],[-123.313232,44.201136],[-123.312091,44.200605],[-123.311977,44.199828],[-123.311407,44.200032],[-123.309524,44.199255],[-123.309011,44.199255],[-123.307984,44.197783],[-123.30884,44.197578],[-123.309524,44.197701],[-123.311292,44.198151],[-123.31249,44.197987],[-123.31346,44.197701],[-123.314544,44.197946],[-123.315286,44.19766],[-123.316769,44.197865],[-123.318423,44.197865],[-123.319507,44.197987],[-123.320591,44.198396],[-123.320762,44.198805],[-123.321617,44.198805],[-123.322074,44.199255],[-123.322701,44.200196],[-123.323899,44.19946],[-123.325553,44.200032],[-123.324584,44.201504],[-123.325211,44.20175],[-123.325953,44.201095],[-123.326979,44.200605],[-123.327949,44.200482],[-123.328919,44.200605],[-123.329831,44.201422],[-123.330288,44.201954],[-123.330288,44.202772],[-123.330117,44.203713],[-123.328805,44.204162],[-123.329204,44.204367],[-123.329946,44.204653],[-123.33006,44.20543],[-123.330915,44.205307],[-123.331657,44.20543],[-123.332627,44.20588],[-123.33314,44.206493],[-123.333197,44.208251],[-123.333996,44.208415],[-123.334794,44.209028],[-123.33508,44.209805],[-123.335479,44.209519],[-123.33622,44.209396],[-123.337989,44.208947],[-123.337932,44.208579],[-123.338616,44.207965],[-123.337304,44.206452],[-123.337133,44.205225],[-123.336335,44.204735],[-123.336277,44.204121],[-123.335365,44.203385],[-123.334851,44.20224],[-123.334167,44.201382],[-123.333653,44.201136],[-123.333882,44.200768],[-123.332341,44.199132],[-123.33217,44.198682],[-123.331315,44.198437],[-123.330516,44.198069],[-123.329261,44.197701],[-123.32755,44.197415],[-123.326067,44.19676],[-123.325211,44.196188],[-123.324298,44.195656],[-123.323785,44.195002],[-123.323557,44.194552],[-123.322872,44.194675],[-123.322017,44.194184],[-123.32156,44.19357],[-123.320762,44.192957],[-123.320077,44.192671],[-123.319564,44.192221],[-123.319107,44.191403],[-123.319507,44.190953],[-123.31945,44.190012],[-123.319849,44.189071],[-123.320419,44.188539],[-123.320933,44.18813],[-123.321218,44.188008],[-123.322302,44.188621],[-123.322359,44.188253],[-123.323272,44.188621],[-123.323785,44.187599],[-123.324698,44.187926],[-123.325211,44.187517],[-123.323671,44.186535],[-123.324584,44.186249],[-123.325097,44.185963],[-123.324755,44.185022],[-123.323785,44.184163],[-123.325268,44.183672],[-123.326124,44.184245],[-123.326409,44.183467],[-123.327379,44.182936],[-123.327778,44.182077],[-123.328006,44.181381],[-123.327949,44.180808],[-123.327379,44.179908],[-123.32812,44.17954],[-123.329204,44.17909],[-123.328577,44.17864],[-123.327892,44.17909],[-123.326922,44.179213],[-123.326637,44.178387],[-123.325667,44.177814],[-123.324127,44.177732],[-123.323215,44.1772],[-123.323386,44.175809],[-123.323272,44.175114],[-123.323272,44.174541],[-123.323215,44.174091],[-123.322131,44.173927],[-123.322644,44.172782],[-123.322359,44.171415],[-123.322131,44.172782],[-123.321332,44.172495],[-123.321275,44.1736],[-123.320419,44.174295],[-123.319792,44.174214],[-123.319336,44.175114],[-123.318879,44.176218],[-123.317681,44.176668],[-123.317396,44.179491],[-123.316826,44.181046],[-123.316769,44.182027],[-123.315685,44.183296],[-123.314088,44.183132],[-123.313061,44.182191],[-123.313232,44.181168],[-123.313289,44.180228],[-123.313175,44.179532],[-123.312433,44.179655],[-123.312034,44.179287],[-123.311121,44.180146],[-123.310152,44.18035],[-123.308954,44.181087],[-123.306615,44.181332],[-123.304105,44.181782],[-123.302223,44.181823],[-123.302223,44.182477],[-123.300397,44.184236],[-123.299313,44.185054],[-123.296176,44.1862],[-123.29475,44.186854],[-123.291841,44.187591],[-123.291042,44.187877],[-123.289901,44.188],[-123.288932,44.188736],[-123.286251,44.189063],[-123.285281,44.189309],[-123.284083,44.189431],[-123.28317,44.189472],[-123.281459,44.188474],[-123.280946,44.187795],[-123.280832,44.187002],[-123.281402,44.186265],[-123.281516,44.185406],[-123.282315,44.184343],[-123.282771,44.183893],[-123.28317,44.183034],[-123.283398,44.181602],[-123.284368,44.181078],[-123.28511,44.180588],[-123.285737,44.180056],[-123.285908,44.178787],[-123.285509,44.177683],[-123.285452,44.176578],[-123.285965,44.175228],[-123.28665,44.174533],[-123.286764,44.174165],[-123.287277,44.17351],[-123.287677,44.173346],[-123.287563,44.172855],[-123.288475,44.17216],[-123.288932,44.171464],[-123.287277,44.170646],[-123.287848,44.169991],[-123.288247,44.169705],[-123.289388,44.16905],[-123.290187,44.1677],[-123.290985,44.16594],[-123.291327,44.164999],[-123.292468,44.164263],[-123.293324,44.163854],[-123.294522,44.162585],[-123.295606,44.162135],[-123.296404,44.16238],[-123.296518,44.161848],[-123.296461,44.16103],[-123.297146,44.159311],[-123.296689,44.158779],[-123.296861,44.157674],[-123.297203,44.157142],[-123.297374,44.156365],[-123.297659,44.155546],[-123.297659,44.154441],[-123.298458,44.154359],[-123.299028,44.154032],[-123.297887,44.153615]]]]}}]}