{"type":"FeatureCollection","features":[{"type":"Feature","properties":{"ava_id":"mcminnville","name":"McMinnville","aka":null,"created":"2005-03-21","removed":null,"county":"Yamhill","state":"OR","within":"Willamette Valley","contains":null,"petitioner":"Kevin Byrd","cfr_author":"Jennifer Berry","cfr_index":"9.181","cfr_revision_history":"[T.D. TTB-22, 70 FR 2804, Jan. 18, 2005]","approved_maps":"(1) McMinnville, Oregon, 1957, revised 1992; (2) Muddy Valley, Oregon, 1979, revised 1992; (3) Stony Mountain, Oregon, 1979, revised 1992; (4) Sheridan, Oregon, 1956, revised 1992; and (5) Ballston, Oregon, 1956, revised 1992.","boundary_description":"(1) The beginning point is on the McMinnville, Oregon, map where the 200-foot contour line intersects the common boundary between section 13, T4S, R5W, and section 18, T4S, R4W. From this point follow the meandering 200-foot contour line westerly for about 2 miles to its intersection with Baker Creek Road in section 54, T4W, R5W, on the Muddy Valley map; (2) Then follow Baker Creek Road west about 2 miles through Happy Valley to the road&#39;s intersection with Power House Hill Road in section 50, T4S, R5W (Muddy Valley map); (3) Proceed southwest on Power House Hill Road for about 1.4 miles to its intersection with Peavine Road in section 17, T4S, R5W (Muddy Valley map); (4) Follow Peavine Road west and then northwest about 1.5 miles to its intersection with Gill Creek in section 18, T4S, R5W (Muddy Valley map); (5) Follow Gill Creek southerly (downstream) for about 0.6 miles to its intersection with the 800-foot contour line in section 18, T4S, R5W, on the Muddy Valley map; (6) From Gill Creek, follow the meandering 800-foot contour line westerly, crossing Deer Creek in section 14, T4S, R6W, on the Stony Mountain map, and, crossing back and forth four times between the Stony Mountain and Muddy Valley maps in section 24, T4S, R6W, continue southwesterly to the contour line&#39;s intersection with Thomson Mill Road in section 27, T4S, R6W, on the Stony Mountain map; (7) Continue to follow the meandering 800-foot contour line southwesterly, crossing Cronin and Beaver Creeks, to the 800-foot contour line&#39;s intersection with Rock Creek Road in section 46, T5S, R6W, on the Stony Mountain map; (8) Then follow Rock Creek Road south for about 5 miles to its intersection with the West Valley Highway in section 44, T5S, R6W, on the Sheridan map, and continue about 200 feet due south in a straight line to from that intersection to the 200-foot contour line, just north of the Yamhill River (Sheridan map); (9) Then follow the meandering 200-foot contour line easterly, passing north of most of the village of Sheridan, crossing onto the Ballston map, and continue easterly and then northerly along the 200-foot contour line to its first intersection with Christensen Road at the common boundary between sections 27 and 34, T5S, R5W (Ballston map); (10) Continue to follow the 200-foot contour line westerly and then northerly, passing onto the Muddy Valley map and then the Stony Mountain map, to the contour line&#39;s intersection with Deer Creek in section 64, T5S, R6W (Stony Mountain map); (11) Cross Deer Creek and follow the 200-foot contour line southeasterly, crossing Dupree Creek in section 64, T5S, R6W, on the Muddy Valley map, and, crossing onto the Ballston map, continue southerly and then easterly along the 200-foot contour line to its intersection with State Route 18 at the hamlet of Bellevue, section 28, T5S, R5W (Ballston map); (12) Continue westerly then northerly along the meandering 200-foot contour line, crossing Latham Road at the northern boundary of section 53, T5S, R5W, and, crossing onto the Muddy Valley map, continue northerly along the 200-foot contour line to its intersection with Muddy Creek in section 40, T5S, R5W (Muddy Valley map); (13) Crossing Muddy Creek, follow the 200-foot contour line southerly, then easterly, and then northerly to its intersection with Peavine Road in the western extension of section 47, T4S, R5W (Muddy Valley map); (14) From Peavine Road, continue northeasterly along the meandering 200-foot contour line, crossing Cozine Creek in section 46, T4S, R5W, and, crossing onto the McMinnville map, follow the 200-foot contour line across Redmond Hill Road in section 44, T4S, R5W, and return to the point of beginning (McMinnville map)","used_maps":"(1) McMinnville, Oregon, 1957, revised 1992; (2) Muddy Valley, Oregon, 1979, revised 1992; (3) Stony Mountain, Oregon, 1979, revised 1992; (4) Sheridan, Oregon, 1956, revised 1992; and (5) Ballston, Oregon, 1956, revised 1992.","valid_start":null,"valid_end":null,"lcsh":null,"sameas":null,"ttb_name":"McMinnville","cfr_section":"27 CFR 9.181","counties":"Yamhill","boundary_source":"TTB AVA Map Explorer (AVAs_Production feature service)","boundary_retrieved":"2026-09-30"},"geometry":{"type":"MultiPolygon","coordinates":[[[[-123.238408,45.222142],[-123.237962,45.221912],[-123.236396,45.220547],[-123.235828,45.219705],[-123.234484,45.218808],[-123.232763,45.21738],[-123.231643,45.216626],[-123.231247,45.216558],[-123.231091,45.217033],[-123.230512,45.217317],[-123.229935,45.217305],[-123.229549,45.216976],[-123.22958,45.216022],[-123.228857,45.215867],[-123.22841,45.215649],[-123.227975,45.215657],[-123.227475,45.215892],[-123.227286,45.216376],[-123.225764,45.216143],[-123.225278,45.215877],[-123.223597,45.216142],[-123.222816,45.215998],[-123.22244,45.215678],[-123.22254,45.215114],[-123.223581,45.214506],[-123.223291,45.214191],[-123.222405,45.214092],[-123.221095,45.213636],[-123.219824,45.212385],[-123.219785,45.211882],[-123.220226,45.211069],[-123.221073,45.210485],[-123.221506,45.210078],[-123.221951,45.210052],[-123.22253,45.210453],[-123.222709,45.211253],[-123.223255,45.21187],[-123.223762,45.212571],[-123.224565,45.212492],[-123.224977,45.211914],[-123.22567,45.211881],[-123.226902,45.21155],[-123.227924,45.211704],[-123.229447,45.212218],[-123.230524,45.212669],[-123.231784,45.213273],[-123.232864,45.21296],[-123.234244,45.212367],[-123.235285,45.211578],[-123.235065,45.211414],[-123.234172,45.21108],[-123.23388,45.210391],[-123.233831,45.209246],[-123.234242,45.208268],[-123.234592,45.207286],[-123.235922,45.205756],[-123.236204,45.205167],[-123.23564,45.20497],[-123.235218,45.204531],[-123.235219,45.203849],[-123.236103,45.203473],[-123.236799,45.203761],[-123.2372,45.204191],[-123.237407,45.204896],[-123.237932,45.205029],[-123.239073,45.205662],[-123.239386,45.206158],[-123.239512,45.206937],[-123.240277,45.208109],[-123.241136,45.207984],[-123.242232,45.207566],[-123.243973,45.207475],[-123.244962,45.208286],[-123.24544,45.207574],[-123.245828,45.207496],[-123.245497,45.20716],[-123.244781,45.205453],[-123.245568,45.204909],[-123.245074,45.202107],[-123.244401,45.201575],[-123.244015,45.201056],[-123.244708,45.201165],[-123.245416,45.201695],[-123.248472,45.202265],[-123.250015,45.201668],[-123.250137,45.201019],[-123.249598,45.200383],[-123.24897,45.200144],[-123.248852,45.200054],[-123.248686,45.199773],[-123.248625,45.199343],[-123.24848,45.199189],[-123.248169,45.199099],[-123.247197,45.199212],[-123.246539,45.197916],[-123.246569,45.197257],[-123.24742,45.19738],[-123.248251,45.197926],[-123.249618,45.198133],[-123.25046,45.197525],[-123.250809,45.196441],[-123.251311,45.195472],[-123.25182,45.195133],[-123.25357,45.195279],[-123.25433,45.195409],[-123.255316,45.195459],[-123.256389,45.195329],[-123.257303,45.195549],[-123.257974,45.196023],[-123.258493,45.196073],[-123.258065,45.195833],[-123.25763,45.195436],[-123.256905,45.195182],[-123.256012,45.194953],[-123.255021,45.195081],[-123.254006,45.194773],[-123.252744,45.19427],[-123.252551,45.193416],[-123.253116,45.191857],[-123.254443,45.191318],[-123.255606,45.190517],[-123.257016,45.189766],[-123.258656,45.189156],[-123.259328,45.187774],[-123.260401,45.187717],[-123.260957,45.188448],[-123.26152,45.18893],[-123.262222,45.189074],[-123.263358,45.1894],[-123.263915,45.189946],[-123.264075,45.19047],[-123.263965,45.191527],[-123.263123,45.192166],[-123.262018,45.192297],[-123.26155,45.192602],[-123.262594,45.193259],[-123.265498,45.191764],[-123.267632,45.19071],[-123.269163,45.190509],[-123.271107,45.19058],[-123.272274,45.190743],[-123.272872,45.190899],[-123.272935,45.188995],[-123.273508,45.188491],[-123.273657,45.187931],[-123.272344,45.18757],[-123.270848,45.18695],[-123.270004,45.186212],[-123.268836,45.185934],[-123.26865,45.185368],[-123.269042,45.184787],[-123.268533,45.184041],[-123.268367,45.182858],[-123.268451,45.182265],[-123.267789,45.181196],[-123.267262,45.179812],[-123.266763,45.179413],[-123.26628,45.178312],[-123.266056,45.176707],[-123.266616,45.176051],[-123.268189,45.175946],[-123.2703,45.175733],[-123.272367,45.17629],[-123.273371,45.176098],[-123.273294,45.175728],[-123.273752,45.174968],[-123.274918,45.17469],[-123.276607,45.174664],[-123.278175,45.175496],[-123.279019,45.176449],[-123.280483,45.176186],[-123.282181,45.176402],[-123.283322,45.176404],[-123.284345,45.176557],[-123.285978,45.176991],[-123.285621,45.176675],[-123.284394,45.176366],[-123.283544,45.175968],[-123.282648,45.175159],[-123.282237,45.174311],[-123.281863,45.173989],[-123.28092,45.173289],[-123.280161,45.172603],[-123.279537,45.171953],[-123.27844,45.171656],[-123.278046,45.171467],[-123.277947,45.171128],[-123.278392,45.170564],[-123.278081,45.170224],[-123.277777,45.169218],[-123.278036,45.168264],[-123.278044,45.167154],[-123.278554,45.166526],[-123.278956,45.166338],[-123.278571,45.165659],[-123.2788,45.164692],[-123.280027,45.163563],[-123.280697,45.162814],[-123.281377,45.162465],[-123.282219,45.162532],[-123.282788,45.162494],[-123.281952,45.161898],[-123.281141,45.161113],[-123.28096,45.160278],[-123.281137,45.159682],[-123.280888,45.159499],[-123.280427,45.159064],[-123.280326,45.158196],[-123.280004,45.157155],[-123.279552,45.155926],[-123.279469,45.155166],[-123.279752,45.154463],[-123.279477,45.154194],[-123.279253,45.153494],[-123.279186,45.152932],[-123.279369,45.151701],[-123.279591,45.151227],[-123.280026,45.150794],[-123.280568,45.149707],[-123.28119,45.149183],[-123.281868,45.148312],[-123.282963,45.14746],[-123.284125,45.147104],[-123.285404,45.146856],[-123.286358,45.146443],[-123.287615,45.146322],[-123.288309,45.14646],[-123.289009,45.147108],[-123.289416,45.145621],[-123.288937,45.144857],[-123.289163,45.143297],[-123.28924,45.142196],[-123.289614,45.141597],[-123.289884,45.14032],[-123.290351,45.138751],[-123.291595,45.137575],[-123.292676,45.137234],[-123.296035,45.137133],[-123.29758,45.136907],[-123.298837,45.136895],[-123.299613,45.137066],[-123.302011,45.137096],[-123.304149,45.137398],[-123.305092,45.137191],[-123.30607,45.136792],[-123.307273,45.136825],[-123.308018,45.137095],[-123.308396,45.136429],[-123.30911,45.135347],[-123.309873,45.134921],[-123.310997,45.134728],[-123.31179,45.134958],[-123.312272,45.135691],[-123.312198,45.136277],[-123.312003,45.137279],[-123.312989,45.136313],[-123.31388,45.135929],[-123.314912,45.136209],[-123.315478,45.13708],[-123.315402,45.137811],[-123.31573,45.138481],[-123.316652,45.138642],[-123.31791,45.139323],[-123.318919,45.14088],[-123.319986,45.142768],[-123.319897,45.144196],[-123.318917,45.144961],[-123.31767,45.145035],[-123.317689,45.145704],[-123.321048,45.146268],[-123.321157,45.147027],[-123.321055,45.147991],[-123.32124,45.148375],[-123.321324,45.149861],[-123.321703,45.150167],[-123.322432,45.151242],[-123.322963,45.151383],[-123.323283,45.151881],[-123.323751,45.152378],[-123.323561,45.153233],[-123.323859,45.153822],[-123.323278,45.156029],[-123.323514,45.157194],[-123.322775,45.157908],[-123.322602,45.158453],[-123.322103,45.159385],[-123.323306,45.158187],[-123.324223,45.157539],[-123.324714,45.156174],[-123.324988,45.155114],[-123.325541,45.154589],[-123.325997,45.152148],[-123.32544,45.151816],[-123.324889,45.151256],[-123.324461,45.149818],[-123.324733,45.148498],[-123.325058,45.148024],[-123.324617,45.147402],[-123.3248,45.146337],[-123.324284,45.144107],[-123.324356,45.143649],[-123.323134,45.142935],[-123.322979,45.142006],[-123.323324,45.140546],[-123.322623,45.13777],[-123.32249,45.13603],[-123.322253,45.134503],[-123.322437,45.133004],[-123.323037,45.132349],[-123.322168,45.131582],[-123.320616,45.129502],[-123.319557,45.129631],[-123.318388,45.129583],[-123.317333,45.129059],[-123.316456,45.128291],[-123.316187,45.127061],[-123.31566,45.126715],[-123.315222,45.125989],[-123.315684,45.125368],[-123.316253,45.125005],[-123.31769,45.123914],[-123.319093,45.12343],[-123.317752,45.12333],[-123.317416,45.122929],[-123.316923,45.12221],[-123.316992,45.12181],[-123.31787,45.121416],[-123.319229,45.12143],[-123.319875,45.121678],[-123.321678,45.120263],[-123.322806,45.119831],[-123.322757,45.119259],[-123.323106,45.118585],[-123.324168,45.117942],[-123.325366,45.117748],[-123.326537,45.117874],[-123.327456,45.117847],[-123.328366,45.117348],[-123.329226,45.11676],[-123.330509,45.116267],[-123.331193,45.116139],[-123.332201,45.116178],[-123.333739,45.116379],[-123.335227,45.116741],[-123.335969,45.117663],[-123.335928,45.117091],[-123.335276,45.116492],[-123.334012,45.115966],[-123.332584,45.115625],[-123.332151,45.11517],[-123.330792,45.114414],[-123.329914,45.114041],[-123.329423,45.113875],[-123.328302,45.113842],[-123.327864,45.113709],[-123.327701,45.113569],[-123.327515,45.11328],[-123.327586,45.112643],[-123.327552,45.112171],[-123.327378,45.111926],[-123.327192,45.111849],[-123.326545,45.111866],[-123.326305,45.111982],[-123.326052,45.112166],[-123.32532,45.112382],[-123.324971,45.112619],[-123.324784,45.112849],[-123.324695,45.113054],[-123.324402,45.113335],[-123.323841,45.113587],[-123.323157,45.113752],[-123.322583,45.113827],[-123.322251,45.113939],[-123.321882,45.114176],[-123.321498,45.114679],[-123.321268,45.114878],[-123.319936,45.115613],[-123.319763,45.115673],[-123.318895,45.115747],[-123.317863,45.115723],[-123.317488,45.115636],[-123.317379,45.115514],[-123.317334,45.11539],[-123.31688,45.11548],[-123.317292,45.115191],[-123.317053,45.114542],[-123.316605,45.114246],[-123.316023,45.11439],[-123.315548,45.114775],[-123.315391,45.115651],[-123.315063,45.116279],[-123.314168,45.1167],[-123.313174,45.116682],[-123.312476,45.116437],[-123.312033,45.115905],[-123.311544,45.115471],[-123.310935,45.115536],[-123.310165,45.115675],[-123.30965,45.115961],[-123.308766,45.115984],[-123.307896,45.115749],[-123.30777,45.115032],[-123.307921,45.114098],[-123.309972,45.113276],[-123.311081,45.113169],[-123.313628,45.11191],[-123.315402,45.111103],[-123.316523,45.111186],[-123.317208,45.11112],[-123.31809,45.109674],[-123.317916,45.108853],[-123.318028,45.107999],[-123.320349,45.107341],[-123.324243,45.10823],[-123.324676,45.108501],[-123.325514,45.108193],[-123.327174,45.108382],[-123.328539,45.108836],[-123.329453,45.108591],[-123.330743,45.108552],[-123.331677,45.108835],[-123.332983,45.1091],[-123.333494,45.109419],[-123.333779,45.109468],[-123.334537,45.109246],[-123.335686,45.109555],[-123.3364,45.109458],[-123.337695,45.109429],[-123.339908,45.110417],[-123.340371,45.110224],[-123.340865,45.109918],[-123.341614,45.109622],[-123.343052,45.109663],[-123.343741,45.109257],[-123.344475,45.108995],[-123.345715,45.108803],[-123.346204,45.108478],[-123.347088,45.108115],[-123.348138,45.10788],[-123.348847,45.107811],[-123.349577,45.107833],[-123.350457,45.108153],[-123.350781,45.108526],[-123.350616,45.109205],[-123.350203,45.109837],[-123.350181,45.110098],[-123.351008,45.110909],[-123.351599,45.111669],[-123.352152,45.112658],[-123.352888,45.113057],[-123.354106,45.113881],[-123.355205,45.113843],[-123.356048,45.114003],[-123.356954,45.11376],[-123.357911,45.113866],[-123.358618,45.11331],[-123.359554,45.113128],[-123.360247,45.112708],[-123.36139,45.112504],[-123.36319,45.112803],[-123.364739,45.113436],[-123.365862,45.114356],[-123.36633,45.114826],[-123.367015,45.114877],[-123.367447,45.11501],[-123.367674,45.115733],[-123.368218,45.116395],[-123.367253,45.116696],[-123.367244,45.116987],[-123.367626,45.117519],[-123.367624,45.118116],[-123.368918,45.119416],[-123.36895,45.119718],[-123.368619,45.120391],[-123.368751,45.12114],[-123.368564,45.122734],[-123.368205,45.123375],[-123.368196,45.123516],[-123.369619,45.124234],[-123.370185,45.124842],[-123.370492,45.124564],[-123.370105,45.124062],[-123.369896,45.122884],[-123.37016,45.122043],[-123.370222,45.121625],[-123.370525,45.120344],[-123.370914,45.12009],[-123.370958,45.119938],[-123.370072,45.119365],[-123.36905,45.118526],[-123.368953,45.117913],[-123.369288,45.117234],[-123.369571,45.116488],[-123.369797,45.11537],[-123.369412,45.113826],[-123.369391,45.113371],[-123.369142,45.113136],[-123.368666,45.112494],[-123.368204,45.112236],[-123.367803,45.111912],[-123.368065,45.11141],[-123.36769,45.11096],[-123.367083,45.110551],[-123.36646,45.110074],[-123.365804,45.11022],[-123.365287,45.110416],[-123.364638,45.110367],[-123.364244,45.109782],[-123.363939,45.109473],[-123.363351,45.109145],[-123.362634,45.10893],[-123.36177,45.109187],[-123.361358,45.109533],[-123.360445,45.109928],[-123.35974,45.110453],[-123.358813,45.110533],[-123.356837,45.109814],[-123.356133,45.109123],[-123.355776,45.108614],[-123.355327,45.108098],[-123.354884,45.107446],[-123.354588,45.106623],[-123.354328,45.106423],[-123.353741,45.106088],[-123.353429,45.105346],[-123.352753,45.104382],[-123.352855,45.103885],[-123.351853,45.103455],[-123.351315,45.102788],[-123.350697,45.102391],[-123.349835,45.102492],[-123.349227,45.102786],[-123.348889,45.102778],[-123.347268,45.102074],[-123.346754,45.101621],[-123.346317,45.101691],[-123.344504,45.102132],[-123.343992,45.102155],[-123.343517,45.102056],[-123.342754,45.102818],[-123.342171,45.103021],[-123.341546,45.102714],[-123.339565,45.102919],[-123.338232,45.102536],[-123.3375,45.102795],[-123.336396,45.102978],[-123.335085,45.103094],[-123.334024,45.103098],[-123.333113,45.102858],[-123.332393,45.102547],[-123.331686,45.102477],[-123.330675,45.102644],[-123.329927,45.102636],[-123.329425,45.102467],[-123.329105,45.102149],[-123.328924,45.101608],[-123.328381,45.101438],[-123.326594,45.101946],[-123.325932,45.102057],[-123.325534,45.102017],[-123.324825,45.102051],[-123.323385,45.101701],[-123.323153,45.10147],[-123.32294,45.100892],[-123.322483,45.100822],[-123.321726,45.100606],[-123.321118,45.100243],[-123.320717,45.100101],[-123.320249,45.100136],[-123.319879,45.100432],[-123.318815,45.101095],[-123.318531,45.10148],[-123.318373,45.101553],[-123.317876,45.101531],[-123.317479,45.101435],[-123.317078,45.101217],[-123.31634,45.100635],[-123.316298,45.099966],[-123.316105,45.099742],[-123.315648,45.09959],[-123.315242,45.099779],[-123.314885,45.100346],[-123.31453,45.101449],[-123.314229,45.101571],[-123.311885,45.101494],[-123.311506,45.101373],[-123.311287,45.100994],[-123.311051,45.100892],[-123.310266,45.10133],[-123.309734,45.101384],[-123.309423,45.101543],[-123.309354,45.102025],[-123.308907,45.102488],[-123.308285,45.102981],[-123.307891,45.103092],[-123.307455,45.102822],[-123.307131,45.102823],[-123.306638,45.103057],[-123.306188,45.103046],[-123.305766,45.102772],[-123.305576,45.102521],[-123.305449,45.101989],[-123.305537,45.101746],[-123.305888,45.101126],[-123.305943,45.100505],[-123.307195,45.099036],[-123.307188,45.098968],[-123.306825,45.099031],[-123.306476,45.099297],[-123.305802,45.099721],[-123.304847,45.100066],[-123.303803,45.100907],[-123.303214,45.101608],[-123.302714,45.102851],[-123.302534,45.103451],[-123.301792,45.103854],[-123.301388,45.103992],[-123.300104,45.10418],[-123.299585,45.104361],[-123.298821,45.104365],[-123.298616,45.10433],[-123.298387,45.104214],[-123.298081,45.10424],[-123.297748,45.104373],[-123.296906,45.104517],[-123.29667,45.104438],[-123.296428,45.104547],[-123.295882,45.104575],[-123.295706,45.104693],[-123.295467,45.10471],[-123.294979,45.104637],[-123.294763,45.104562],[-123.294657,45.104485],[-123.29455,45.104295],[-123.294194,45.104175],[-123.294131,45.104424],[-123.293951,45.104549],[-123.293714,45.104524],[-123.293729,45.104723],[-123.293664,45.10483],[-123.293537,45.104883],[-123.293386,45.104704],[-123.293476,45.1045],[-123.293629,45.10439],[-123.293671,45.104317],[-123.29357,45.10414],[-123.293332,45.104106],[-123.292827,45.104622],[-123.292611,45.104609],[-123.292204,45.104411],[-123.29205,45.104161],[-123.291845,45.104107],[-123.291651,45.103952],[-123.290922,45.103722],[-123.290863,45.10367],[-123.291004,45.103564],[-123.291428,45.103519],[-123.291578,45.103333],[-123.291777,45.103205],[-123.292305,45.10312],[-123.292223,45.102937],[-123.292427,45.10273],[-123.29274,45.102531],[-123.293114,45.102457],[-123.294248,45.10194],[-123.295023,45.101417],[-123.295513,45.100896],[-123.295478,45.100463],[-123.295264,45.099075],[-123.294897,45.098857],[-123.294484,45.098535],[-123.294171,45.097803],[-123.294078,45.096852],[-123.293657,45.09644],[-123.293324,45.096019],[-123.293144,45.095324],[-123.293344,45.094276],[-123.293905,45.093587],[-123.2944,45.092802],[-123.294871,45.092498],[-123.294951,45.091832],[-123.294778,45.091254],[-123.295514,45.090693],[-123.296996,45.090442],[-123.298329,45.090332],[-123.298846,45.090517],[-123.299368,45.090382],[-123.300051,45.089875],[-123.301704,45.089497],[-123.302688,45.089611],[-123.3031,45.089824],[-123.303413,45.089586],[-123.304321,45.089439],[-123.305955,45.089501],[-123.307778,45.089934],[-123.308605,45.090292],[-123.309439,45.090529],[-123.310637,45.090777],[-123.311285,45.091176],[-123.311701,45.091484],[-123.313086,45.091679],[-123.313965,45.091674],[-123.315394,45.091434],[-123.316062,45.091074],[-123.317955,45.091009],[-123.320394,45.091098],[-123.32245,45.091406],[-123.324248,45.092141],[-123.325502,45.092749],[-123.327301,45.09325],[-123.330864,45.0929],[-123.332941,45.093037],[-123.334187,45.09345],[-123.335536,45.093741],[-123.337937,45.094625],[-123.339295,45.095529],[-123.341318,45.096186],[-123.342888,45.096323],[-123.343955,45.096281],[-123.345543,45.095977],[-123.346692,45.095827],[-123.347375,45.095446],[-123.348583,45.095214],[-123.350066,45.095361],[-123.350671,45.095925],[-123.351735,45.095802],[-123.352938,45.095755],[-123.35534,45.096335],[-123.356688,45.09686],[-123.358384,45.096812],[-123.360015,45.09671],[-123.362352,45.096316],[-123.365637,45.095921],[-123.366891,45.09573],[-123.369437,45.095107],[-123.370328,45.09527],[-123.370971,45.095215],[-123.371832,45.095807],[-123.373351,45.096167],[-123.375015,45.09639],[-123.376102,45.096309],[-123.378355,45.096492],[-123.380685,45.097158],[-123.382489,45.097627],[-123.383852,45.098152],[-123.384522,45.098734],[-123.384594,45.09955],[-123.384774,45.099919],[-123.385525,45.10023],[-123.386382,45.100276],[-123.387633,45.101225],[-123.388628,45.102319],[-123.390536,45.10304],[-123.392834,45.1035],[-123.395072,45.10448],[-123.39674,45.104817],[-123.397433,45.103938],[-123.397801,45.10365],[-123.398792,45.103435],[-123.400826,45.103183],[-123.401594,45.102997],[-123.40223,45.102111],[-123.403121,45.101745],[-123.404347,45.101076],[-123.405658,45.100832],[-123.406529,45.100747],[-123.407262,45.100503],[-123.407726,45.099884],[-123.408474,45.099717],[-123.409071,45.09978],[-123.409928,45.100274],[-123.410891,45.100322],[-123.411805,45.100461],[-123.412627,45.10038],[-123.415787,45.099015],[-123.417638,45.098433],[-123.41847,45.097465],[-123.418969,45.096947],[-123.420205,45.095844],[-123.422664,45.09454],[-123.425781,45.09426],[-123.426626,45.094732],[-123.427515,45.095099],[-123.4274,45.095397],[-123.427468,45.095665],[-123.427476,45.095881],[-123.42739,45.107482],[-123.427499,45.107665],[-123.42773,45.107784],[-123.431567,45.108637],[-123.431876,45.108756],[-123.43205,45.10894],[-123.432102,45.109169],[-123.43226,45.113026],[-123.432304,45.113173],[-123.43249,45.113432],[-123.433182,45.113958],[-123.433335,45.114209],[-123.433336,45.114339],[-123.433201,45.114575],[-123.432491,45.115329],[-123.432404,45.115464],[-123.432317,45.11575],[-123.432339,45.115897],[-123.432585,45.116349],[-123.434692,45.119737],[-123.434924,45.120063],[-123.43589,45.120918],[-123.43651,45.121692],[-123.436883,45.122051],[-123.43723,45.122172],[-123.437425,45.122188],[-123.438762,45.122132],[-123.439218,45.12221],[-123.439626,45.122367],[-123.440949,45.123293],[-123.444405,45.125843],[-123.44466,45.126119],[-123.444744,45.126271],[-123.445429,45.127773],[-123.445632,45.128063],[-123.446251,45.128517],[-123.446448,45.128764],[-123.446524,45.129051],[-123.446574,45.130629],[-123.446733,45.131119],[-123.446967,45.131402],[-123.448285,45.132639],[-123.448757,45.132933],[-123.450479,45.133594],[-123.450965,45.133711],[-123.452009,45.133855],[-123.452726,45.134009],[-123.453135,45.13419],[-123.453885,45.134606],[-123.454531,45.134864],[-123.455286,45.135064],[-123.456543,45.135195],[-123.457584,45.135395],[-123.458356,45.135609],[-123.459382,45.135836],[-123.460084,45.136045],[-123.460663,45.136388],[-123.461669,45.137249],[-123.462211,45.137603],[-123.462482,45.13789],[-123.462971,45.138663],[-123.46301,45.138836],[-123.464189,45.139796],[-123.464455,45.140057],[-123.464765,45.140619],[-123.464736,45.140763],[-123.464606,45.140957],[-123.464602,45.141122],[-123.464755,45.141614],[-123.464971,45.141901],[-123.46539,45.142275],[-123.46553,45.142506],[-123.4655,45.142617],[-123.465079,45.143181],[-123.46498,45.143374],[-123.464855,45.14379],[-123.464776,45.144167],[-123.464713,45.146347],[-123.464241,45.148517],[-123.464066,45.148991],[-123.463767,45.149584],[-123.463584,45.149808],[-123.463536,45.150001],[-123.463949,45.151321],[-123.463833,45.151354],[-123.462937,45.150097],[-123.461163,45.149223],[-123.462653,45.148408],[-123.463427,45.147676],[-123.461688,45.147105],[-123.462279,45.146476],[-123.462462,45.146068],[-123.461631,45.145643],[-123.461178,45.145467],[-123.461453,45.145189],[-123.461927,45.144282],[-123.461393,45.143361],[-123.46043,45.142916],[-123.460538,45.142708],[-123.461902,45.142161],[-123.462105,45.140873],[-123.462675,45.14033],[-123.462748,45.139642],[-123.461911,45.138849],[-123.460787,45.138262],[-123.460095,45.138118],[-123.458748,45.137717],[-123.457622,45.13796],[-123.456923,45.137912],[-123.456095,45.138094],[-123.455574,45.138431],[-123.454886,45.138121],[-123.453816,45.137428],[-123.452692,45.137297],[-123.452077,45.137582],[-123.452263,45.13818],[-123.453449,45.138916],[-123.453723,45.139853],[-123.453305,45.140634],[-123.453238,45.141356],[-123.453653,45.141924],[-123.454356,45.14234],[-123.454572,45.143109],[-123.455635,45.143128],[-123.456147,45.143349],[-123.456065,45.143994],[-123.455731,45.144239],[-123.455518,45.144883],[-123.454782,45.145323],[-123.454774,45.145821],[-123.455689,45.145986],[-123.456058,45.146303],[-123.455135,45.14709],[-123.454833,45.147673],[-123.455296,45.148032],[-123.456484,45.14809],[-123.457297,45.148304],[-123.457624,45.14955],[-123.457182,45.149892],[-123.456837,45.150637],[-123.455781,45.151556],[-123.456147,45.15302],[-123.455226,45.153098],[-123.454393,45.152969],[-123.453245,45.153358],[-123.452537,45.154236],[-123.45222,45.154874],[-123.451584,45.155679],[-123.450381,45.153066],[-123.449381,45.153398],[-123.448437,45.153567],[-123.447668,45.152709],[-123.446758,45.152955],[-123.445817,45.153066],[-123.445828,45.152335],[-123.446165,45.151795],[-123.446923,45.151275],[-123.447121,45.150481],[-123.448586,45.149534],[-123.447875,45.148567],[-123.445964,45.14892],[-123.444321,45.149748],[-123.443665,45.149894],[-123.443149,45.149257],[-123.442869,45.149161],[-123.443274,45.148615],[-123.443474,45.14822],[-123.443471,45.147947],[-123.442778,45.147653],[-123.441495,45.14808],[-123.440987,45.148753],[-123.439449,45.149847],[-123.439042,45.150649],[-123.440908,45.151387],[-123.440084,45.152342],[-123.440952,45.153253],[-123.440648,45.154295],[-123.441342,45.154469],[-123.441559,45.155076],[-123.442384,45.156031],[-123.442254,45.157593],[-123.441906,45.15742],[-123.440648,45.156248],[-123.43965,45.15551],[-123.439129,45.154599],[-123.438478,45.154295],[-123.437176,45.154208],[-123.437176,45.152646],[-123.4357,45.152516],[-123.436308,45.151951],[-123.436134,45.151821],[-123.435657,45.150823],[-123.434615,45.149434],[-123.433747,45.14874],[-123.43327,45.14861],[-123.43314,45.148219],[-123.432619,45.147829],[-123.432142,45.147394],[-123.431838,45.146787],[-123.430623,45.145962],[-123.429581,45.145832],[-123.428974,45.145398],[-123.427758,45.145268],[-123.42689,45.144964],[-123.426153,45.145398],[-123.426066,45.145832],[-123.426456,45.146874],[-123.425024,45.146657],[-123.423722,45.147177],[-123.422724,45.147525],[-123.421986,45.147568],[-123.42025,45.147221],[-123.419556,45.147308],[-123.41828,45.146679],[-123.417144,45.146721],[-123.416358,45.145741],[-123.415422,45.145612],[-123.41468,45.145583],[-123.413892,45.145175],[-123.411657,45.144259],[-123.41018,45.144253],[-123.409671,45.144281],[-123.408928,45.143344],[-123.408093,45.142971],[-123.406317,45.142761],[-123.40475,45.143706],[-123.404344,45.144192],[-123.402933,45.144125],[-123.401722,45.143838],[-123.399536,45.144146],[-123.399235,45.145241],[-123.398622,45.145983],[-123.39843,45.146842],[-123.398785,45.147114],[-123.399938,45.147198],[-123.400746,45.147446],[-123.401379,45.147699],[-123.402374,45.148335],[-123.402992,45.148666],[-123.403132,45.14944],[-123.405062,45.149814],[-123.405847,45.15],[-123.40629,45.149876],[-123.406803,45.149533],[-123.407325,45.149585],[-123.408581,45.149365],[-123.409618,45.149713],[-123.410562,45.149739],[-123.411786,45.148886],[-123.413278,45.148832],[-123.413258,45.149506],[-123.413685,45.150145],[-123.41475,45.150564],[-123.415167,45.151035],[-123.414155,45.15184],[-123.41386,45.152701],[-123.415638,45.153409],[-123.416355,45.153593],[-123.417307,45.154024],[-123.418312,45.15432],[-123.420075,45.154171],[-123.420802,45.154322],[-123.422831,45.153867],[-123.424792,45.153694],[-123.424184,45.154567],[-123.42613,45.155403],[-123.426882,45.155806],[-123.428117,45.156157],[-123.428796,45.156443],[-123.430198,45.156576],[-123.429981,45.156976],[-123.430762,45.158673],[-123.430971,45.159002],[-123.431334,45.159851],[-123.431554,45.160573],[-123.433271,45.161212],[-123.436066,45.161781],[-123.43666,45.161978],[-123.433672,45.162111],[-123.432916,45.162526],[-123.432852,45.16347],[-123.432217,45.162948],[-123.431702,45.162298],[-123.430679,45.161987],[-123.429743,45.163005],[-123.429259,45.163849],[-123.428533,45.16493],[-123.427631,45.165893],[-123.426925,45.166491],[-123.426625,45.16598],[-123.428631,45.162647],[-123.428264,45.162156],[-123.428562,45.161819],[-123.428646,45.160637],[-123.428016,45.159921],[-123.425237,45.158865],[-123.423713,45.158042],[-123.423003,45.157833],[-123.421824,45.15843],[-123.421706,45.159544],[-123.421579,45.159863],[-123.420984,45.159366],[-123.420319,45.158528],[-123.419015,45.158209],[-123.418307,45.158419],[-123.416928,45.158143],[-123.41609,45.158565],[-123.415245,45.158499],[-123.41456,45.157935],[-123.410791,45.157031],[-123.410452,45.157582],[-123.411486,45.159352],[-123.412356,45.160637],[-123.413067,45.161125],[-123.412263,45.1614],[-123.41173,45.162151],[-123.412009,45.162965],[-123.411769,45.16375],[-123.410872,45.16517],[-123.409896,45.166263],[-123.408893,45.165833],[-123.406875,45.164773],[-123.405949,45.164698],[-123.405337,45.165676],[-123.404732,45.165572],[-123.403755,45.165958],[-123.402962,45.166717],[-123.402468,45.167286],[-123.402005,45.168059],[-123.402176,45.168626],[-123.40218,45.16967],[-123.402289,45.170178],[-123.402805,45.170224],[-123.403869,45.16924],[-123.40629,45.168621],[-123.40657,45.16918],[-123.407157,45.169586],[-123.407271,45.170178],[-123.40805,45.170719],[-123.408468,45.170245],[-123.409022,45.168654],[-123.410652,45.168621],[-123.411687,45.169112],[-123.413386,45.168839],[-123.41433,45.168456],[-123.416428,45.168784],[-123.417577,45.169784],[-123.417125,45.170809],[-123.418057,45.17144],[-123.419079,45.171551],[-123.419964,45.170935],[-123.42049,45.170907],[-123.421608,45.17074],[-123.422788,45.171121],[-123.424158,45.171],[-123.425459,45.171485],[-123.425432,45.171987],[-123.425328,45.172788],[-123.425623,45.173732],[-123.424712,45.174875],[-123.424097,45.175731],[-123.423508,45.175986],[-123.422652,45.176017],[-123.421931,45.176314],[-123.421687,45.176883],[-123.421752,45.177241],[-123.421816,45.178029],[-123.42194,45.178781],[-123.422082,45.179372],[-123.422111,45.180139],[-123.421901,45.180117],[-123.421648,45.179398],[-123.420865,45.178268],[-123.420447,45.177762],[-123.420167,45.177299],[-123.419731,45.176777],[-123.419135,45.176358],[-123.41876,45.176457],[-123.416968,45.177967],[-123.416561,45.178259],[-123.416246,45.178285],[-123.416101,45.178117],[-123.416944,45.176242],[-123.416596,45.176205],[-123.416179,45.176358],[-123.415143,45.177085],[-123.414617,45.177652],[-123.414517,45.178096],[-123.414702,45.178641],[-123.413445,45.179335],[-123.412482,45.179328],[-123.411756,45.17939],[-123.411091,45.179622],[-123.410958,45.179954],[-123.412075,45.180812],[-123.411735,45.181445],[-123.411774,45.181849],[-123.411661,45.182112],[-123.411575,45.182578],[-123.410813,45.182625],[-123.41028,45.182456],[-123.409173,45.182298],[-123.408619,45.182417],[-123.407906,45.181998],[-123.407447,45.1815],[-123.406489,45.180769],[-123.406189,45.180628],[-123.405719,45.180276],[-123.405177,45.180027],[-123.404476,45.179579],[-123.403746,45.179508],[-123.403089,45.179119],[-123.402705,45.178373],[-123.402057,45.177863],[-123.401419,45.177809],[-123.401028,45.177945],[-123.400733,45.178478],[-123.401519,45.179333],[-123.401254,45.180237],[-123.40151,45.180504],[-123.402263,45.180643],[-123.402972,45.18071],[-123.403352,45.180981],[-123.403919,45.181022],[-123.40428,45.180944],[-123.404702,45.181026],[-123.404942,45.181432],[-123.405237,45.18175],[-123.4059,45.181633],[-123.406554,45.182131],[-123.406904,45.182465],[-123.406708,45.183545],[-123.407116,45.183764],[-123.407582,45.183743],[-123.408244,45.183869],[-123.408795,45.184237],[-123.409475,45.184127],[-123.410389,45.184319],[-123.41111,45.184925],[-123.41117,45.185256],[-123.411266,45.185521],[-123.411532,45.185663],[-123.411923,45.1856],[-123.412385,45.18547],[-123.413728,45.185818],[-123.413814,45.186282],[-123.414142,45.186522],[-123.413995,45.18681],[-123.413866,45.187303],[-123.414089,45.187909],[-123.41433,45.188336],[-123.413908,45.18868],[-123.413588,45.189045],[-123.412716,45.189122],[-123.412161,45.189311],[-123.411822,45.189586],[-123.412007,45.189917],[-123.412498,45.190208],[-123.412409,45.190631],[-123.412463,45.191116],[-123.411898,45.191455],[-123.411547,45.191781],[-123.411154,45.19245],[-123.409143,45.192583],[-123.408485,45.192491],[-123.407887,45.192532],[-123.407824,45.192939],[-123.407178,45.193871],[-123.404954,45.194633],[-123.402108,45.194352],[-123.400884,45.193999],[-123.400297,45.19377],[-123.398374,45.19321],[-123.397517,45.193761],[-123.395685,45.194188],[-123.395419,45.194674],[-123.396302,45.195584],[-123.395938,45.195735],[-123.394509,45.196186],[-123.393199,45.196002],[-123.392684,45.196365],[-123.392988,45.197209],[-123.394363,45.198405],[-123.395145,45.198994],[-123.396042,45.200216],[-123.393282,45.199372],[-123.392054,45.199171],[-123.391335,45.199421],[-123.390711,45.200531],[-123.390896,45.200721],[-123.391169,45.20113],[-123.391208,45.201747],[-123.392546,45.202021],[-123.39367,45.202512],[-123.394515,45.202769],[-123.395571,45.202693],[-123.396031,45.203189],[-123.394335,45.204324],[-123.393859,45.203963],[-123.39304,45.203606],[-123.391872,45.203514],[-123.390741,45.203882],[-123.390337,45.204656],[-123.390792,45.205813],[-123.389013,45.205692],[-123.388584,45.206922],[-123.387946,45.206513],[-123.387613,45.205656],[-123.387176,45.20492],[-123.38758,45.204206],[-123.387965,45.203364],[-123.38781,45.202597],[-123.386502,45.202059],[-123.385556,45.202184],[-123.384844,45.202817],[-123.383898,45.203341],[-123.382164,45.203833],[-123.380311,45.203966],[-123.377128,45.205489],[-123.376776,45.206051],[-123.376017,45.206635],[-123.375015,45.207157],[-123.375718,45.207549],[-123.376991,45.208101],[-123.377747,45.208753],[-123.378776,45.209284],[-123.379583,45.209519],[-123.379049,45.209968],[-123.377716,45.209936],[-123.376561,45.2101],[-123.375597,45.209763],[-123.374309,45.209745],[-123.373821,45.210019],[-123.374362,45.211605],[-123.374499,45.21279],[-123.373741,45.213531],[-123.372882,45.214062],[-123.373063,45.21493],[-123.373768,45.215127],[-123.375015,45.215689],[-123.375766,45.216087],[-123.377501,45.216384],[-123.378637,45.215444],[-123.379422,45.21532],[-123.38005,45.217321],[-123.381228,45.218549],[-123.38325,45.218628],[-123.385802,45.219339],[-123.385611,45.220152],[-123.388359,45.222798],[-123.38876,45.223612],[-123.389595,45.224424],[-123.389436,45.22502],[-123.38912,45.224747],[-123.386486,45.223435],[-123.385726,45.222617],[-123.383398,45.221873],[-123.382427,45.221117],[-123.379284,45.22095],[-123.375015,45.220812],[-123.375015,45.227006],[-123.374737,45.227304],[-123.374619,45.227511],[-123.374583,45.227736],[-123.374601,45.2284],[-123.374557,45.228596],[-123.374488,45.228724],[-123.374066,45.229137],[-123.373828,45.229489],[-123.373643,45.229671],[-123.372974,45.229896],[-123.37291,45.229833],[-123.372898,45.229699],[-123.373131,45.228795],[-123.373144,45.228579],[-123.373113,45.228416],[-123.372984,45.228232],[-123.372593,45.228011],[-123.372479,45.227888],[-123.372335,45.227147],[-123.372158,45.226667],[-123.371461,45.225401],[-123.370851,45.224107],[-123.370371,45.223457],[-123.370339,45.223292],[-123.370372,45.222822],[-123.370322,45.22252],[-123.370118,45.22194],[-123.369982,45.221409],[-123.369905,45.221259],[-123.369807,45.221151],[-123.36968,45.221082],[-123.369496,45.221062],[-123.369301,45.221112],[-123.369142,45.221218],[-123.368902,45.221495],[-123.368761,45.221568],[-123.368575,45.221783],[-123.368397,45.221839],[-123.368217,45.221692],[-123.367802,45.221057],[-123.367507,45.220744],[-123.367178,45.220492],[-123.366872,45.220339],[-123.366521,45.220258],[-123.366231,45.220239],[-123.365773,45.22027],[-123.365066,45.220467],[-123.363701,45.221102],[-123.363408,45.22134],[-123.363147,45.221739],[-123.362991,45.22189],[-123.362794,45.221981],[-123.36215,45.222158],[-123.361756,45.222378],[-123.361503,45.222593],[-123.361375,45.222758],[-123.361226,45.223428],[-123.361176,45.22351],[-123.361065,45.22357],[-123.360434,45.223562],[-123.360049,45.223641],[-123.359918,45.223638],[-123.359772,45.223569],[-123.35936,45.223183],[-123.359065,45.222992],[-123.358322,45.222747],[-123.357972,45.222668],[-123.357684,45.222663],[-123.357399,45.222708],[-123.35718,45.222778],[-123.356906,45.222929],[-123.356604,45.223223],[-123.355853,45.224103],[-123.355848,45.225239],[-123.356144,45.226047],[-123.356777,45.226988],[-123.356452,45.227867],[-123.35539,45.229305],[-123.354259,45.229844],[-123.352607,45.231122],[-123.351675,45.231028],[-123.350786,45.230355],[-123.350409,45.229251],[-123.349709,45.22839],[-123.349736,45.22769],[-123.348982,45.225589],[-123.348228,45.224674],[-123.347744,45.223812],[-123.343624,45.222978],[-123.342682,45.222951],[-123.342493,45.222628],[-123.342251,45.222009],[-123.341847,45.221739],[-123.341013,45.221443],[-123.340232,45.221255],[-123.339128,45.221282],[-123.338374,45.221362],[-123.337862,45.221093],[-123.337674,45.220851],[-123.337055,45.220689],[-123.336032,45.220205],[-123.335412,45.220043],[-123.334685,45.219935],[-123.33342,45.219424],[-123.332585,45.219289],[-123.331512,45.218334],[-123.330196,45.218651],[-123.329825,45.218819],[-123.329639,45.218972],[-123.329423,45.219048],[-123.329137,45.219066],[-123.328924,45.218937],[-123.328496,45.218779],[-123.327709,45.218914],[-123.327236,45.218903],[-123.326838,45.218815],[-123.326297,45.218886],[-123.325991,45.219021],[-123.325928,45.219087],[-123.325907,45.219241],[-123.326101,45.219477],[-123.326295,45.219622],[-123.326048,45.220199],[-123.325632,45.220489],[-123.324937,45.221084],[-123.324899,45.221208],[-123.324923,45.221302],[-123.325041,45.221391],[-123.325924,45.221745],[-123.325965,45.221832],[-123.325932,45.22192],[-123.322913,45.223744],[-123.321321,45.224887],[-123.321048,45.225131],[-123.320801,45.225704],[-123.320646,45.225937],[-123.320213,45.226325],[-123.320037,45.22653],[-123.31986,45.226858],[-123.319684,45.22752],[-123.319455,45.22763],[-123.31863,45.227375],[-123.31735,45.227077],[-123.316988,45.226929],[-123.316323,45.226801],[-123.316053,45.226674],[-123.315733,45.226437],[-123.315421,45.225994],[-123.315281,45.225874],[-123.314944,45.225692],[-123.314768,45.225666],[-123.314538,45.225766],[-123.314474,45.225892],[-123.314453,45.226237],[-123.314359,45.226388],[-123.314083,45.226579],[-123.313736,45.226681],[-123.313356,45.226678],[-123.313075,45.226512],[-123.312696,45.226407],[-123.311233,45.226245],[-123.31009,45.226241],[-123.309815,45.22614],[-123.309444,45.225905],[-123.308652,45.225749],[-123.308424,45.225598],[-123.308121,45.225101],[-123.307855,45.224895],[-123.307142,45.224622],[-123.306374,45.224231],[-123.30592,45.22408],[-123.305498,45.223986],[-123.303871,45.223749],[-123.30364,45.223568],[-123.303511,45.223515],[-123.303032,45.223402],[-123.302014,45.223388],[-123.300821,45.223141],[-123.298568,45.223006],[-123.298378,45.223031],[-123.298038,45.223168],[-123.296762,45.224006],[-123.29643,45.224314],[-123.295104,45.225724],[-123.29496,45.225817],[-123.29458,45.225959],[-123.288051,45.228024],[-123.287278,45.228235],[-123.286211,45.228441],[-123.283984,45.228702],[-123.28133,45.229184],[-123.278035,45.229728],[-123.277356,45.229008],[-123.276343,45.228719],[-123.275995,45.228256],[-123.275358,45.227126],[-123.274519,45.226316],[-123.273824,45.226142],[-123.273476,45.225245],[-123.273071,45.225708],[-123.272608,45.226113],[-123.271739,45.226258],[-123.270899,45.225939],[-123.270089,45.225447],[-123.269423,45.225302],[-123.268728,45.225071],[-123.267859,45.223826],[-123.267888,45.223305],[-123.267454,45.222928],[-123.267193,45.222262],[-123.267193,45.221741],[-123.265138,45.221625],[-123.264385,45.221394],[-123.263661,45.221104],[-123.263401,45.220931],[-123.2623,45.221133],[-123.261113,45.221017],[-123.26039,45.221249],[-123.259724,45.221394],[-123.258681,45.221075],[-123.258044,45.220988],[-123.256677,45.221299],[-123.25553,45.221488],[-123.254888,45.221687],[-123.253829,45.221829],[-123.253514,45.221933],[-123.253039,45.22222],[-123.251919,45.22269],[-123.251173,45.222691],[-123.250015,45.222402],[-123.248877,45.222198],[-123.2482,45.222313],[-123.247447,45.222367],[-123.24694,45.222254],[-123.246539,45.223161],[-123.246424,45.223301],[-123.24615,45.223468],[-123.245668,45.223549],[-123.244844,45.223572],[-123.24415,45.223491],[-123.243007,45.223133],[-123.242427,45.222906],[-123.241902,45.222887],[-123.241717,45.222845],[-123.241535,45.222742],[-123.241253,45.22246],[-123.240833,45.222291],[-123.240146,45.2222],[-123.239012,45.222241],[-123.238408,45.222142]]]]}}]}