{"type":"FeatureCollection","features":[{"type":"Feature","properties":{"ava_id":"mount_pisgah__polk_county__oregon","name":"Mount Pisgah, Polk County, Oregon","aka":"Mt. Pisgah, Polk County, Oregon","created":"2022-06-03","removed":null,"county":"Polk","state":"OR","within":"Willamette Valley","contains":null,"petitioner":"Representatives of the vineyards and wineries within the proposed Mount Pisgah, Polk County, Oregon","cfr_author":"Mary G.  Ryan","cfr_index":"9.284","cfr_revision_history":"[T.D. TTB-180, 87 FR 33642, June 3, 2022]","approved_maps":"(1) Dallas,  OR,  2014; (2) Airlie North,  OR,  2014","boundary_description":"(1) The beginning point is on the Dallas map at the point where the 320-foot elevation contour intersects Mistletoe Road south of the unnamed road known locally as SE Lewis Street. From the beginning point, proceed south along Mistletoe Road for approximately 2 miles to the road's second intersection with the 740-foot elevation contour; then \n\n(2) Proceed due west approximately 0.5 miles to the 400-foot elevation contour; then \n\n(3) Proceed south along the 400-foot elevation contour, crossing onto the Airlie North map, to the contour's intersection with Cooper Hollow Road near Fisher Reservoir; then \n\n(4) Proceed southeasterly along Cooper Hollow Road to its intersection with McCaleb Road; then \n\n(5) Proceed east, then northeast, then east along McCaleb Road for approximately 1.6 miles to its intersection with Mistletoe Road and the 260-foot elevation contour; then \n\n(6) Proceed easterly along the 260-foot elevation contour until it intersects again with Mistletoe Road; then \n\n(7) Proceed east along Mistletoe Road for 0.3 mile to its intersection with Matney Road; then \n\n(8) Proceed north along Matney Road for 0.6 mile to its intersection with the 260-foot elevation contour at a 90 degree turn in the road; then \n\n(9) Proceed northwesterly along the 260-foot elevation contour to its intersection with Bursell Road; then \n\n(10) Proceed east along Bursell Road for 0.2 mile to its intersection with the 260-foot elevation contour; then \n\n(11) Proceed north along the 260-foot elevation contour, crossing onto the Dallas map, to the contour's intersection with Whiteaker Road; then \n\n(12) Proceed southeasterly along Whiteaker Road for 1.0 mile to its intersection with the 260-foot elevation contour at a 90 degree turn in the road; then \n\n(13) Proceed north, then west along the 260-foot elevation contour to its intersection with Ballard Road; then \n\n(14) Proceed south along Ballard Road to its intersection with the 300-foot elevation contour; then \n\n(15) Proceed northwesterly along the 300-foot elevation contour, to its intersection with Cherry Knoll Road; then \n\n(16) Proceed south along Cherry Knoll Road to its intersection with the 320-foot elevation contour; then \n\n(17) Proceed northwesterly along the 320-foot elevation contour, returning to the beginning point.","used_maps":"(1) Dallas,  OR,  2014; (2) Airlie North,  OR,  2014","valid_start":null,"valid_end":null,"lcsh":null,"sameas":null,"ttb_name":"Mt. Pisgah Polk County Oregon","cfr_section":"27 CFR 9.284","counties":"Polk","boundary_source":"TTB AVA Map Explorer (AVAs_Production feature service)","boundary_retrieved":"2026-09-30"},"geometry":{"type":"MultiPolygon","coordinates":[[[[-123.309385,44.906853],[-123.308795,44.907224],[-123.307797,44.907628],[-123.307084,44.908099],[-123.306276,44.908571],[-123.30542,44.908638],[-123.305183,44.90847],[-123.304279,44.908907],[-123.304137,44.908907],[-123.302853,44.908571],[-123.30195,44.908638],[-123.300857,44.908907],[-123.300429,44.908941],[-123.298575,44.908772],[-123.298052,44.908503],[-123.297529,44.908739],[-123.297197,44.908604],[-123.296579,44.908133],[-123.296293,44.907762],[-123.295818,44.907729],[-123.294297,44.90746],[-123.293394,44.907359],[-123.292348,44.907123],[-123.291445,44.90719],[-123.29116,44.90682],[-123.290399,44.90713],[-123.290161,44.907163],[-123.289401,44.906961],[-123.288783,44.906692],[-123.288878,44.906254],[-123.289971,44.905884],[-123.288783,44.905817],[-123.288688,44.905345],[-123.287262,44.905985],[-123.286834,44.905682],[-123.286216,44.905379],[-123.285693,44.905009],[-123.285313,44.904874],[-123.285218,44.904268],[-123.285455,44.903763],[-123.28555,44.903392],[-123.284885,44.903372],[-123.284885,44.905258],[-123.284219,44.904806],[-123.284599,44.904234],[-123.283364,44.904436],[-123.282651,44.904436],[-123.282413,44.904268],[-123.28246,44.904167],[-123.2817,44.903695],[-123.279703,44.903695],[-123.279561,44.90346],[-123.279561,44.903022],[-123.279418,44.902921],[-123.278848,44.903157],[-123.278705,44.903258],[-123.278372,44.902753],[-123.277422,44.902854],[-123.276804,44.902652],[-123.276281,44.902887],[-123.275758,44.90282],[-123.275663,44.902416],[-123.27514,44.902349],[-123.27495,44.901507],[-123.274522,44.901507],[-123.274189,44.90218],[-123.273856,44.902349],[-123.273524,44.902248],[-123.273286,44.901507],[-123.273334,44.900934],[-123.27148,44.901339],[-123.270909,44.901271],[-123.271194,44.900631],[-123.271147,44.900295],[-123.270767,44.899992],[-123.270719,44.899264],[-123.270624,44.901958],[-123.269959,44.901918],[-123.269436,44.902187],[-123.268818,44.901951],[-123.267629,44.901648],[-123.267534,44.901379],[-123.266964,44.900908],[-123.265823,44.900402],[-123.264872,44.899763],[-123.264492,44.899628],[-123.263779,44.899224],[-123.263066,44.899224],[-123.262733,44.899392],[-123.26221,44.899224],[-123.26221,44.899022],[-123.262068,44.898719],[-123.26183,44.898618],[-123.261069,44.898517],[-123.261069,44.897742],[-123.260784,44.897372],[-123.260166,44.897204],[-123.259833,44.896867],[-123.259073,44.897103],[-123.25855,44.897338],[-123.258312,44.897338],[-123.257884,44.897035],[-123.257742,44.896597],[-123.256696,44.896665],[-123.255793,44.896463],[-123.25508,44.895621],[-123.254652,44.895251],[-123.254699,44.894308],[-123.254557,44.8936],[-123.254699,44.893163],[-123.254224,44.892354],[-123.254557,44.892119],[-123.254414,44.892018],[-123.253606,44.891802],[-123.253368,44.891364],[-123.253796,44.890859],[-123.253321,44.890287],[-123.254081,44.889781],[-123.253986,44.889546],[-123.253511,44.889209],[-123.253559,44.888771],[-123.253986,44.888266],[-123.255175,44.887323],[-123.25489,44.88702],[-123.25489,44.886683],[-123.255317,44.885706],[-123.25565,44.885471],[-123.256363,44.885168],[-123.256363,44.884932],[-123.255935,44.884561],[-123.255603,44.88382],[-123.254985,44.883719],[-123.254129,44.883719],[-123.253749,44.883315],[-123.253749,44.883113],[-123.253796,44.882877],[-123.254272,44.882608],[-123.254176,44.8819],[-123.254462,44.881698],[-123.255175,44.881698],[-123.255745,44.881328],[-123.255888,44.880755],[-123.255888,44.880519],[-123.25565,44.880216],[-123.25603,44.879778],[-123.257932,44.879745],[-123.258265,44.879981],[-123.258407,44.882069],[-123.258312,44.883315],[-123.260736,44.883113],[-123.263446,44.883281],[-123.264349,44.883248],[-123.264539,44.883483],[-123.26473,44.884123],[-123.264777,44.884864],[-123.265823,44.884817],[-123.269578,44.884878],[-123.269768,44.885114],[-123.269721,44.885929],[-123.270434,44.885686],[-123.270767,44.885316],[-123.271147,44.885181],[-123.271907,44.885316],[-123.272098,44.885248],[-123.27224,44.88508],[-123.27224,44.884709],[-123.273476,44.885013],[-123.273714,44.884878],[-123.273619,44.884507],[-123.273999,44.884272],[-123.275092,44.884608],[-123.276233,44.885114],[-123.276756,44.884945],[-123.277279,44.88508],[-123.277802,44.88508],[-123.278182,44.88545],[-123.278563,44.885956],[-123.27899,44.88572],[-123.279133,44.885282],[-123.278848,44.884878],[-123.277992,44.884137],[-123.276756,44.883396],[-123.276376,44.883059],[-123.276804,44.882857],[-123.277802,44.882857],[-123.278943,44.882554],[-123.279275,44.881981],[-123.278895,44.881813],[-123.277849,44.881746],[-123.277231,44.881577],[-123.276423,44.881442],[-123.276423,44.881072],[-123.277041,44.880668],[-123.276899,44.880263],[-123.277422,44.879927],[-123.277327,44.879792],[-123.276043,44.879994],[-123.275805,44.880162],[-123.275473,44.880331],[-123.27495,44.880533],[-123.274474,44.880836],[-123.273856,44.880769],[-123.273096,44.881005],[-123.272953,44.881173],[-123.272621,44.881274],[-123.271907,44.881173],[-123.271384,44.88124],[-123.270909,44.881139],[-123.270339,44.880903],[-123.270101,44.880903],[-123.269863,44.880634],[-123.269483,44.880937],[-123.269436,44.881308],[-123.268865,44.882217],[-123.268342,44.882453],[-123.268105,44.882689],[-123.267582,44.883093],[-123.267297,44.88279],[-123.266916,44.882284],[-123.266726,44.881779],[-123.266916,44.880903],[-123.267154,44.880398],[-123.267011,44.87996],[-123.266964,44.879051],[-123.266678,44.878546],[-123.266251,44.878276],[-123.265633,44.877602],[-123.265157,44.876491],[-123.264872,44.876019],[-123.26511,44.87548],[-123.26587,44.875009],[-123.264967,44.874908],[-123.264254,44.874739],[-123.263921,44.873897],[-123.263779,44.87319],[-123.264207,44.872549],[-123.263779,44.871606],[-123.264016,44.870865],[-123.264349,44.870562],[-123.264492,44.869753],[-123.2653,44.869383],[-123.265775,44.868945],[-123.266802,44.869255],[-123.271717,44.869127],[-123.270576,44.868891],[-123.268818,44.868251],[-123.268532,44.867948],[-123.268152,44.868183],[-123.267534,44.868217],[-123.265823,44.86751],[-123.265252,44.866836],[-123.264825,44.864444],[-123.265015,44.863736],[-123.265157,44.862692],[-123.265433,44.862038],[-123.265585,44.860232],[-123.265538,44.856795],[-123.26568,44.854268],[-123.266003,44.853668],[-123.267344,44.853964],[-123.271936,44.854113],[-123.272288,44.854571],[-123.272288,44.854942],[-123.271812,44.855144],[-123.271717,44.855649],[-123.272145,44.85629],[-123.27167,44.857233],[-123.272573,44.857637],[-123.273001,44.858244],[-123.273524,44.859187],[-123.273999,44.858884],[-123.274189,44.858514],[-123.275235,44.857402],[-123.276138,44.858379],[-123.276946,44.859625],[-123.277707,44.860636],[-123.278135,44.860805],[-123.278325,44.860198],[-123.277992,44.859221],[-123.277754,44.858176],[-123.277802,44.857739],[-123.27804,44.85693],[-123.277707,44.856424],[-123.277754,44.855986],[-123.278467,44.855784],[-123.279466,44.856694],[-123.279798,44.856492],[-123.280226,44.856525],[-123.280797,44.857098],[-123.281415,44.856963],[-123.282223,44.857098],[-123.283174,44.857132],[-123.283459,44.856728],[-123.283886,44.856728],[-123.284314,44.857334],[-123.285027,44.857402],[-123.285788,44.857368],[-123.286073,44.857671],[-123.286834,44.858143],[-123.287309,44.857705],[-123.287547,44.857907],[-123.290209,44.858648],[-123.291777,44.858884],[-123.29249,44.858918],[-123.292757,44.85852],[-123.299383,44.859727],[-123.301237,44.85976],[-123.303852,44.86003],[-123.305563,44.860501],[-123.306466,44.860569],[-123.307654,44.860367],[-123.308748,44.859592],[-123.310031,44.858379],[-123.311743,44.856458],[-123.313454,44.854841],[-123.314262,44.8542],[-123.314309,44.85383],[-123.314309,44.853257],[-123.314452,44.85265],[-123.315118,44.852212],[-123.317922,44.851976],[-123.32202,44.85205],[-123.325528,44.855919],[-123.325908,44.856626],[-123.325908,44.857064],[-123.326336,44.858143],[-123.326574,44.859053],[-123.327097,44.859895],[-123.327715,44.860468],[-123.32819,44.86158],[-123.328466,44.862564],[-123.327429,44.862644],[-123.327287,44.862981],[-123.326241,44.862981],[-123.326574,44.863588],[-123.326574,44.864093],[-123.326479,44.864632],[-123.326764,44.865138],[-123.326669,44.865913],[-123.326194,44.866452],[-123.325528,44.866721],[-123.324672,44.866553],[-123.32415,44.866351],[-123.322628,44.865508],[-123.322533,44.865778],[-123.321915,44.865946],[-123.322723,44.866586],[-123.323009,44.867429],[-123.323389,44.868069],[-123.323009,44.868237],[-123.322771,44.868204],[-123.32201,44.868237],[-123.322486,44.868844],[-123.322105,44.869282],[-123.322343,44.869922],[-123.322153,44.870259],[-123.321868,44.870629],[-123.321773,44.871067],[-123.32163,44.871168],[-123.320727,44.871438],[-123.321297,44.87164],[-123.321297,44.871943],[-123.321155,44.87265],[-123.320822,44.872954],[-123.320584,44.873345],[-123.319966,44.873378],[-123.320299,44.874321],[-123.320156,44.874658],[-123.319919,44.874827],[-123.319396,44.875029],[-123.319396,44.875332],[-123.318588,44.875231],[-123.318778,44.875905],[-123.318398,44.876174],[-123.318493,44.876376],[-123.31797,44.876477],[-123.318112,44.876949],[-123.318588,44.877454],[-123.318635,44.878162],[-123.318445,44.878667],[-123.318493,44.878903],[-123.318493,44.879543],[-123.318398,44.879745],[-123.317827,44.879846],[-123.317447,44.880385],[-123.316877,44.880654],[-123.316306,44.880587],[-123.315574,44.880634],[-123.307921,44.880796],[-123.307845,44.8819],[-123.306846,44.882978],[-123.305943,44.883787],[-123.305373,44.88409],[-123.305135,44.884494],[-123.30504,44.884864],[-123.304992,44.885592],[-123.306704,44.885693],[-123.310887,44.88768],[-123.311552,44.888286],[-123.312123,44.889398],[-123.312456,44.890341],[-123.313264,44.894079],[-123.313834,44.897614],[-123.314214,44.899197],[-123.314214,44.900073],[-123.314119,44.900645],[-123.313882,44.901184],[-123.313406,44.901689],[-123.312693,44.902261],[-123.311505,44.903069],[-123.310031,44.904147],[-123.309461,44.904517],[-123.309318,44.904786],[-123.309461,44.905359],[-123.309385,44.906853]]]]}}]}