{"type":"FeatureCollection","features":[{"type":"Feature","properties":{"ava_id":"van_duzer_corridor","name":"Van Duzer Corridor","aka":null,"created":"2018-12-14","removed":null,"county":"Polk|Yamhill","state":"OR","within":"Willamette Valley","contains":null,"petitioner":"John J. Manfreda","cfr_author":"Kaori Flores","cfr_index":"9.265","cfr_revision_history":"[T.D. TTB-155, 83 FR 64280, Dec. 14, 2018]","approved_maps":"(1) Sheridan, Oreg., 1956; revised 1992; (2) Ballston, Oreg., 1956; revised 1992; (3) Dallas, Oreg., 1974; photorevised 1986; (4) Amity, Oreg., 1957; revised 1993; and (5) Rickreall, Oreg., 1969; photorevised 1976.","boundary_description":"(1) The beginning point is on the Sheridan map at the intersection of State Highway 22 and Red Prairie Road. From the beginning point, proceed southeasterly along State Highway 22 for a total of 12.4 miles, crossing over the Ballston and Dallas maps and onto the Rickreall map, to the intersection of the highway with the 200-foot elevation contour west of the Oak Knoll Golf Course; then (2) Proceed north on the 200-foot elevation contour, crossing onto the Amity map, to the third intersection of the elevation contour with Frizzell Road; then (3) Proceed east on Frizzell Road for 0.3 mile to the intersection of the road with Oak Grove Road; then (4) Proceed north along Oak Grove Road for 1.7 miles to the intersection of the road with Zena Road; then (5) Proceed east on Zena Road for approximately 0.25 mile to the second intersection of the road with the 200-foot elevation contour; then (6) Proceed northwest along the 200-foot elevation contour to the intersection of the elevation contour with Oak Grove Road; then (7) Proceed north along Oak Grove Road (which becomes Old Bethel Road) approximately 7.75 miles to the intersection of the road with Patty Lane; then (8) Proceed west in a straight line for a total of 10.8 miles, crossing over the Ballston map and onto the Sheridan map, to the intersection of the line with State Highway 18; then (9) Proceed southwest along State Highway 18 for 0.3 miles to the intersection of the highway with Red Prairie Road; then (10) Proceed south along Red Prairie Road for approximately 5.3 miles, returning to the beginning point.","used_maps":"(1) Sheridan, Oreg., 1956; revised 1992; (2) Ballston, Oreg., 1956; revised 1992; (3) Dallas, Oreg., 1974; photorevised 1986; (4) Amity, Oreg., 1957; revised 1993; and (5) Rickreall, Oreg., 1969; photorevised 1976.","valid_start":null,"valid_end":null,"lcsh":null,"sameas":null,"ttb_name":"Van Duzer Corridor","cfr_section":"27 CFR 9.265","counties":"Polk, Yamhill","boundary_source":"TTB AVA Map Explorer (AVAs_Production feature service)","boundary_retrieved":"2026-09-30"},"geometry":{"type":"MultiPolygon","coordinates":[[[[-123.162957,44.933076],[-123.162949,44.933076],[-123.162956,44.933073],[-123.162957,44.933076]]],[[[-123.402694,45.007998],[-123.402759,45.009715],[-123.402045,45.01037],[-123.402075,45.020233],[-123.401866,45.036288],[-123.401926,45.0384],[-123.40499,45.03843],[-123.405109,45.038787],[-123.405168,45.041791],[-123.405257,45.041969],[-123.405585,45.042147],[-123.407518,45.042058],[-123.407845,45.042296],[-123.407904,45.051219],[-123.407964,45.051606],[-123.412455,45.051618],[-123.412396,45.055187],[-123.412485,45.065151],[-123.412574,45.0653],[-123.412574,45.077566],[-123.413441,45.084744],[-123.407331,45.086514],[-123.380481,45.08637],[-123.339703,45.08631],[-123.306956,45.08631],[-123.283578,45.086221],[-123.258028,45.086191],[-123.226411,45.08631],[-123.186098,45.0864],[-123.186377,45.077086],[-123.186261,45.076578],[-123.186363,45.072045],[-123.186457,45.07097],[-123.186453,45.066157],[-123.18652,45.06571],[-123.18668,45.063711],[-123.186633,45.061699],[-123.186656,45.060182],[-123.186611,45.044098],[-123.186635,45.043812],[-123.186707,45.043662],[-123.186795,45.043571],[-123.186795,45.043405],[-123.186874,45.043266],[-123.185866,45.044463],[-123.185688,45.04488],[-123.185212,45.045534],[-123.185033,45.045534],[-123.184855,45.044642],[-123.184498,45.044345],[-123.183903,45.044166],[-123.182773,45.044345],[-123.182594,45.044523],[-123.181642,45.045058],[-123.181583,45.044463],[-123.182475,45.043333],[-123.182832,45.042262],[-123.183784,45.04143],[-123.183665,45.041132],[-123.183427,45.040954],[-123.182535,45.040537],[-123.182535,45.039943],[-123.182118,45.039705],[-123.181464,45.039467],[-123.181167,45.039407],[-123.181107,45.039229],[-123.182178,45.038931],[-123.182356,45.038515],[-123.182059,45.038336],[-123.181345,45.037742],[-123.181642,45.037563],[-123.18307,45.037325],[-123.183546,45.037028],[-123.183843,45.036671],[-123.182237,45.036135],[-123.181226,45.035957],[-123.180512,45.035897],[-123.180453,45.035957],[-123.179917,45.036135],[-123.179382,45.036135],[-123.178906,45.035719],[-123.177895,45.035303],[-123.177716,45.035303],[-123.177478,45.035362],[-123.177181,45.035362],[-123.177121,45.035124],[-123.176586,45.034708],[-123.176824,45.034053],[-123.176646,45.033518],[-123.177003,45.033637],[-123.177776,45.033756],[-123.178311,45.033756],[-123.179382,45.033994],[-123.179798,45.033756],[-123.180096,45.033756],[-123.179203,45.032864],[-123.179025,45.032507],[-123.178728,45.032388],[-123.178311,45.032031],[-123.178311,45.031793],[-123.178668,45.031555],[-123.17843,45.031139],[-123.18081,45.03102],[-123.181464,45.031317],[-123.182178,45.031436],[-123.182654,45.031555],[-123.183435,45.032047],[-123.183832,45.031423],[-123.183924,45.031215],[-123.183955,45.031026],[-123.183947,45.030543],[-123.183678,45.024931],[-123.183807,45.019836],[-123.183797,45.013678],[-123.18967,45.013696],[-123.188506,45.012824],[-123.188064,45.012012],[-123.189289,45.011841],[-123.190525,45.011876],[-123.192122,45.011442],[-123.1934,45.011591],[-123.194899,45.012528],[-123.195591,45.012697],[-123.197366,45.012476],[-123.199161,45.012015],[-123.199988,45.012132],[-123.200898,45.013367],[-123.201114,45.014373],[-123.200848,45.015606],[-123.201325,45.016217],[-123.202503,45.016345],[-123.20318,45.015753],[-123.204564,45.015345],[-123.205616,45.014874],[-123.205902,45.01354],[-123.204599,45.011049],[-123.2038,45.009666],[-123.202975,45.009059],[-123.202424,45.008152],[-123.203093,45.007222],[-123.203132,45.006142],[-123.203299,45.005559],[-123.204331,45.00581],[-123.205146,45.00517],[-123.205468,45.003969],[-123.205986,45.003811],[-123.206465,45.002698],[-123.207574,45.001882],[-123.208402,44.999156],[-123.208806,44.994663],[-123.208376,44.993583],[-123.208149,44.992653],[-123.208168,44.991944],[-123.207671,44.991168],[-123.207043,44.989921],[-123.206521,44.98796],[-123.205944,44.986088],[-123.204684,44.984277],[-123.204075,44.982999],[-123.202759,44.982015],[-123.201055,44.979778],[-123.19974,44.97788],[-123.199003,44.975826],[-123.198123,44.973781],[-123.198681,44.972776],[-123.198645,44.971255],[-123.198257,44.970114],[-123.197346,44.969111],[-123.197418,44.968128],[-123.197082,44.967442],[-123.196368,44.966988],[-123.195828,44.967164],[-123.195281,44.968001],[-123.194409,44.968723],[-123.193791,44.969613],[-123.19305,44.970469],[-123.192925,44.97144],[-123.191996,44.971524],[-123.190888,44.971994],[-123.190213,44.97336],[-123.18975,44.974969],[-123.187837,44.975801],[-123.18739,44.975791],[-123.187604,44.974951],[-123.187014,44.974015],[-123.186809,44.972746],[-123.187036,44.971411],[-123.187732,44.970391],[-123.188075,44.969754],[-123.18812,44.968074],[-123.188719,44.966802],[-123.189263,44.965012],[-123.18947,44.963849],[-123.188292,44.963462],[-123.186018,44.963503],[-123.184567,44.963806],[-123.182731,44.963494],[-123.180341,44.963461],[-123.181411,44.962731],[-123.182891,44.960959],[-123.184123,44.960409],[-123.18506,44.960051],[-123.18572,44.959452],[-123.186095,44.958571],[-123.186338,44.957648],[-123.186444,44.956874],[-123.187111,44.955635],[-123.187052,44.954355],[-123.186142,44.95374],[-123.184506,44.95356],[-123.183024,44.95359],[-123.18018,44.953818],[-123.178573,44.954122],[-123.178255,44.953457],[-123.177417,44.952241],[-123.177063,44.950941],[-123.175934,44.950321],[-123.175207,44.950474],[-123.176032,44.94985],[-123.177089,44.949646],[-123.178111,44.949302],[-123.178748,44.94871],[-123.179162,44.948064],[-123.180424,44.947537],[-123.18087,44.946983],[-123.180574,44.945923],[-123.179363,44.945026],[-123.178911,44.944319],[-123.178309,44.943846],[-123.177359,44.944197],[-123.177284,44.944895],[-123.177642,44.946187],[-123.177927,44.946997],[-123.177336,44.947538],[-123.176355,44.947742],[-123.175577,44.947449],[-123.174592,44.946793],[-123.173842,44.946077],[-123.172469,44.945855],[-123.171327,44.945999],[-123.170104,44.946533],[-123.168919,44.945992],[-123.167356,44.945565],[-123.166672,44.944746],[-123.165707,44.943467],[-123.165469,44.94249],[-123.163525,44.942122],[-123.163602,44.941384],[-123.16332,44.940157],[-123.163117,44.939295],[-123.162647,44.938328],[-123.161506,44.936707],[-123.160885,44.936292],[-123.159682,44.936379],[-123.159875,44.935621],[-123.16073,44.935331],[-123.161439,44.934811],[-123.162527,44.934832],[-123.163393,44.934402],[-123.163252,44.933694],[-123.162957,44.933076],[-123.175134,44.933287],[-123.196489,44.933823],[-123.211926,44.934269],[-123.228553,44.934626],[-123.233014,44.934655],[-123.23578,44.934179],[-123.236762,44.933971],[-123.238189,44.934001],[-123.239082,44.93409],[-123.239795,44.934328],[-123.247172,44.938641],[-123.256571,44.944251],[-123.260616,44.946452],[-123.266505,44.949753],[-123.279116,44.956993],[-123.286254,44.961186],[-123.294821,44.966034],[-123.298836,44.968206],[-123.300442,44.969366],[-123.302078,44.97008],[-123.306658,44.972471],[-123.328817,44.983744],[-123.34238,44.990549],[-123.347466,44.993166],[-123.362605,45.00081],[-123.366442,45.002625],[-123.368881,45.003874],[-123.371409,45.004796],[-123.37364,45.005331],[-123.376347,45.00623],[-123.378934,45.006854],[-123.380689,45.00739],[-123.381582,45.007509],[-123.383604,45.00739],[-123.384586,45.007211],[-123.385508,45.007271],[-123.38637,45.007271],[-123.387857,45.007538],[-123.390594,45.008163],[-123.391665,45.008193],[-123.393925,45.008163],[-123.400855,45.007925],[-123.402694,45.007998]]]]}}]}